Coordinates
version=1
nRows=84
nColumns=24
inDegrees=yes

Units are S.I. units (second, meters, Newtons, ...)
If the header above contains a line with 'inDegrees', this indicates whether rotational values are in degrees (yes) or radians (no).

endheader
time	pelvis_tilt	pelvis_list	pelvis_rotation	pelvis_tx	pelvis_ty	pelvis_tz	hip_flexion_r	hip_adduction_r	hip_rotation_r	knee_angle_r	ankle_angle_r	subtalar_angle_r	mtp_angle_r	hip_flexion_l	hip_adduction_l	hip_rotation_l	knee_angle_l	ankle_angle_l	subtalar_angle_l	mtp_angle_l	lumbar_extension	lumbar_bending	lumbar_rotation
      1.24000000	      0.33521302	      0.66067016	      1.98636044	      0.11515674	      0.71276216	     -0.09241696	     30.44561634	      1.86254755	    -11.47785927	    -19.44501497	      3.08247214	    -10.15513723	      0.00000000	    -12.87723154	      1.83479501	     -1.70665843	    -36.05039148	     11.94716314	     -3.11812909	      0.00000000	    -11.58270392	     -2.90504945	     -4.94328003
      1.25000000	      0.12842582	     -0.36826310	      2.05228919	      0.13095045	      0.71132045	     -0.09111805	     30.72920904	      3.12785366	    -10.71271190	    -21.67487633	      2.07912413	    -12.20415498	      0.00000000	    -11.52973768	      0.46400658	     -2.06966006	    -40.02611421	      8.98809756	     -3.68967688	      0.00000000	    -11.17457591	     -1.77052418	     -4.97290465
      1.26000000	     -0.04784392	     -1.43121428	      2.09905869	      0.14663740	      0.71017416	     -0.08975782	     30.93414008	      4.43985651	    -10.07112206	    -23.89207265	      1.45022015	    -13.94431161	      0.00000000	    -10.02745387	     -1.01464199	     -2.49739717	    -44.09883849	      5.75960534	     -4.28903210	      0.00000000	    -10.82218436	     -0.61247218	     -5.02069885
      1.27000000	     -0.19940978	     -2.50108782	      2.12610545	      0.16216932	      0.70936791	     -0.08836060	     31.03113244	      5.76463386	     -9.57887017	    -25.98964073	      1.30864093	    -15.28689535	      0.00000000	     -8.38493429	     -2.55242894	     -2.90497408	    -48.18093848	      2.49959635	     -5.05003555	      0.00000000	    -10.52485035	      0.53782703	     -5.07519091
      1.28000000	     -0.34126550	     -3.56109380	      2.13663908	      0.17749799	      0.70892423	     -0.08694253	     31.00060088	      7.07718336	     -9.24494282	    -27.87635733	      1.68272098	    -16.21179714	      0.00000000	     -6.59072496	     -4.11955452	     -3.24722513	    -52.21778831	     -0.49454644	     -5.95766931	      0.00000000	    -10.26986905	      1.66077539	     -5.13440109
      1.29000000	     -0.48536945	     -4.58254995	      2.12744847	      0.19258414	      0.70885978	     -0.08552957	     30.82508371	      8.34183538	     -9.05756596	    -29.48695988	      2.53055888	    -16.72670334	      0.00000000	     -4.63965758	     -5.65638036	     -3.47583164	    -56.15090025	     -2.97806162	     -7.04700627	      0.00000000	    -10.04721655	      2.72516926	     -5.18452465
      1.30000000	     -0.64497196	     -5.54550119	      2.09858416	      0.20740084	      0.70917230	     -0.08413990	     30.49206262	      9.53360828	     -8.99513646	    -30.76990985	      3.75310198	    -16.87112717	      0.00000000	     -2.51871125	     -7.12148559	     -3.57174745	    -59.93596497	     -4.76982521	     -8.25328922	      0.00000000	     -9.84221719	      3.70997998	     -5.21925547
      1.31000000	     -0.81999645	     -6.42989543	      2.04553731	      0.22193735	      0.70985781	     -0.08278617	     29.98004735	     10.63582813	     -9.01422529	    -31.68826178	      5.21695194	    -16.71862880	      0.00000000	     -0.23514408	     -8.47195471	     -3.53260772	    -63.52313204	     -5.80761930	     -9.54747759	      0.00000000	     -9.65483305	      4.59427092	     -5.22376623
      1.32000000	     -1.01424504	     -7.21754064	      1.96933784	      0.23619670	      0.71088875	     -0.08148643	     29.28750204	     11.62484816	     -9.09824089	    -32.23729888	      6.80427454	    -16.27848181	      0.00000000	      2.20453912	     -9.67027931	     -3.36261042	    -66.86278610	     -6.09804425	    -10.85084437	      0.00000000	     -9.47702993	      5.36099526	     -5.19352367
      1.33000000	     -1.22132084	     -7.89639535	      1.86596805	      0.25019762	      0.71223436	     -0.08024810	     28.40807789	     12.49362483	     -9.20841260	    -32.42211541	      8.39711936	    -15.60789036	      0.00000000	      4.77239703	    -10.69023782	     -3.08380998	    -69.90086907	     -5.72114244	    -12.09338411	      0.00000000	     -9.31136768	      6.00047933	     -5.11979353
      1.34000000	     -1.43401714	     -8.45614650	      1.73264530	      0.26396609	      0.71385167	     -0.07907833	     27.34696323	     13.23558793	     -9.31311352	    -32.26954854	      9.90448429	    -14.75467997	      0.00000000	      7.43263314	    -11.51121756	     -2.72263438	    -72.58616244	     -4.79451526	    -13.20648007	      0.00000000	     -9.16096366	      6.50489649	     -4.99293810
      1.35000000	     -1.64638846	     -8.89017025	      1.56317259	      0.27753426	      0.71568610	     -0.07798231	     26.11986231	     13.84822458	     -9.38293986	    -31.82220200	     11.26731087	    -13.76390343	      0.00000000	     10.14361636	    -12.12195063	     -2.31302130	    -74.87481591	     -3.45576026	    -14.12752911	      0.00000000	     -9.02717136	      6.87148261	     -4.80210913
      1.36000000	     -1.85207701	     -9.19672874	      1.35185290	      0.29093627	      0.71767742	     -0.07696467	     24.74830653	     14.33249439	     -9.39521764	    -31.13255675	     12.45726179	    -12.68092966	      0.00000000	     12.85937692	    -12.52244305	     -1.88962479	    -76.73316005	     -1.84800885	    -14.81302746	      0.00000000	     -8.91204294	      7.10388359	     -4.54060801
      1.37000000	     -2.04753024	     -9.37870613	      1.09050552	      0.30420519	      0.71975944	     -0.07602830	     23.25995012	     14.69335632	     -9.33002187	    -30.25782330	     13.47140434	    -11.55283377	      0.00000000	     15.53540847	    -12.72395688	     -1.48758132	    -78.13989996	     -0.10936148	    -15.25361223	      0.00000000	     -8.81543362	      7.21125354	     -4.19884779
      1.38000000	     -2.23068906	     -9.44422478	      0.77130184	      0.31737293	      0.72186523	     -0.07517704	     21.68339123	     14.93908046	     -9.17326811	    -29.25318160	     14.32595792	    -10.42382143	      0.00000000	     18.13058370	    -12.74870925	     -1.13732220	    -79.08550233	      1.63538935	    -15.47997341	      0.00000000	     -8.73585384	      7.20887779	     -3.76877905
      1.39000000	     -2.39946732	     -9.40744360	      0.38769982	      0.33046934	      0.72393010	     -0.07441337	     20.04399829	     15.08267498	     -8.91558415	    -28.16719148	     15.04758073	     -9.33852785	      0.00000000	     20.60898596	    -12.62982696	     -0.86197937	    -79.57180032	      3.28435956	    -15.55524400	      0.00000000	     -8.67268211	      7.11895918	     -3.24654355
      1.40000000	     -2.55857392	     -9.28262287	     -0.06741664	      0.34351944	      0.72588820	     -0.07374103	     18.37152467	     15.13421423	     -8.55504876	    -27.04418757	     15.67073153	     -8.32408247	      0.00000000	     22.94783028	    -12.40123441	     -0.67772241	    -79.60828182	      4.75941425	    -15.57436410	      0.00000000	     -8.61800739	      6.96311924	     -2.62589022
      1.41000000	     -2.70397826	     -9.09289125	     -0.59439751	      0.35655048	      0.72768848	     -0.07316171	     16.67794316	     15.11234662	     -8.09471991	    -25.91141508	     16.22467804	     -7.40744517	      0.00000000	     25.12356749	    -12.10849577	     -0.58928139	    -79.21150272	      6.01795638	    -15.61351840	      0.00000000	     -8.57427194	      6.77212889	     -1.91154990
      1.42000000	     -2.83979370	     -8.85933528	     -1.19181954	      0.36958331	      0.72928050	     -0.07267737	     14.98033030	     15.03088572	     -7.54650783	    -24.79038815	     16.73559896	     -6.59476513	      0.00000000	     27.12889558	    -11.79099335	     -0.59328308	    -78.40139527	      7.03994938	    -15.74240456	      0.00000000	     -8.53549882	      6.57310865	     -1.11035462
      1.43000000	     -2.96838572	     -8.60397520	     -1.85367499	      0.38263750	      0.73062515	     -0.07228806	     13.28803332	     14.90424151	     -6.92637677	    -23.69187235	     17.22224016	     -5.88175310	      0.00000000	     28.96080103	    -11.48627097	     -0.68008158	    -77.19923198	      7.83030310	    -15.98941961	      0.00000000	     -8.49870937	      6.39273693	     -0.23621588
      1.44000000	     -3.09960718	     -8.34534590	     -2.57131260	      0.39572625	      0.73168608	     -0.07199314	     11.61605530	     14.74246212	     -6.25752478	    -22.62270435	     17.69747591	     -5.24730504	      0.00000000	     30.62913571	    -11.22315563	     -0.83636321	    -75.62546643	      8.40895205	    -16.34847816	      0.00000000	     -8.45328021	      6.25225724	      0.69232537
      1.45000000	     -3.23791265	     -8.10193713	     -3.33038110	      0.40886271	      0.73244377	     -0.07178907	      9.96740984	     14.55727502	     -5.56347716	    -21.57771425	     18.16133340	     -4.67024922	      0.00000000	     32.14121651	    -11.02613872	     -1.04612787	    -73.69898024	      8.81177217	    -16.77004534	      0.00000000	     -8.39572534	      6.17092192	      1.64886516
      1.46000000	     -3.39910583	     -7.88266684	     -4.11726978	      0.42205287	      0.73287699	     -0.07167470	      8.36242144	     14.34827154	     -4.88874475	    -20.56211425	     18.62254609	     -4.08047704	      0.00000000	     33.51680984	    -10.90551660	     -1.29910275	    -71.43465938	      9.08359517	    -17.17399313	      0.00000000	     -8.31046982	      6.15726895	      2.60818804
      1.47000000	     -3.59572870	     -7.69674494	     -4.91428424	      0.43530220	      0.73297835	     -0.07164227	      6.80885148	     14.12489748	     -4.24794610	    -19.56349567	     19.06656681	     -3.47784404	      0.00000000	     34.77317776	    -10.86851835	     -1.58585570	    -68.84492588	      9.27269510	    -17.47654611	      0.00000000	     -8.18554274	      6.21815481	      3.53807212
      1.48000000	     -3.84182823	     -7.54308506	     -5.70519038	      0.44861736	      0.73274522	     -0.07168753	      5.32420134	     13.88232143	     -3.68669335	    -18.58591626	     19.49448744	     -2.79047708	      0.00000000	     35.92611005	    -10.91060238	     -1.90856468	    -65.93868100	      9.43890366	    -17.57130501	      0.00000000	     -8.00587145	      6.34898020	      4.41019873
      1.49000000	     -4.15073658	     -7.41892206	     -6.47456845	      0.46200462	      0.73218309	     -0.07180156	      3.92061032	     13.62331173	     -3.22022743	    -17.62483435	     19.89380635	     -2.01873169	      0.00000000	     36.98891111	    -11.02348586	     -2.27634290	    -62.72240331	      9.63016997	    -17.39014184	      0.00000000	     -7.75605353	      6.54258897	      5.19767457
      1.50000000	     -4.52944933	     -7.31564099	     -7.20991422	      0.47547762	      0.73130611	     -0.07197636	      2.60798956	     13.34451462	     -2.86997522	    -16.68603090	     20.25835713	     -1.14450141	      0.00000000	     37.96381493	    -11.19297700	     -2.71050658	    -59.20241323	      9.89495503	    -16.87106614	      0.00000000	     -7.42535632	      6.78458473	      5.87972067
      1.51000000	     -4.97784292	     -7.22186150	     -7.90329288	      0.48905910	      0.73013760	     -0.07220210	      1.38992566	     13.04183679	     -2.64595836	    -15.77992100	     20.58416519	     -0.16977859	      0.00000000	     38.84148149	    -11.40178077	     -3.24371896	    -55.38745583	     10.26296155	    -15.98331339	      0.00000000	     -7.00813482	      7.05626312	      6.44466073
      1.52000000	     -5.48429984	     -7.12461211	     -8.55147789	      0.50278339	      0.72871255	     -0.07246994	      0.25858331	     12.70959275	     -2.54295616	    -14.92054922	     20.86822887	      0.88051927	      0.00000000	     39.59621349	    -11.62885067	     -3.91674001	    -51.29261863	     10.73978606	    -14.72134559	      0.00000000	     -6.50932097	      7.33560847	      6.89141354
      1.53000000	     -6.02476364	     -7.01070544	     -9.15741832	      0.51670053	      0.72707481	     -0.07277219	     -0.80434932	     12.33784621	     -2.55272703	    -14.13005696	     21.11475065	      1.98412074	      0.00000000	     40.18949340	    -11.85018349	     -4.77432711	    -46.95040478	     11.30626073	    -13.10784994	      0.00000000	     -5.94538712	      7.59885132	      7.22964245
      1.54000000	     -6.55901097	     -6.86860359	     -9.72819400	      0.53087320	      0.72528093	     -0.07310543	     -1.83417220	     11.91312619	     -2.65648529	    -13.43235641	     21.32937959	      3.11036990	      0.00000000	     40.57140380	    -12.03700082	     -5.85227477	    -42.41946028	     11.91221841	    -11.19584735	      0.00000000	     -5.35065433	      7.82188464	      7.48156919
      1.55000000	     -7.04333529	     -6.69041130	    -10.27438564	      0.54536798	      0.72338555	     -0.07347009	     -2.86710331	     11.42121890	     -2.83031391	    -12.85651501	     21.52036218	      4.22711932	      0.00000000	     40.70471391	    -12.15761871	     -7.15772909	    -37.80138677	     12.48859299	     -9.07343490	      0.00000000	     -4.76340817	      7.98448072	      7.67948202
      1.56000000	     -7.42813921	     -6.47648320	    -10.80410085	      0.56024458	      0.72144290	     -0.07386847	     -3.94558573	     10.85201358	     -3.04910258	    -12.43019131	     21.68945018	      5.30363620	      0.00000000	     40.57856031	    -12.18571060	     -8.65514252	    -33.26217023	     12.96888238	     -6.86343228	      0.00000000	     -4.23287875	      8.07439937	      7.85475209
      1.57000000	     -7.68460260	     -6.22527906	    -11.32018001	      0.57553355	      0.71949554	     -0.07430710	     -5.08323648	     10.19582887	     -3.28642551	    -12.18525225	     21.83135577	      6.29896254	      0.00000000	     40.22801404	    -12.09241768	    -10.23882924	    -29.00308688	     13.29734590	     -4.75998864	      0.00000000	     -3.78684060	      8.08012532	      8.03084375
      1.58000000	     -7.80776673	     -5.93325467	    -11.81762827	      0.59122877	      0.71757618	     -0.07479151	     -6.26250869	      9.44697914	     -3.51546727	    -12.15516515	     21.92705612	      7.16372304	      0.00000000	     39.72603824	    -11.85600412	    -11.73529572	    -25.23734780	     13.44170974	     -3.02882587	      0.00000000	     -3.42892994	      7.99150962	      8.21498856
      1.59000000	     -7.81837233	     -5.59812717	    -12.28358654	      0.60728818	      0.71570703	     -0.07532012	     -7.43634418	      8.61229133	     -3.69719763	    -12.37184342	     21.94065967	      7.82262227	      0.00000000	     39.17382630	    -11.47611301	    -12.94357929	    -22.16827062	     13.40087806	     -1.93636767	      0.00000000	     -3.13665241	      7.80319839	      8.39950579
      1.60000000	     -7.75192189	     -5.21985921	    -12.70189989	      0.62364873	      0.71390756	     -0.07588385	     -8.54174331	      7.71039046	     -3.78286055	    -12.86580243	     21.82034720	      8.18765585	      0.00000000	     38.67657528	    -10.97606237	    -13.70429706	    -19.96769633	     13.19671015	     -1.66784433	      0.00000000	     -2.87326872	      7.51536144	      8.56858263
      1.61000000	     -7.64326503	     -4.80123971	    -13.05744955	      0.64024519	      0.71220269	     -0.07647312	     -9.51924218	      6.76869679	     -3.70787270	    -13.66430597	     21.50208133	      8.15163384	      0.00000000	     38.31686769	    -10.38947381	    -13.94545917	    -18.75115018	     12.84821392	     -2.26566349	      0.00000000	     -2.60517094	      7.13392516	      8.70699913
      1.62000000	     -7.51647415	     -4.35151642	    -13.34287749	      0.65702099	      0.71061699	     -0.07708166	    -10.31578882	      5.81733837	     -3.43056108	    -14.80868252	     20.92274298	      7.66784362	      0.00000000	     38.15083020	     -9.75509771	    -13.71321608	    -18.58597462	     12.38099927	     -3.58838651	      0.00000000	     -2.31425402	      6.67347073	      8.81065415
      1.63000000	     -7.37715354	     -3.88660743	    -13.55862189	      0.67393779	      0.70918413	     -0.07770928	    -10.90439407	      4.89198949	     -2.89516023	    -16.33173149	     20.00892631	      6.66781157	      0.00000000	     38.17926856	     -9.09579787	    -13.10851246	    -19.43935322	     11.79839101	     -5.42288563	      0.00000000	     -2.00540611	      6.15614806	      8.88940334
      1.64000000	     -7.20793066	     -3.41238215	    -13.71472384	      0.69097842	      0.70794729	     -0.07836582	    -11.26781706	      4.00201348	     -2.12102223	    -18.28736040	     18.70664552	      5.20487626	      0.00000000	     38.33021611	     -8.40135884	    -12.25749498	    -21.15059885	     11.10276989	     -7.55255507	      0.00000000	     -1.70708109	      5.59194576	      8.96284674
      1.65000000	     -6.98183604	     -2.93250313	    -13.82409119	      0.70813079	      0.70695080	     -0.07905721	    -11.40036908	      3.14919024	     -1.16422078	    -20.71940213	     16.97099426	      3.37938032	      0.00000000	     38.49647419	     -7.65745899	    -11.31823379	    -23.48583846	     10.33114046	     -9.71847405	      0.00000000	     -1.45725446	      4.98635400	      9.04810918
      1.66000000	     -6.67968216	     -2.43438879	    -13.90071558	      0.72536682	      0.70622850	     -0.07978923	    -11.28054684	      2.31259639	     -0.13186621	    -23.67028477	     14.79126136	      1.35864969	      0.00000000	     38.56357296	     -6.84224424	    -10.44265712	    -26.16201848	      9.56966941	    -11.68914143	      0.00000000	     -1.28240673	      4.32856602	      9.15506685
      1.67000000	     -6.30527223	     -1.89399334	    -13.95253876	      0.74263346	      0.70578866	     -0.08056953	    -10.87205712	      1.46115719	      0.85906690	    -27.15280102	     12.20587499	     -0.69574225	      0.00000000	     38.45174226	     -5.93729230	     -9.75258802	    -28.90714895	      8.94909673	    -13.28103308	      0.00000000	     -1.18068263	      3.59956716	      9.27604454
      1.68000000	     -5.87306044	     -1.27476486	    -13.98308901	      0.75986068	      0.70562589	     -0.08141904	    -10.14252940	      0.54273454	      1.69614940	    -31.13908557	      9.32583362	     -2.61023451	      0.00000000	     38.11079257	     -4.91072785	     -9.29776734	    -31.48284108	      8.58542088	    -14.48292424	      0.00000000	     -1.13691225	      2.76899021	      9.39857161
      1.69000000	     -5.41525631	     -0.56330957	    -13.98712461	      0.77697109	      0.70571319	     -0.08234228	     -9.08263104	     -0.45536731	      2.35546111	    -35.53570049	      6.31986572	     -4.38819558	      0.00000000	     37.54753786	     -3.76779305	     -9.10927932	    -33.74446150	      8.59230178	    -15.23420575	      0.00000000	     -1.12182597	      1.83348577	      9.49272298
      1.70000000	     -4.95961109	      0.24618859	    -13.95834904	      0.79390128	      0.70602734	     -0.08335085	     -7.70743132	     -1.54413068	      2.83714092	    -40.22057571	      3.41720615	     -6.04058211	      0.00000000	     36.77822931	     -2.50778723	     -9.15635189	    -35.59332790	      9.00405825	    -15.60624627	      0.00000000	     -1.11200750	      0.79781065	      9.53408103
      1.71000000	     -4.52662734	      1.13448148	    -13.88834578	      0.81061333	      0.70655683	     -0.08444446	     -6.06232980	     -2.70310562	      3.17791779	    -45.04718405	      0.85184082	     -7.63173396	      0.00000000	     35.82454669	     -1.15083538	     -9.38696601	    -36.98673976	      9.79756460	    -15.67259870	      0.00000000	     -1.09551561	     -0.30878841	      9.50385479
      1.72000000	     -4.13230053	      2.06099063	    -13.76978051	      0.82708507	      0.70729916	     -0.08561159	     -4.19704525	     -3.88429930	      3.42183253	    -49.87899316	     -1.19340288	     -9.24341325	      0.00000000	     34.70882367	      0.26183034	     -9.74055797	    -37.92328398	     10.90969938	    -15.47855619	      0.00000000	     -1.06967560	     -1.43535360	      9.38519853
      1.73000000	     -3.78636755	      2.98328796	    -13.60336482	      0.84330663	      0.70825262	     -0.08683698	     -2.15267606	     -5.04015207	      3.60203355	    -54.60783773	     -2.61313688	    -10.92252852	      0.00000000	     33.44757420	      1.68594882	    -10.16008443	    -38.42209557	     12.24499699	    -15.07138340	      0.00000000	     -1.03719160	     -2.53018204	      9.17748913
      1.74000000	     -3.49522478	      3.86287064	    -13.39506852	      0.85927482	      0.70940898	     -0.08810259	      0.04003046	     -6.12663814	      3.74209686	    -59.14656025	     -3.39010952	    -12.68090679	      0.00000000	     32.05562108	      3.07986084	    -10.59568236	    -38.51589685	     13.69266430	    -14.50265771	      0.00000000	     -1.00085928	     -3.54691441	      8.88798757
      1.75000000	     -3.26095018	      4.66733947	    -13.15307933	      0.87498861	      0.71075366	     -0.08938962	      2.35567493	     -7.10466229	      3.85630688	    -63.42148451	     -3.58092398	    -14.50512596	      0.00000000	     30.54681355	      4.40769869	    -11.00747379	    -38.24661352	     15.14360123	    -13.82721070	      0.00000000	     -0.96615059	     -4.44898493	      8.52677595
      1.76000000	     -3.08418986	      5.37464034	    -12.88880036	      0.89044995	      0.71226120	     -0.09067645	      4.77504005	     -7.94409689	      3.95547515	    -67.36960609	     -3.27964280	    -16.33106886	      0.00000000	     28.93787945	      5.64020471	    -11.37358501	    -37.66209105	     16.50938392	    -13.08054459	      0.00000000	     -0.93443162	     -5.21285601	      8.11006977
      1.77000000	     -2.96444256	      5.96912480	    -12.60893106	      0.90566235	      0.71390040	     -0.09194173	      7.27923642	     -8.61804006	      4.04184349	    -70.93423001	     -2.60203589	    -18.07962523	      0.00000000	     27.24816874	      6.75726701	    -11.67541222	    -36.81305997	     17.72001433	    -12.31134926	      0.00000000	     -0.90677934	     -5.82495488	      7.64659841
      1.78000000	     -2.89821757	      6.44381600	    -12.31882424	      0.92063138	      0.71563602	     -0.09316399	      9.84917492	     -9.10889354	      4.11323069	    -74.06915704	     -1.65953518	    -19.64637100	      0.00000000	     25.49660758	      7.74696942	    -11.90650599	    -35.75012443	     18.73345799	    -11.55537191	      0.00000000	     -0.88501554	     -6.28403013	      7.14441234
      1.79000000	     -2.88122615	      6.79908022	    -12.02070234	      0.93536358	      0.71742827	     -0.09432156	     12.46558681	     -9.40694482	      4.16431818	    -76.73929079	     -0.55088915	    -20.92381571	      0.00000000	     23.70373385	      8.60297792	    -12.07431002	    -34.52425402	     19.53703345	    -10.82696630	      0.00000000	     -0.87043590	     -6.59887154	      6.60705367
      1.80000000	     -2.90770617	      7.04084597	    -11.71239633	      0.94987058	      0.71923893	     -0.09539408	     15.10484904	     -9.50974583	      4.18719916	    -78.91734511	      0.63641954	    -21.84534416	      0.00000000	     21.88623608	      9.32854502	    -12.18198584	    -33.17888344	     20.13159367	    -10.14975622	      0.00000000	     -0.86508418	     -6.78638452	      6.03250080
      1.81000000	     -2.96807077	      7.17962031	    -11.38966882	      0.96416835	      0.72103221	     -0.09636167	     17.73734536	     -9.42372740	      4.17453218	    -80.58507589	      1.82670290	    -22.38563510	      0.00000000	     20.05554590	      9.92985274	    -12.24335161	    -31.75437894	     20.54011119	     -9.51898928	      0.00000000	     -0.87460938	     -6.87000370	      5.41609958
      1.82000000	     -3.04773736	      7.23066186	    -11.04758547	      0.97827961	      0.72277798	     -0.09720859	     20.32676664	     -9.16693660	      4.12106782	    -81.73219714	      2.96350362	    -22.56133017	      0.00000000	     18.21390498	     10.41967476	    -12.27428802	    -30.28210253	     20.78976625	     -8.92390951	      0.00000000	     -0.90947676	     -6.87864069	      4.75155713
      1.83000000	     -3.13095324	      7.21156185	    -10.68059973	      0.99223224	      0.72444910	     -0.09792295	     22.83478814	     -8.76490411	      4.02565718	    -82.35526424	      4.00064839	    -22.43780736	      0.00000000	     16.35812076	     10.81410641	    -12.28721921	    -28.78601976	     20.91401546	     -8.34819482	      0.00000000	     -0.98090785	     -6.84291631	      4.03426209
      1.84000000	     -3.19516955	      7.14001867	    -10.28352206	      1.00606014	      0.72602752	     -0.09849734	     25.21538420	     -8.25006174	      3.89017014	    -82.45633481	      4.91285424	    -22.10807756	      0.00000000	     14.47345417	     11.13016652	    -12.29351127	    -27.28305013	     20.94192124	     -7.76559415	      0.00000000	     -1.10830100	     -6.79264628	      3.25868734
      1.85000000	     -3.22299996	      7.03609548	     -9.85319239	      1.01979807	      0.72749254	     -0.09893309	     27.43181794	     -7.66055411	      3.72226118	    -82.04436446	      5.69049730	    -21.67299093	      0.00000000	     12.54681954	     11.38822863	    -12.29479555	    -25.78181100	     20.89587180	     -7.16409478	      0.00000000	     -1.30457654	     -6.75602712	      2.42737841
      1.86000000	     -3.19737464	      6.91638533	     -9.38624822	      1.03347974	      0.72882736	     -0.09923728	     29.44898247	     -7.03433014	      3.52886561	    -81.13173358	      6.33854664	    -21.22354079	      0.00000000	     10.56282352	     11.60554868	    -12.28157310	    -24.28831569	     20.79253550	     -6.53560904	      0.00000000	     -1.58444595	     -6.75416788	      1.54253118
      1.87000000	     -3.10971339	      6.79342408	     -8.88105585	      1.04713560	      0.73001167	     -0.09942210	     31.24320514	     -6.40520993	      3.31566414	    -79.73300985	      6.87593914	    -20.83129042	      0.00000000	      8.51504991	     11.79125067	    -12.24681275	    -22.81054839	     20.64630282	     -5.86356728	      0.00000000	     -1.95369084	     -6.79867473	      0.61299921
      1.88000000	     -2.95777028	      6.68036991	     -8.33911498	      1.06078953	      0.73102358	     -0.09950735	     32.80248345	     -5.80672848	      3.08863888	    -77.86524770	      7.32368687	    -20.53546455	      0.00000000	      6.40156522	     11.95824046	    -12.16256599	    -21.34908204	     20.45693034	     -5.17676407	      0.00000000	     -2.41193774	     -6.89761469	     -0.34664025
      1.89000000	     -2.75186243	      6.58391285	     -7.76142046	      1.07445771	      0.73183589	     -0.09951533	     34.12826314	     -5.26316496	      2.84657026	    -75.54296843	      7.70689611	    -20.34102533	      0.00000000	      4.23599983	     12.10952697	    -11.99836803	    -19.91116859	     20.22486530	     -4.50397735	      0.00000000	     -2.94604463	     -7.04778436	     -1.31975673
      1.90000000	     -2.51103135	      6.50241433	     -7.14967494	      1.08814994	      0.73242154	     -0.09946691	     35.23004017	     -4.78711106	      2.57978074	    -72.77591290	      8.04363666	    -20.23555415	      0.00000000	      2.04454094	     12.23539469	    -11.73539659	    -18.51194747	     19.95575802	     -3.85492437	      0.00000000	     -3.53429630	     -7.23482035	     -2.28714826
      1.91000000	     -2.25788363	      6.44957917	     -6.51419300	      1.10187656	      0.73274896	     -0.09939423	     36.12984475	     -4.40562408	      2.28473277	    -69.57992737	      8.37517294	    -20.11467959	      0.00000000	     -0.15284366	     12.35627887	    -11.30914833	    -17.13736036	     19.62477031	     -3.35579647	      0.00000000	     -4.14700434	     -7.45933038	     -3.22201655
      1.92000000	     -2.02385111	      6.40281218	     -5.85324832	      1.11563808	      0.73279389	     -0.09930582	     36.84092623	     -4.10220199	      1.93074846	    -65.95236511	      8.70120216	    -19.95239448	      0.00000000	     -2.29893131	     12.42995063	    -10.75086950	    -15.84498870	     19.26781494	     -2.94470766	      0.00000000	     -4.75070286	     -7.68501458	     -4.10975596
      1.93000000	     -1.83421435	      6.35669960	     -5.17203931	      1.12944523	      0.73253484	     -0.09921936	     37.37698743	     -3.87858313	      1.49199890	    -61.89904557	      9.04090179	    -19.64206052	      0.00000000	     -4.35022587	     12.44665605	    -10.06650065	    -14.66858513	     18.89916150	     -2.63887395	      0.00000000	     -5.31339104	     -7.89585908	     -4.93261320
      1.94000000	     -1.70274986	      6.29894343	     -4.47517160	      1.14331928	      0.73196492	     -0.09914375	     37.73402458	     -3.72480386	      0.93674490	    -57.42683539	      9.39115947	    -19.09641903	      0.00000000	     -6.26880209	     12.38830043	     -9.29859432	    -13.65657907	     18.54667234	     -2.40454126	      0.00000000	     -5.81477263	     -8.07201594	     -5.67843090
      1.95000000	     -1.62414715	      6.21764017	     -3.76552754	      1.15730029	      0.73109385	     -0.09908483	     37.88625364	     -3.62847656	      0.22886182	    -52.55438802	      9.73052527	    -18.22934760	      0.00000000	     -8.03658413	     12.23999008	     -8.50661799	    -12.85975279	     18.24672269	     -2.17579388	      0.00000000	     -6.25315828	     -8.19727496	     -6.34273724
      1.96000000	     -1.56914605	      6.10143458	     -3.04572240	      1.17144978	      0.72994921	     -0.09904344	     37.78588898	     -3.57041835	     -0.66565980	    -47.32513676	     10.00812483	    -16.97944206	      0.00000000	     -9.66536832	     11.99034469	     -7.75505727	    -12.32153413	     18.02979025	     -1.87928110	      0.00000000	     -6.65130293	     -8.25829214	     -6.92909613
      1.97000000	     -1.48514362	      5.94311925	     -2.31733338	      1.18584731	      0.72857175	     -0.09901754	     37.37633286	     -3.52547719	     -1.76914295	    -41.83049652	     10.15028353	    -15.32467465	      0.00000000	    -11.20063136	     11.63416778	     -7.09199334	    -12.06982825	     17.91420188	     -1.45779718	      0.00000000	     -7.05610958	     -8.24686894	     -7.44958914
      1.98000000	     -1.30961324	      5.74252250	     -1.58247367	      1.20057427	      0.72700330	     -0.09900389	     36.62259480	     -3.46423877	     -3.07925475	    -36.23548294	     10.07876819	    -13.29112216	      0.00000000	    -12.70786040	     11.17356634	     -6.53564744	    -12.11342008	     17.89593195	     -0.89689256	      0.00000000	     -7.52525597	     -8.16127496	     -7.92197076
      1.99000000	     -1.00056269	      5.50303040	     -0.84524905	      1.21567929	      0.72526911	     -0.09899529	     35.55806561	     -3.35118059	     -4.54921131	    -30.79118914	      9.73674354	    -10.97472177	      0.00000000	    -14.21909403	     10.60724539	     -6.11840157	    -12.47800870	     17.96667322	     -0.15073885	      0.00000000	     -8.09616414	     -8.00227953	     -8.35959335
      2.00000000	     -0.56417199	      5.23093874	     -0.11577346	      1.23115402	      0.72337407	     -0.09898757	     34.30127651	     -3.15349198	     -6.06301866	    -25.80105768	      9.10440987	     -8.56164919	      0.00000000	    -15.71769375	      9.94581280	     -5.80427443	    -13.17271192	     18.07706932	      0.69082475	      0.00000000	     -8.75667291	     -7.77221699	     -8.76839001
      2.01000000	     -0.06170651	      4.92095664	      0.59037266	      1.24692722	      0.72130802	     -0.09897306	     33.03216276	     -2.83882241	     -7.42885419	    -21.56181533	      8.20302204	     -6.35433905	      0.00000000	    -17.10594364	      9.19010852	     -5.57922573	    -14.23788246	     18.17606241	      1.57290856	      0.00000000	     -9.43823234	     -7.46398866	     -9.13534244
      2.02000000	      0.41467713	      4.56101924	      1.25272259	      1.26288750	      0.71906638	     -0.09894913	     31.93873806	     -2.39192057	     -8.41555526	    -18.30416119	      7.08807544	     -4.71048118	      0.00000000	    -18.25257368	      8.34842813	     -5.40023997	    -15.70672830	     18.19135250	      2.38721369	      0.00000000	    -10.04251806	     -7.06718504	     -9.43922467
      2.03000000	      0.78472205	      4.13175608	      1.85077953	      1.27892716	      0.71667399	     -0.09891550	     31.15570893	     -1.81047879	     -8.83326669	    -16.16071627	      5.82691940	     -3.93549589	      0.00000000	    -19.04755888	      7.43217884	     -5.21009612	    -17.59325399	     18.03351867	      3.01558792	      0.00000000	    -10.48620809	     -6.56730811	     -9.65865161
      2.04000000	      1.00488438	      3.61842127	      2.36716124	      1.29496692	      0.71418304	     -0.09887069	     30.75450946	     -1.10174542	     -8.60502472	    -15.18450683	      4.49072945	     -4.16500557	      0.00000000	    -19.43455551	      6.46024207	     -4.95616957	    -19.88522301	     17.60438101	      3.36061509	      0.00000000	    -10.72719765	     -5.95680060	     -9.78190570
      2.05000000	      1.06753387	      3.01313849	      2.79996857	      1.31095911	      0.71165236	     -0.09880468	     30.75823954	     -0.27490731	     -7.81292892	    -15.37406316	      3.15816830	     -5.29279374	      0.00000000	    -19.38757376	      5.43638620	     -4.65504722	    -22.59135002	     16.82953303	      3.47169110	      0.00000000	    -10.76395632	     -5.23641931	     -9.82662510
      2.06000000	      1.00522802	      2.32105379	      3.15624698	      1.32689100	      0.70914440	     -0.09870159	     31.13394354	      0.66473377	     -6.64017384	    -16.67081759	      1.92475957	     -7.05588949	      0.00000000	    -18.93555258	      4.36201654	     -4.33841379	    -25.70261552	     15.64001567	      3.41723327	      0.00000000	    -10.63877212	     -4.41938743	     -9.82589091
      2.07000000	      0.88210494	      1.56201575	      3.45145849	      1.34278709	      0.70673185	     -0.09855097	     31.78886113	      1.70220507	     -5.34103082	    -18.94149276	      0.91940476	     -9.06376340	      0.00000000	    -18.16074191	      3.23690878	     -4.05074300	    -29.17229234	     13.98061012	      3.29786241	      0.00000000	    -10.42655303	     -3.53167163	     -9.82568730
