PathFileType        4      (X/Y/Z)      Walking.trc         
DataRate	CameraRate	NumFrames	NumMarkers	Units	OrigDataRate	OrigDataStartFrame	OrigNumFrames
100.0	100.0	84	22	mm	100.0	1	84
Frame#	Time	T2			T10			MANU			LASI			RASI			SACR			LTHI			LKNE			LTIB			LANK			LHEE			LTOE			LD1MH			LD5MH			RTHI			RKNE			RTIB			RANK			RHEE			RTOE			RD1MH			RD5MH			
		X1	Y1	Z1	X2	Y2	Z2	X3	Y3	Z3	X4	Y4	Z4	X5	Y5	Z5	X6	Y6	Z6	X7	Y7	Z7	X8	Y8	Z8	X9	Y9	Z9	X10	Y10	Z10	X11	Y11	Z11	X12	Y12	Z12	X13	Y13	Z13	X14	Y14	Z14	X15	Y15	Z15	X16	Y16	Z16	X17	Y17	Z17	X18	Y18	Z18	X19	Y19	Z19	X20	Y20	Z20	X21	Y21	Z21	X22	Y22	Z22	
1	1.24	14.33120599	1088.40060873	-102.47553518	-0.85160976	908.5541722	-97.74325791	126.33917397	1060.14471146	-101.98479556	118.03891796	700.38793186	-182.39309512	131.26753974	710.43967154	-11.02536397	-10.29628868	752.13488236	-86.13987222	-6.52192443	421.15179861	-231.72751865	-36.69505573	366.41644178	-183.50424838	-195.48468588	197.58310686	-224.29998115	-255.71206274	131.20609884	-176.29322853	-319.80262499	126.8098684	-137.27897637	-189.42391166	28.69914768	-139.51417614	-197.37214055	31.43189739	-91.36535547	-222.88514106	27.70236915	-182.87346258	185.01415045	439.92296546	50.99808781	212.54380068	370.82277821	-5.32343756	248.41665793	137.8592714	15.57905154	280.15492479	61.20006503	-34.56148373	247.78044134	15.19249762	-81.63442796	411.89772427	55.96428106	-55.79467913	401.05724749	53.34099324	-108.996923	385.91936964	31.74171724	-18.65990476	
2	1.25	29.41512053	1087.43199978	-101.74510826	15.102985	907.57394119	-97.43265963	141.66084719	1059.70808983	-101.03138886	134.39216643	698.75802688	-180.99208819	147.24132289	710.40577972	-9.75915958	5.79476304	751.28753755	-85.81883029	13.48319051	418.42881038	-231.67390642	-15.74549438	363.20439304	-183.89294516	-181.29845701	201.97270804	-224.40676197	-243.61258297	138.04912239	-176.47198822	-307.01575409	138.46816209	-137.04211721	-188.02086634	29.73934954	-139.43928764	-195.9554219	33.4316473	-91.20255859	-219.93513704	31.68947841	-182.59958376	202.01272362	440.38963433	51.33425942	228.99411127	371.01194493	-5.14479006	257.21207901	137.19106497	14.70854061	284.28065799	59.85119294	-35.87036287	248.94415675	15.33784509	-82.20268055	416.05521651	47.73979379	-58.2403915	404.50371458	44.7692397	-111.35734443	388.28773398	25.52075676	-20.12224275	
3	1.26	44.49731818	1086.76861297	-101.0931169	30.97414653	906.91381222	-97.20661033	156.95024001	1059.52397314	-100.13312299	150.6524809	697.39231811	-179.52034691	163.04192333	710.71893485	-8.43431226	21.75110825	750.74598928	-85.54649983	34.21932046	415.75830382	-231.84872632	6.30202088	359.97866122	-184.58754444	-165.49936243	206.48462161	-224.62284248	-229.7349923	145.22135159	-176.63304786	-292.16464542	150.56390277	-136.82433279	-185.12768792	31.48517544	-139.58368055	-193.01040361	36.0871126	-91.20900025	-215.32808404	36.69333918	-182.51340129	218.63698493	441.12649603	51.77421531	244.98422036	371.43046804	-4.92418345	265.20424845	136.82636177	14.07469695	287.4049861	58.83129974	-36.92409491	249.33619364	15.70056838	-82.4791019	419.28689385	40.60100218	-60.27383491	407.07510349	37.09500634	-113.26369614	389.76555214	20.32653385	-21.06685209	
4	1.27	59.55273878	1086.42961247	-100.52418822	46.72255995	906.59235107	-97.05350487	172.1796748	1059.60158148	-99.30643906	166.75656265	696.33206498	-178.00187769	178.63608708	711.37598808	-7.0688774	37.52838733	750.52943584	-85.30170447	55.56931872	413.2481206	-232.22418234	29.35989069	356.87302434	-185.53875806	-148.03310576	211.04585054	-224.93822791	-214.03757455	152.61611594	-176.77067095	-275.28357328	162.78980674	-136.62479668	-180.16851357	34.0033307	-140.04147542	-187.91838471	39.37595859	-91.47876598	-208.61016021	42.67407962	-182.67182949	234.67428916	442.04671706	52.32663349	260.26683536	371.98652539	-4.65829035	272.40310956	136.74241516	13.68156889	289.74006311	58.15380882	-37.71881926	249.29456027	16.21336499	-82.51234168	421.73916472	34.90472728	-61.87901865	408.94668647	30.71757078	-114.70800752	390.63782421	16.39130257	-21.55353014	
5	1.28	74.55627108	1086.42631368	-100.0381046	62.31327708	906.61962126	-96.95884946	187.32241766	1059.94536646	-98.56508166	182.65258403	695.61414027	-176.46093154	193.99560091	712.36411084	-5.68119725	53.09047121	750.65057193	-85.06551471	77.42081943	411.01681286	-232.75454718	53.3273835	354.03627851	-186.67500505	-128.88324571	215.58061114	-225.33460713	-196.51877679	160.0960989	-176.87935504	-256.46924956	174.78347251	-136.42442927	-172.57069569	37.2831671	-140.89610381	-180.06939835	43.19397028	-92.09855017	-199.35567884	49.48294357	-183.1171345	249.91527177	443.05666788	52.99079295	274.60403136	372.58504969	-4.33842546	278.76919493	136.88818906	13.51544862	291.44623168	57.7877006	-38.26519583	249.05650062	16.79520073	-82.36654921	423.51627665	30.78312601	-63.06619752	410.24293472	25.84105428	-115.71715083	391.11253232	13.7491481	-21.67768442	
6	1.29	89.48385526	1086.76139048	-99.62970797	77.7171502	906.99646844	-96.90596554	202.35378114	1060.55461224	-97.91917616	198.30278085	695.26883234	-174.9204506	209.09803043	713.6611472	-4.28908701	68.41086267	751.11474153	-84.82268708	99.67539801	409.18734155	-233.38224011	78.09325162	351.62307579	-187.9103935	-108.07592627	220.01357315	-225.78774261	-177.21613487	167.49485137	-176.95581455	-235.87018863	186.1509805	-136.19278366	-161.82683511	41.22688781	-142.20252621	-168.93709442	47.36450809	-93.13063743	-187.20793913	56.86453366	-183.87025627	264.16891381	444.06184359	53.75702513	287.78883311	373.136449	-3.95241229	284.24549274	137.19406337	13.55144224	292.6452618	57.66922249	-38.58329702	248.76935216	17.36736178	-82.10674203	424.70453625	28.16305582	-63.87066596	411.05781408	22.47726085	-116.34648849	391.33405477	12.26728059	-21.55090216	
7	1.3	104.31355763	1087.42838465	-99.28911647	92.91190107	907.7141436	-96.87688201	217.25215669	1061.42305047	-97.37448357	213.68492111	695.31759521	-173.40062706	223.92708283	715.23635322	-2.90904871	83.47337648	751.91903462	-84.56297826	122.25601358	407.87946599	-234.04540058	103.53824356	349.78299525	-189.15413599	-85.68136842	224.27198408	-226.27063809	-156.20264967	174.62157705	-177.00101171	-213.67166596	196.49687189	-135.89991234	-147.55371806	45.65381477	-143.97125599	-154.14594054	51.66161373	-94.59771485	-171.91339676	64.4768068	-184.92646568	277.28060213	444.97684869	54.60871302	299.66642941	373.5663181	-3.48780329	288.78949671	137.58430073	13.75950165	293.43363518	57.71760536	-38.69861909	248.50925464	17.86688422	-81.78786282	425.38979797	26.81759945	-64.34775686	411.47175161	20.47917504	-116.66916912	391.3987591	11.70149585	-21.2815201	
8	1.31	119.02654382	1088.41156704	-99.00226275	107.8827715	908.75430246	-96.85335207	231.99991528	1062.53852477	-96.93189377	228.79255877	695.77095603	-171.91775288	238.47262202	717.05145558	-1.5555844	98.27210152	753.05145254	-84.28218432	145.1112407	407.20159871	-234.68556134	129.53733934	348.64905541	-190.31992432	-61.81164692	228.28641539	-226.75694856	-133.58115768	181.26930546	-177.0216775	-190.07822171	205.45608722	-135.52966537	-129.53714295	50.31844819	-146.15860704	-135.51665936	55.84026233	-96.47314115	-153.34417365	71.92582797	-186.25407903	289.14947341	445.73649267	55.52480038	310.15074744	373.82365764	-2.93590295	292.3980417	137.98908998	14.10865495	293.89293717	57.85082982	-38.63953244	248.3027347	18.25456388	-81.44901549	425.66525861	26.43357916	-64.56502753	411.56196477	19.593837	-116.76411815	391.36932934	11.75958992	-20.9596204	
9	1.32	133.60788424	1089.68617924	-98.75172679	122.62274043	910.08939545	-96.8179151	246.58412126	1063.88275775	-96.58720003	243.63410286	696.62680628	-170.48352657	252.73040352	719.06192999	-0.24069254	112.81072158	754.49031524	-83.98275901	168.21524857	407.24296341	-235.25402482	155.96173604	348.32699547	-191.33391461	-36.61471634	231.99021018	-227.22406321	-109.47736946	187.22596508	-177.03083076	-165.29589021	212.72264398	-135.08989556	-107.7538725	54.93908763	-148.66694905	-113.0809307	59.66667479	-98.67963688	-131.50643003	78.80887901	-187.79668015	299.74055429	446.30410934	56.48180567	319.23269835	373.88538807	-2.29571412	295.12024713	138.35373648	14.56900889	294.09625504	57.99842237	-38.43599149	248.14712126	18.51687069	-81.11281399	425.6304401	26.67823551	-64.59335913	411.40597094	19.52073671	-116.70554674	391.28614835	12.1581357	-20.64881072	
10	1.33	148.04714035	1091.21906002	-98.51780374	137.13232942	911.68343819	-96.75492179	260.99701663	1065.43128068	-96.33117634	258.2308477	697.86928802	-169.10493067	266.70161776	721.21839671	1.0263788	127.10132562	756.20408951	-83.67390435	191.56321391	408.06681348	-235.71588389	182.68075187	348.88655183	-192.14036316	-10.26515138	235.31808823	-227.65537857	-84.03221897	192.28727688	-177.04700974	-139.51619281	218.07040031	-134.61576574	-82.36661696	59.23165879	-151.35663465	-87.06361315	62.94314343	-101.09791855	-106.53448835	84.75798551	-189.47899145	309.08818425	446.67404985	57.45476805	326.97820337	373.75603202	-1.57689969	297.05725945	138.64367118	15.11176945	294.11089268	58.10960947	-38.11913771	248.02715544	18.66273463	-80.78870281	425.3846254	27.25220755	-64.49882802	411.08013883	19.96350011	-116.55576962	391.17540038	12.66307219	-20.3849164	
11	1.34	162.33869907	1092.96963465	-98.2797252	151.41904857	913.49312761	-96.65144848	275.23624885	1067.15358396	-96.14995824	272.61420775	699.46844149	-167.78470616	280.39233392	723.46805358	2.23908392	141.16286836	758.15177879	-83.3710932	215.16272441	409.70527728	-236.05120946	209.56383067	350.35566559	-192.70447549	17.04747366	238.20464275	-228.04145821	-57.39399487	196.26993268	-177.09224147	-112.90345083	221.36304464	-134.16466484	-53.69390654	62.94245665	-154.06800128	-57.83825124	65.52400684	-103.58458507	-78.67234264	89.47646683	-191.21604152	317.28960937	446.86743688	58.41712523	333.51649664	373.46281468	-0.80111978	298.35056258	138.8451064	15.70794195	293.99845987	58.15646868	-37.72142166	247.92658413	18.71706376	-80.47858369	425.01862683	27.92219773	-64.33679407	410.65585926	20.66702861	-116.36189521	391.05432728	13.11063051	-20.18007859	
12	1.35	176.48184335	1094.89121826	-98.01694213	165.4965574	915.46924597	-96.49804081	289.30483575	1069.01353156	-96.02570678	286.8224722	701.38070744	-166.52234693	293.81292509	725.7561043	3.39325026	155.01945096	760.28394448	-83.0950611	239.02254343	412.1561563	-236.25358665	236.48271113	352.71813094	-193.01254466	45.13132868	240.58352354	-228.38000501	-29.71051125	199.0233488	-177.18911531	-85.58630975	222.55288611	-133.80422886	-22.16214471	65.87400054	-156.64858165	-25.86736459	67.32158721	-105.99596501	-48.24544573	92.76323418	-192.92452264	324.49040378	446.92264531	59.33999135	339.02135925	373.04757541	-0.0015092	299.16285639	138.96213125	16.32658714	293.81356001	58.13271661	-37.27688215	247.83468783	18.71304582	-80.18299862	424.60801576	28.53287621	-64.14890825	410.19561089	21.43738873	-116.15593606	390.9343771	13.41028297	-20.02995299	
13	1.36	190.48056758	1096.93256189	-97.7103786	179.38362827	917.55827872	-96.28924237	303.21088087	1070.97006003	-95.93751566	300.89742708	703.5502883	-165.31544488	306.97753399	728.02717392	4.48653529	168.69858374	762.54434165	-82.87037577	263.14062939	415.38177816	-236.32674095	263.31364195	355.91471445	-193.06985163	73.80485147	242.38791133	-228.67479763	-1.12145064	200.43849594	-177.35758605	-57.65368904	221.67031931	-133.59732309	11.74972011	67.90006791	-158.97880793	8.35892194	68.30295022	-108.21254832	-15.62667075	94.52248521	-194.53442657	330.86535864	446.88357272	60.19153847	343.68921071	372.55749674	0.7795827	299.65659839	139.01161384	16.93355906	293.60213116	58.0493835	-36.82119675	247.7484848	18.68498101	-79.906336	424.20952428	29.00207009	-63.96293799	409.75035873	22.14603783	-115.95726121	390.82299172	13.53459271	-19.92165295	
14	1.37	204.34316493	1099.03955369	-97.34357523	193.10300463	919.70416274	-96.02388102	316.96707025	1072.97815398	-95.86250545	314.88118136	705.9112805	-164.16115823	319.90361336	730.22671823	5.51777605	182.22957289	764.87206549	-82.72374264	287.49337483	419.30983176	-236.28031947	289.93937206	359.84733128	-192.89703022	102.9078059	243.55253023	-228.93391408	28.24895296	200.45287575	-177.61220192	-29.15478818	218.80735785	-133.58862756	47.56247273	68.96871038	-160.98987838	44.37442801	68.4799922	-110.15804026	18.79903523	94.75940925	-195.99859535	336.59902217	446.78908762	60.93717047	347.71810136	372.03667529	1.49425288	299.97515926	139.01739106	17.49150983	293.400212	57.92885947	-36.39111258	247.67178116	18.66283351	-79.65993928	423.86089584	29.30547648	-63.79469067	409.35878473	22.72262127	-115.77611197	390.72462884	13.50189922	-19.84056674	
15	1.38	218.08162953	1101.15697888	-96.90365633	206.68024238	921.85007599	-95.70510283	330.58999503	1074.99006121	-95.77703682	328.81348038	708.39041289	-163.05756427	332.61155115	732.3024282	6.48635175	195.64214469	767.20403519	-82.68222494	312.02764571	423.83598835	-236.12592486	316.2505952	364.38553942	-192.52565529	132.30987742	244.01705949	-229.16764374	58.29856404	199.05147211	-177.96030036	-0.10233109	214.09909968	-133.79656916	84.83814334	69.09480468	-162.66980058	81.77203444	67.89627204	-111.80837897	54.66691184	93.56489425	-197.29801113	341.8692341	446.66620539	61.54095419	351.29075389	371.52008169	2.09367369	300.23027983	139.00496735	17.96160726	293.23359352	57.79871122	-36.02296015	247.61237291	18.66906961	-79.46253912	423.58343103	29.45724048	-63.65103319	409.04809978	23.14148737	-115.61706765	390.641408	13.35718034	-19.7749487	
16	1.39	231.71092688	1103.23024302	-96.38207229	220.14261209	923.94017842	-95.34016011	344.09935378	1076.95668585	-95.65796915	342.72970631	710.91017251	-162.00469136	345.12437127	734.20560808	7.39166551	208.96538585	769.47760184	-82.77154514	336.65652937	428.82803078	-235.87427185	342.14659575	369.37445918	-191.99372522	161.91613532	243.7305076	-229.38645889	88.9528165	196.26422926	-178.40140509	29.52205107	207.70651469	-134.21234966	123.2070803	68.34570118	-164.05689945	120.22118231	66.61410158	-113.18877372	91.65814152	91.0936194	-198.44146216	346.83535868	446.52805478	61.96840953	354.56332877	371.03067883	2.53321052	300.49751163	138.99749334	18.30692522	293.11849485	57.6863474	-35.75017935	247.57863894	18.71780147	-79.33804203	423.38598942	29.49141855	-63.53306373	408.83576318	23.40657233	-115.48173924	390.57358647	13.15493714	-19.71798743	
17	1.4	245.24819213	1105.2069746	-95.77508727	233.51812404	925.92122058	-94.93997633	357.5170911	1078.82908319	-95.48389204	356.65966788	713.39207759	-161.00508981	357.46748772	735.89247657	8.232816	222.22704004	771.63305931	-83.01459706	361.25899109	434.13116658	-235.53394342	367.53499639	374.64324918	-191.34153141	191.6690306	242.65595474	-229.59930012	120.16836745	192.16112046	-178.92771055	59.76147203	199.80289079	-134.80557557	162.38071102	66.82441631	-165.22312515	159.47069308	64.70483219	-114.35993076	129.51716836	87.54024863	-199.45943034	351.6312607	446.37617506	62.1903442	357.66007151	370.57962939	2.77749106	300.81913288	139.01333558	18.49695148	293.06310667	57.61517979	-35.60011267	247.57655971	18.81584597	-79.31129884	423.26920316	29.44739608	-63.43877789	408.73134597	23.53795893	-115.37041953	390.51994993	12.94624902	-19.66770135	
18	1.41	258.71191724	1107.03843832	-95.08400035	246.83471875	927.74395141	-94.51852391	370.8665266	1080.55997846	-95.23626324	370.62718539	715.75986935	-160.06388159	369.66848316	737.32531683	9.00848439	235.45316385	773.61585985	-83.43024564	385.68310956	439.57418516	-235.11178651	392.33070677	380.01342969	-190.60820386	221.54690579	240.77505204	-229.81227645	151.93427372	186.84607227	-179.52526713	90.67748761	190.56505897	-135.5342061	202.15258978	64.65455387	-166.25150774	199.34176284	62.24422318	-115.39713467	168.06012261	83.117895	-200.3933277	356.36200836	446.20559981	62.18705366	360.67288035	370.16884888	2.80481997	301.2122481	139.0651952	18.51225696	293.06963254	57.60249589	-35.59065508	247.60788527	18.96505826	-79.4029211	423.22896406	29.36040963	-63.36493921	408.73794493	23.56180362	-115.28280075	390.47814802	12.7706961	-19.62541035	
19	1.42	272.12118335	1108.68070841	-94.31510464	260.11964432	929.36427532	-94.09206107	384.17152376	1082.10523549	-94.90039796	384.65039181	717.94242874	-159.18831012	381.75688336	738.47339357	9.71701859	248.66811169	775.37838311	-84.03244142	409.75231602	444.97613582	-234.61460808	416.4543806	385.30657524	-189.82905437	251.55924403	238.09175551	-230.02774991	184.2701206	180.45089927	-180.17535213	122.34447178	180.16945594	-136.35558042	242.39116519	61.96999472	-167.21281189	239.71581675	59.31346893	-116.36716937	207.17496366	78.04191077	-201.28225121	361.10306848	446.01075956	61.95199896	363.66431285	369.7947967	2.61029854	301.67886587	139.16052323	18.3482069	293.13636749	57.65891243	-35.72756102	247.66977986	19.1652105	-79.62440801	423.2586828	29.25686528	-63.30818658	408.85287203	23.50394947	-115.21810548	390.44498294	12.6528281	-19.59366798	
20	1.43	285.49498579	1110.09557353	-93.4794047	273.3990227	930.74413239	-93.67827952	397.45574029	1083.42521039	-94.46626781	398.74260352	719.87627063	-158.38688126	393.76390525	739.31356674	10.35666587	261.89479297	776.88117002	-84.82963799	433.27407751	450.15324566	-234.05157447	439.83088084	390.35113177	-189.03374196	281.73907602	234.63491937	-230.24370471	217.22072106	173.13005731	-180.85554664	154.8447854	168.79231694	-137.23524174	283.02727318	58.91078183	-168.14604963	280.52051999	56.00515491	-117.30813483	246.81446696	72.52066793	-202.14999149	365.90120055	445.79043708	61.49409405	366.67257114	369.45237603	2.20707875	302.21488873	139.30288438	18.01672236	293.25940615	57.78907685	-36.00318383	247.75583609	19.41674403	-79.97475745	423.350242	29.15330628	-63.26559466	409.06769442	23.38667975	-115.1750259	390.41662517	12.60225092	-19.57443925	
21	1.44	298.85168834	1111.25117066	-92.59212483	286.69758988	931.85209845	-93.29541631	410.74199035	1084.48593801	-93.92908245	412.91357136	721.50751937	-157.66823561	405.72216847	739.83056136	10.92588977	275.15512438	778.09359978	-85.82448141	456.05062358	454.92585641	-233.43659696	462.3884043	394.98830287	-188.24524927	312.13310308	230.45953112	-230.45330451	250.84726893	165.05655313	-181.54021418	188.26427635	156.6128228	-138.1510401	324.03837995	55.62496214	-169.04642923	321.71565996	52.43234736	-118.21631448	286.98322076	66.75353352	-202.99501869	370.77691341	445.55062454	60.83797911	369.71734434	369.13806409	1.62539438	302.81598226	139.49389238	17.54548925	293.43374868	57.99322544	-36.39714718	247.85796793	19.72290784	-80.43939917	423.49390404	29.05762256	-63.23492032	409.36798844	23.22774463	-115.15174579	390.38869351	12.61612455	-19.5680344	
22	1.45	312.20862994	1112.12236576	-91.67204952	300.03858134	932.66372328	-92.96138071	424.05173774	1085.26011352	-93.2896397	427.17090835	722.79332405	-157.03991855	417.66537436	740.01689465	11.42370726	288.47058445	778.99404839	-87.01373693	477.89145243	459.12522765	-232.78999337	484.05898032	399.0770774	-187.47964176	342.79020449	225.64649873	-230.644604	285.21515686	156.41885804	-182.20034486	222.68711474	143.81778997	-139.09137649	365.43066595	52.27468573	-169.86285779	363.27945045	48.73832323	-119.04268555	327.71962325	60.93482101	-203.78559678	375.72878698	445.3048946	60.02205176	372.80581182	368.85178366	0.90934784	303.47976307	139.73535094	16.97455256	293.65380277	58.26923738	-36.87901745	247.96847552	20.0910596	-80.99179052	423.67767431	28.97125529	-63.21466775	409.73334613	23.04083956	-115.14611365	390.35616705	12.68286644	-19.57296384	
23	1.46	325.581892	1112.69091524	-90.74074112	313.44372492	933.16164171	-92.69294241	437.40472721	1085.72784704	-92.55444118	441.5215021	723.7027207	-156.50721736	429.62796776	739.87250348	11.8499914	301.8627677	779.56961524	-88.3884243	498.62731958	462.6001225	-232.13883256	504.78096883	402.49853648	-186.7465331	373.74910227	220.30097488	-230.80047258	320.37904662	147.41824982	-182.80301378	258.18859517	130.6064282	-140.0481546	407.21945401	49.04369908	-170.50537853	405.19510715	45.10409964	-119.69968626	369.07378003	55.26120097	-204.46116738	380.73995936	445.07257424	59.09446419	375.9384805	368.59741985	0.11180571	304.20509117	140.03127731	16.35078099	293.91347391	58.61487599	-37.41260621	248.08161894	20.53317143	-81.59745497	423.88675987	28.89153706	-63.20398218	410.13821149	22.83690298	-115.15586238	390.31322415	12.78608316	-19.58657043	
24	1.47	338.98621952	1112.94545022	-89.82167885	326.93329903	933.33550484	-92.50501939	450.81875033	1085.87718221	-91.73557823	455.97274957	724.21698939	-156.07221878	441.64480009	739.40414671	12.20569767	315.35383349	779.81553629	-89.93414004	518.12513993	465.22314629	-231.5155879	524.50388514	405.15958589	-186.05008928	405.02608059	214.54921818	-230.8988688	356.36618631	138.26572013	-183.31092566	294.82450837	117.19374295	-141.00662671	449.40835189	46.14257956	-170.86103497	447.43717407	41.75085361	-120.07674033	411.08241288	49.9390452	-204.93989365	385.78667506	444.8754484	58.10766782	379.1147928	368.38218088	-0.71193005	304.990039	140.38955469	15.72111171	294.2061364	59.02995294	-37.96119638	248.19433359	21.06576248	-82.21972553	424.10376973	28.81373551	-63.20231705	410.55399333	22.62575888	-115.17870643	390.2532489	12.9081021	-19.60609106	
25	1.48	352.43507363	1112.88133179	-88.93936003	340.52621225	933.1817847	-92.4100941	464.30953187	1085.704379	-90.85039796	470.53349436	724.32958399	-155.73320826	453.7508078	738.62466962	12.49298525	328.96675386	779.73441494	-91.63154802	536.30276964	466.8968308	-230.95503808	543.19538721	406.99620758	-185.39030983	436.60379825	208.53397519	-230.91363875	393.15937532	129.17749993	-183.68260719	332.61620285	103.81127936	-141.9354107	491.96783208	43.80782302	-170.81494116	489.95708759	38.93454863	-120.06119466	453.74244531	45.18770811	-205.13100833	390.84819519	444.73386983	57.11232522	382.33856812	368.2151571	-1.5108188	305.83018905	140.82304969	15.12571033	294.52476727	59.51819462	-38.4928081	248.30612492	21.7095288	-82.82608382	424.31011997	28.73269573	-63.20885327	410.95256115	22.41769282	-115.21220481	390.16928505	13.03280973	-19.62972281	
26	1.49	365.94077739	1112.50042998	-88.11839892	354.24006263	932.70350553	-92.41777496	477.89071378	1085.2139664	-89.92096199	485.21459356	724.04572957	-155.48448888	465.98071257	737.55221433	12.71521612	342.72528498	779.33539644	-93.45701609	553.14212708	467.55942183	-230.48972493	560.849672	407.97621189	-184.76428632	468.42235824	202.40837282	-230.81597496	430.68133005	120.36842053	-183.87372938	371.53160322	90.7040958	-142.78015983	534.8147072	42.2914584	-170.27223575	532.66797196	36.93074607	-119.56018203	496.98568223	41.2350829	-204.94961271	395.9168334	444.66307443	56.1514846	385.62329069	368.10546978	-2.24423519	306.71842909	141.35013614	14.59218973	294.86243035	60.08865097	-38.98460668	248.41848316	22.48888728	-83.39384916	424.48870675	28.64413507	-63.22177819	411.31071567	22.22455828	-115.25342249	390.05508256	13.14772274	-19.65732634	
27	1.5	379.51470485	1111.8108739	-87.38265233	368.09113962	931.90994614	-92.53450721	491.57390715	1084.41857768	-88.9733121	500.02908498	723.38178272	-155.31664886	478.36874049	736.20944707	12.87682607	356.65361923	778.63338956	-95.38336946	568.6987512	467.19020504	-230.14463938	577.49599234	408.10131657	-184.1671851	500.37383817	196.32839419	-230.57656424	468.78242076	112.04275608	-183.83980104	411.46400777	78.12320358	-143.4635538	577.794786	41.83939586	-169.17642889	575.42960093	36.00886453	-118.5187814	540.6576742	38.30308038	-204.33102478	401.00659138	444.67032439	55.25585086	388.9970307	368.06037182	-2.88672797	307.64667381	141.99467671	14.13185133	295.21317112	60.75656893	-39.42568619	248.53423946	23.43156985	-83.91409902	424.62736674	28.54564033	-63.23769886	411.61469566	22.06006857	-115.29857539	389.90661205	13.24529469	-19.69056843	
28	1.51	393.16745587	1110.82680355	-86.7543938	382.09434025	930.81634563	-92.76342484	505.36877972	1083.33858513	-88.03655864	514.99196137	722.3644346	-155.21725848	490.94834856	734.6228496	12.98307121	370.77571842	777.64840562	-97.38072313	583.10584165	465.81397501	-229.9320712	593.20567549	407.40822463	-183.59281557	532.30134403	190.4442065	-230.16829299	507.23373111	104.3828398	-183.54012438	452.21197327	66.31333355	-143.89261504	620.67153261	42.65917815	-167.52047733	618.03552459	36.39715551	-116.93075646	584.50413589	36.582919	-203.24180867	406.1589167	444.75331742	54.44083274	392.5064829	368.08361156	-3.43067922	308.60924942	142.78559268	13.73859442	295.57328571	61.54373325	-39.81770915	248.65719661	24.56835227	-84.39304365	424.72215234	28.43731178	-63.25154782	411.86347606	21.93911168	-115.34290582	389.72363332	13.32341989	-19.73252541	
29	1.52	406.90895963	1109.56813608	-86.25355223	396.26298086	929.44362623	-93.10432628	519.28314872	1082.00154791	-87.14181045	530.11958396	721.02981112	-155.17193364	503.75193437	732.822094	13.03966295	385.1143766	776.40504496	-99.41735305	596.57117756	463.50395007	-229.84765027	608.09599865	405.96827178	-183.03378608	564.00325165	184.89090936	-229.56921112	545.72706152	97.53649997	-182.94254196	493.46450747	55.4968307	-143.97228359	663.12347282	44.88083858	-165.34855425	660.20512526	38.24221986	-114.83988409	628.16790902	36.20293239	-201.68527513	411.44451317	444.90011821	53.70583211	396.21940927	368.17430068	-3.88638614	309.60723442	143.75616229	13.39073691	295.94289858	62.47832237	-40.17321234	248.79225366	25.93299456	-84.85054203	424.77925239	28.32188494	-63.25723418	412.0697151	21.87621281	-115.38094916	389.51072577	13.38501284	-19.78695302	
30	1.53	420.74846037	1108.06034335	-85.89702662	410.60849959	927.81812617	-93.55375182	533.32305418	1080.4414844	-86.32097047	545.42878681	719.42249085	-155.16566704	516.81049184	730.83949341	13.05231266	399.69010462	774.93212004	-101.46056898	609.3660963	460.38216807	-229.86849167	622.32958304	403.88520426	-182.48137855	595.24264247	179.77961366	-228.76533514	583.88283719	91.60505727	-182.02822959	534.79579638	45.85562063	-143.62232501	704.75222704	48.51746851	-162.74854649	701.58345657	41.56944583	-112.33202045	671.19830156	37.19435893	-199.70044493	416.96084195	445.09063672	53.03596689	400.2248443	368.32641345	-4.27939879	310.65292745	144.94312186	13.05555327	296.32782799	63.59432882	-40.51176076	248.94619744	27.56248921	-85.31593354	424.81462787	28.20412738	-63.24900683	412.2577361	21.88355239	-115.40716126	389.27721015	13.4365175	-19.85751899	
31	1.54	434.69436022	1106.33421814	-85.69808704	425.14006093	925.97131671	-94.10514203	547.49279512	1078.69798221	-85.60542952	560.93573731	717.59442853	-155.18429764	530.15316612	728.70950144	13.02621573	414.51995194	773.26237064	-103.47756385	621.80685388	456.61631501	-229.95404784	636.10855024	401.29075535	-181.92536207	625.7611228	175.19002743	-227.75284569	621.26595834	86.63406225	-180.79567874	575.67271296	37.51426357	-142.79360504	745.10146773	53.4339622	-159.83733953	741.75093075	46.25244251	-109.52008845	713.07281827	39.46251945	-197.35497761	422.82583126	445.29937136	52.40607475	404.63081423	368.52887596	-4.6453363	311.77378144	146.38553506	12.69591281	296.74180508	64.9305775	-40.85449642	249.12935623	29.49772042	-85.82177829	424.8510154	28.08938736	-63.22317842	412.4586719	21.96908875	-115.41669916	389.03562346	13.48533584	-19.94727867	
32	1.55	448.75392434	1104.4255839	-85.66587334	439.86408809	923.93946462	-94.74906241	561.79492108	1076.81516002	-85.02470089	576.65463032	715.603747	-155.21596852	543.80665909	726.4682213	12.96551431	429.6163793	771.43220339	-105.43622919	634.2299789	452.41216343	-230.04981978	649.66343467	398.33792214	-181.35399476	655.29543236	171.16578489	-226.53931847	657.40858992	82.60895245	-179.26308467	615.47656896	30.52772426	-141.47990945	783.68514386	59.33246861	-156.74243828	780.2433292	51.99953586	-106.52562303	753.22923175	42.771277	-194.73400489	429.16915633	445.49880181	51.78645852	409.55992295	368.76601344	-5.02283155	313.01549091	148.12330323	12.27805845	297.20917976	66.52937636	-41.21792703	249.35833673	31.78458607	-86.39638697	424.91263618	27.98134648	-63.17969437	412.70356042	22.13528202	-115.40609564	388.79879279	13.536486	-20.05857022	
33	1.56	462.93288681	1102.37488968	-85.80500651	454.78376129	921.76319247	-95.47348932	576.23018116	1074.84049559	-84.60504996	592.59630216	713.51334957	-155.2524162	557.79444791	724.15288688	12.8727882	444.98627299	769.48137462	-107.30594394	646.96436108	448.00137174	-230.0935648	663.23762414	395.19218107	-180.75442201	683.59472591	167.71350788	-225.14379734	691.83792904	79.45727028	-177.46859369	653.53836221	24.87723413	-139.72274363	820.02154187	65.76105543	-153.58402107	816.58062691	58.36333483	-103.46103281	791.10420847	46.74736884	-191.92774462	436.12301139	445.66257095	51.14948411	415.14373708	369.01798233	-5.44563012	314.44429028	150.19516065	11.77936451	297.7682321	68.43487361	-41.60797109	249.66001606	34.47550941	-87.05616564	425.01853653	27.87927367	-63.12310266	413.01560152	22.37875473	-115.37366526	388.57599434	13.58923895	-20.19334849	
34	1.57	477.23502192	1100.22663264	-86.11533073	469.89852858	919.48688897	-96.26416186	590.79743998	1072.82354145	-84.36818185	608.76685584	711.38931102	-155.28994656	572.13580623	721.80128959	12.74863083	460.63015828	767.45253434	-109.05835472	660.30346176	443.62524356	-230.02316253	677.06876958	392.02125396	-180.11357553	710.43632371	164.80603023	-223.59572166	724.10629288	77.05803709	-175.46821219	689.18459337	20.4762699	-137.60838746	853.66872298	72.14831941	-150.46100846	850.30134982	64.77562751	-100.41623391	826.1737974	50.90814005	-189.02090426	443.81436251	445.76756668	50.47593552	421.51721001	369.26079521	-5.93508606	316.14874813	152.63605666	11.19489263	298.47507092	70.69127207	-42.01528258	250.07678142	37.63110121	-87.79883843	425.17591182	27.77538951	-63.06270807	413.40301618	22.69107939	-115.31963627	388.36909687	13.63492156	-20.3538002	
35	1.58	491.66175592	1098.02856191	-86.59180697	485.20368113	917.15793363	-97.10501211	605.49357447	1070.8145609	-84.33005629	625.16639304	709.29902815	-155.32998459	586.84465722	719.45114446	12.59136912	476.54164159	765.39056015	-110.66816848	674.48098716	439.51597849	-229.7849707	691.36905053	388.98434329	-179.4195418	735.63810481	162.38944958	-221.93289647	753.82054702	75.25750012	-173.33156828	721.78899556	17.18636761	-135.25819915	884.25690278	77.86196117	-147.44337582	880.99818141	70.60531185	-97.45197947	857.99120707	54.71182617	-186.08616492	452.36016582	445.79426771	49.76004891	428.81426108	369.46569594	-6.49427586	318.24130725	155.47397147	10.54172433	299.40784144	73.3411447	-42.41271785	250.67269208	41.32158593	-88.59859382	425.37502056	27.65328339	-63.01191052	413.85410037	23.06081093	-115.24608931	388.16990159	13.65737298	-20.54292854	
36	1.59	506.21188682	1095.83063726	-87.22457938	500.69004585	914.82571837	-97.97868736	620.31336959	1068.86312337	-84.49989989	641.78795296	707.30914839	-155.37913456	601.92833191	717.13940894	12.3969774	492.70709819	763.34163688	-112.11396743	689.65263197	435.87769584	-229.34139952	706.30634386	386.22189036	-178.66324157	759.0664392	160.39288811	-220.19880431	780.66795809	73.88905753	-171.13605897	750.82449746	14.8398546	-132.81426347	911.51432327	82.28461219	-144.57122062	908.35053268	75.23262928	-94.60045962	886.21825244	57.62464189	-183.18269735	461.86606766	445.72522452	49.01239802	437.16508793	369.59794653	-7.10468393	320.8595095	158.72642705	9.86034951	300.67063078	76.42416424	-42.75550772	251.53983027	45.62750811	-89.40412132	425.58735392	27.48854444	-62.98678995	414.33614005	23.47686522	-115.15672762	387.9600333	13.63749497	-20.76469858	
37	1.6	520.88145932	1093.68374286	-87.99923303	516.34384584	912.5404698	-98.86717245	635.24943258	1067.01670157	-84.87948257	658.61675874	705.48333652	-155.44874655	617.38634767	714.90158481	12.15921856	509.10562433	761.35207881	-113.37903485	705.88531171	432.86982093	-228.67658821	721.98821427	383.84682156	-177.84018649	780.63938061	158.73925346	-218.43959223	804.43595565	72.79409527	-168.9601496	775.90945749	13.26451603	-130.42287794	935.28463067	84.89626255	-141.85952439	932.15059582	78.12935388	-91.87204671	910.64815858	59.19458589	-180.35912759	472.42795411	445.54217384	48.26021889	446.69502511	369.61547096	-7.7259687	324.1663693	162.39719512	9.21278041	302.39614827	79.97654409	-42.98430621	252.80370674	50.63918038	-90.1402854	425.76855975	27.25269729	-63.00388684	414.79974035	23.93336091	-115.05634045	387.71465631	13.5627171	-21.02331915	
38	1.61	535.6638145	1091.63818901	-88.89725547	532.14677289	910.35189908	-99.7525078	650.29214618	1065.31932032	-85.46271692	675.62986354	703.87997499	-155.55404111	633.20935514	712.77104359	11.87002129	525.70928319	759.46694142	-114.45215254	723.15403415	430.59513255	-227.79943689	738.45029106	381.93796996	-176.95207598	800.32552779	157.35506069	-216.70105	825.02394847	71.84008109	-166.87669436	796.84255644	12.30453397	-128.21828416	955.53513081	85.35013898	-139.30650675	952.32056049	78.93234608	-89.26579218	931.21851944	59.11912505	-177.65910694	484.13474264	445.22283154	47.5452217	457.52405567	369.46813947	-8.2988135	328.34893067	166.47390055	8.67749262	304.74608573	84.03133052	-43.03086734	254.62632014	56.45430162	-90.71375476	425.86721872	26.92107938	-63.07695586	415.18969705	24.43600623	-114.94966166	387.41094068	13.44095237	-21.3213214	
39	1.62	550.5498033	1089.7420666	-89.89670512	548.07630714	908.30772981	-100.61757993	665.42968091	1063.81031178	-86.23562832	692.79626774	702.54991626	-155.71288722	649.37841627	710.77841713	11.52007547	542.4836798	757.72851846	-115.32830251	741.34559635	429.09391524	-226.74371187	755.65012035	380.5360111	-176.00804729	818.13936826	156.17758524	-215.02585378	842.4461676	70.93273992	-164.94712268	813.6216265	11.83311682	-126.3087334	972.35614209	83.52839031	-136.90311062	968.91970479	77.49755361	-86.78065726	948.01382031	57.2935924	-175.12698833	497.07032058	444.73868358	46.91932536	469.76569976	369.09863139	-8.75041676	333.61388129	170.92728351	8.34171881	307.90815042	88.61939193	-42.82572347	257.20546187	63.1731771	-91.02230855	425.83990632	26.48446087	-63.2124392	415.46272308	25.00981563	-114.83927959	387.04156696	13.31700084	-21.6562985	
40	1.63	565.52812436	1088.03954742	-90.9730766	564.10630255	906.45217629	-101.44694141	680.6480854	1062.52323199	-87.17672736	710.0775432	701.53441703	-155.94435415	665.86476193	708.95109189	11.09960109	559.38889187	756.17485828	-116.00918552	760.26787098	428.34449163	-225.56534132	773.4670967	379.64198244	-175.02544294	834.13405075	155.1582508	-213.45130025	856.82541894	70.02042126	-163.21720125	826.44314798	11.75480679	-124.76653782	985.95192392	79.56590269	-134.64141184	982.14067781	73.92360862	-84.42452694	961.25713476	53.82962487	-172.81120172	511.31270105	444.0549916	46.43899901	483.52409492	368.44569157	-9.00185704	340.17934944	175.71274104	8.29197768	312.0891834	93.77060309	-42.30694005	260.76919111	70.89107133	-90.96691082	425.67198618	25.96307163	-63.40365678	415.61111345	25.70714691	-114.72237524	386.6326227	13.28783682	-22.01650622	
41	1.64	580.58572655	1086.56924631	-92.10033802	580.20783274	904.8244611	-102.22759867	695.93147107	1061.48499278	-88.25779617	727.42895012	700.86338891	-156.26716644	682.63013754	707.31283903	10.59922365	576.38075433	754.83844973	-116.50345888	779.66354207	428.26932713	-224.33725948	791.70865638	379.21836499	-174.02997494	848.3925119	154.26209679	-212.00769872	868.37855297	69.09054968	-161.71485076	835.68124703	11.99866759	-123.6231896	996.62357731	73.83519813	-132.5204007	992.2945331	68.53880393	-82.21875117	971.29083527	49.03815436	-170.76368915	526.92926819	443.13375985	46.15899295	498.88862237	367.45018141	-8.97640186	348.26268812	180.77439694	8.60396408	317.50448409	99.51443317	-41.42881976	265.56509254	79.68749682	-90.46512977	425.40223204	25.42043318	-63.62424982	415.68983645	26.6137997	-114.58635875	386.26403548	13.51225487	-22.37597015	
42	1.65	595.70821419	1085.36277689	-93.25209755	596.35026211	903.45747235	-102.94969475	711.26230188	1060.71526215	-89.44507362	744.80097927	700.55410073	-156.69818867	699.62778596	705.88360067	10.01087321	593.41244998	753.7452188	-116.826601	799.22750379	428.74527698	-223.14229488	810.12255205	379.19277768	-173.05515033	861.01785575	153.46419213	-210.71752317	877.39533697	68.15983672	-160.45019577	841.84779104	12.50628723	-122.86994718	1004.74440633	66.89244158	-130.5484017	999.78451183	61.8520505	-80.19715723	978.54695866	43.37862775	-169.03499986	543.96821638	441.93969747	46.12621979	515.92625394	366.0636994	-8.60779544	358.06501416	186.05139837	9.33303242	324.36429596	105.87900785	-40.1693403	271.84488324	89.61272939	-89.46415387	425.14777703	24.97330845	-63.82210789	415.84271258	27.84976257	-114.40392322	386.08931868	14.21030664	-22.69021717	
43	1.66	610.88021677	1084.44363088	-94.40283551	612.50247346	902.37666377	-103.60701263	726.62179353	1060.22617689	-90.70079549	762.14120849	700.61046619	-157.25105759	716.80404407	704.67943809	9.32861757	610.4363077	752.91394124	-117.00032887	818.62739105	429.61653984	-222.06477161	828.4146482	379.46443577	-172.14081815	872.12392926	152.74466202	-209.59535264	884.21317122	67.26120253	-159.41768999	845.53835852	13.21978706	-122.46356983	1010.72904842	59.39309729	-128.74218274	1005.06998552	54.47620679	-78.39998617	983.50954137	37.38384336	-167.66607256	562.44760801	440.44843964	46.37444972	534.6726452	364.25884515	-7.84762028	369.75425965	191.48553255	10.5064725	332.85914861	112.88779538	-38.53517031	279.84595701	100.67252603	-87.95153037	425.12438528	24.79361282	-63.91562644	416.32161276	29.56107677	-114.12857996	386.35016408	15.64905415	-22.89408412	
44	1.67	626.08572434	1083.82648615	-95.52911958	628.63415274	901.59929424	-104.19723484	741.99041747	1060.0223894	-91.98501421	779.39633771	701.02303812	-157.93506829	734.10045573	703.71263109	8.54934417	627.40567206	752.35611815	-117.05152963	837.52660962	430.70931025	-221.18176707	846.27117805	379.91346188	-171.33073903	881.82711435	152.08427646	-208.64854421	889.19062013	66.43073973	-158.59983474	847.37180396	14.07435747	-122.33618197	1014.99938805	51.99355581	-127.12343194	1008.62455603	47.03873275	-76.86468976	986.67344876	31.5758918	-166.67899947	582.34449265	438.6556524	46.92035926	555.12363049	362.03958435	-6.67094758	383.44920069	197.02874953	12.11860548	343.14617628	120.55340529	-36.56335006	289.77226279	112.81281353	-85.96181824	425.65619624	25.09872178	-63.79440295	417.49165782	31.90101078	-113.69223571	387.38079063	18.11346735	-22.90305991	
45	1.68	641.30842575	1083.51700377	-96.61070924	644.71701297	901.13407969	-104.72191695	757.34849476	1060.10143899	-93.25759297	796.51426388	701.76979602	-158.75440332	751.45623991	702.99190161	7.67322166	644.27669225	752.07629076	-117.01071874	855.60872374	431.84754184	-220.55522929	863.38373897	380.41275206	-170.6691936	890.24033679	151.46215674	-207.87847281	892.68285472	65.69749247	-157.97174561	847.93281409	14.99760142	-122.4075892	1017.9521603	45.25901227	-125.71372275	1010.89501288	40.09737961	-75.6165094	988.50585436	26.39079948	-166.06976435	603.58693247	436.58527467	47.76135117	577.22900014	359.4497843	-5.07966153	399.20709871	202.64891189	14.12941715	355.33847389	128.86858897	-34.31915422	301.77724255	125.90684233	-83.57763119	427.16956226	26.12852644	-63.32615282	419.81626692	35.00232978	-113.00659104	389.59756994	21.86462584	-22.61916972	
46	1.69	656.53209985	1083.51211723	-97.63145957	660.72583777	900.98129038	-105.18616461	772.67685447	1060.45440195	-94.48024611	813.44606967	702.81774081	-159.70776429	768.81091067	702.5227157	6.70389993	661.00988977	752.07270138	-116.91010307	872.60128824	432.86920395	-220.22618302	879.47456681	380.84139858	-170.19684705	897.47002228	150.85620313	-207.28203505	895.02163688	65.07761588	-157.50567989	847.72630364	15.91519488	-122.59786104	1019.93379722	39.59581493	-124.5293562	1012.26873822	34.07626206	-74.66181283	989.4163191	22.12643457	-165.80568076	626.05143396	434.29511018	48.87543589	600.89018544	356.57794287	-3.10308171	417.01712321	208.33217679	16.46701545	369.49898068	137.79532556	-31.89022917	315.95126566	139.7477148	-80.92409076	430.16786176	28.11068745	-62.37060629	423.81955861	38.94667032	-111.9698445	393.47177428	27.09117112	-21.94153678	
47	1.7	671.74109114	1083.80076104	-98.57995388	676.63924668	901.133273	-105.59804051	787.95752231	1061.0667401	-95.6184848	830.14781622	704.12520228	-160.78842223	786.10683043	702.30759931	5.64844347	677.57139585	752.33815672	-116.78139824	888.29647588	433.6418213	-220.21190132	894.31908592	381.09790619	-169.94633645	903.61614376	150.24573265	-206.85300003	896.50143029	64.57311303	-157.17467452	847.14956374	16.76022413	-122.83787249	1021.22649507	35.21911105	-123.57746019	1013.0550783	29.23138816	-73.9861592	989.73911449	18.921252	-165.82889438	649.56728862	431.87828351	50.22328744	625.96280298	353.55650374	-0.79583832	436.80073543	214.08089363	19.03370201	385.63945579	147.2537072	-29.37771829	332.31517024	154.04901773	-78.15654595	435.18816736	31.21911957	-60.79953359	430.03004767	43.73958192	-110.47926057	399.48722019	33.8631258	-20.78062224	
48	1.71	686.92086436	1084.36493762	-99.44982809	692.44012675	901.57532335	-105.96776163	803.17440197	1061.919243	-96.64332629	846.58204231	705.64464153	-161.98465235	803.29149112	702.34639091	4.5170295	693.93379115	752.860932	-116.65360625	902.56553059	434.07528316	-220.50626158	907.76272373	381.11101845	-169.93824293	908.77472286	149.61504916	-206.58278895	897.37191671	64.17426231	-156.95468941	846.48372521	17.48272896	-123.07594472	1022.04624819	32.15710176	-122.85424766	1013.48200433	25.64729143	-73.55732259	989.72814995	16.76339466	-166.06524702	673.92795176	429.4596923	51.75231579	652.26409019	350.55494439	1.76665169	458.41899499	219.90672119	21.71496524	403.72412337	157.11295422	-26.88562566	350.82043422	168.4552965	-75.44254653	442.74553425	35.53362577	-58.52016769	438.91680395	49.29853666	-108.44870048	408.08911809	42.09842128	-19.07403667	
49	1.72	702.05859774	1085.18099345	-100.23978499	708.11572673	902.28679526	-106.30677095	818.31390824	1062.98895527	-97.53263914	862.71888026	707.32563303	-163.28047502	820.31935652	702.63635855	3.32247101	710.07652074	753.62557161	-116.55098126	915.36450564	434.12952448	-221.0827943	919.72969219	380.84619718	-170.17813918	913.04146861	148.95655469	-206.4604413	897.83608366	63.86426919	-156.8250645	845.90192369	18.05647846	-123.27970123	1022.55034923	30.28493436	-122.34546592	1013.70518203	23.26002127	-73.3317578	989.5621309	15.52316633	-166.4359222	698.90817833	427.18746227	53.40225045	679.58434178	347.76693757	4.49440213	481.68565476	225.81965838	24.39032197	423.67681057	167.1870215	-24.51000459	371.35549148	182.56231706	-72.94039053	453.27488437	41.00961774	-55.49766107	450.83343705	55.45622442	-105.82852811	419.63390223	51.55081466	-16.80107334	
50	1.73	717.14375649	1086.22097252	-100.95332692	723.65745545	903.24231772	-106.62677723	833.36551044	1064.25000353	-98.27202353	878.53671513	709.11767807	-164.65659912	837.15315809	703.17213126	2.07963763	725.98589283	754.61348928	-116.49138874	926.73002548	433.81519805	-221.89944949	930.22275254	380.3066678	-170.65523688	916.5149604	148.27247891	-206.4718449	898.052417	63.62460252	-156.76755802	845.48883256	18.48133667	-123.43345194	1022.84999178	29.37620634	-122.02831061	1013.82411023	21.89751842	-73.2620485	989.35621143	14.99829541	-166.86851792	724.28447643	425.22040713	55.11139478	707.70075889	345.39309271	7.28985987	506.38417437	231.8146011	26.94470851	445.39003922	177.23674554	-22.32961452	393.75701798	195.94486157	-70.77782497	467.08227951	47.46547915	-51.77139508	465.98334509	61.97590168	-102.62377787	434.35057871	61.82343215	-13.9929465	
51	1.74	732.16858349	1087.45393394	-101.59825088	739.06045733	904.41300371	-106.93884982	848.32214833	1065.67427849	-98.85516597	894.02234735	710.97254941	-166.09146018	853.76460579	703.94543345	0.80484241	741.65469868	755.80333383	-116.48520074	936.76568947	433.18687568	-222.90398769	939.31451899	379.5291464	-171.34286789	919.29802629	147.57499695	-206.59863643	898.13960003	63.43976475	-156.76458368	845.26540347	18.78108963	-123.5324342	1023.02356046	29.15885658	-121.87389123	1013.89978501	21.32686638	-73.30310195	989.17635605	14.96092041	-167.30481306	749.8557263	423.71338307	56.82251198	736.39179132	343.62177556	10.05478749	532.28645393	237.85768512	29.27905651	468.73458391	186.97937888	-20.39943711	417.82468261	208.18790667	-69.03514864	484.31579767	54.59170813	-47.46043881	484.41230853	68.57323211	-98.90563256	452.32158876	72.406267	-10.73615649	
52	1.75	747.12845197	1088.84715008	-102.18595411	754.32305347	905.76756207	-107.25263532	863.18048888	1067.23196826	-99.28365604	909.17066643	712.84597985	-167.56225966	870.13454197	704.94466019	-0.48475632	757.08151722	757.17115031	-116.5347886	945.62166914	432.3301412	-224.03911071	947.13221023	378.57548384	-172.200722	921.49662726	146.88505223	-206.81736658	898.1823489	63.30070772	-156.79740099	845.21342168	18.99779226	-123.57579592	1023.12751269	29.3643518	-121.84965436	1013.96981707	21.29897561	-73.41589448	989.0534224	15.19729455	-167.70400944	775.46066995	422.80293674	58.48733687	765.45010039	342.61099534	12.69629663	559.17106551	243.87497389	31.31876341	493.56841203	196.1049102	-18.74790849	443.33778551	218.91614383	-67.73649841	504.96155084	61.98139149	-42.75544748	506.02595374	74.94052437	-94.81185302	473.486244	82.73057124	-7.16741716	
53	1.76	762.02204303	1090.36713365	-102.73059216	769.44613661	907.27325863	-107.57573586	877.94100216	1068.89197032	-99.56630429	923.98389291	714.69864896	-169.04593728	886.2526216	706.15437679	-1.77171292	772.26978807	758.6904165	-116.63459537	953.47143243	431.34546156	-225.24682002	953.83863929	377.52216251	-173.17851079	923.21639782	146.23041543	-207.09948591	898.23741906	63.20656867	-156.8449278	845.29616481	19.18430425	-123.56023468	1023.20358339	29.76319503	-121.9215801	1014.05903677	21.58408579	-73.56872747	988.99512235	15.53478071	-168.04181325	800.98945677	422.59558112	60.06899063	794.69261203	342.47418424	15.13156051	586.83893812	249.74597685	33.0189791	519.74452478	204.29714234	-17.37801246	470.07228134	227.81725813	-66.85132446	528.86411681	69.17682202	-37.89748923	530.62390589	80.77161906	-90.53429016	497.66433393	92.22989515	-3.4601449	
54	1.77	776.85133208	1091.98046831	-103.24812496	784.43259353	908.89670542	-107.91326245	892.60784663	1070.62223047	-99.71804571	938.47049027	716.49654694	-170.5200352	902.11663691	707.55485374	-3.03880871	787.22675125	760.33206502	-116.77171099	960.48993963	430.33237532	-226.47185172	959.61251997	376.44971556	-174.22056437	924.55774307	145.64342975	-207.41246666	898.33923821	63.1647628	-156.88360475	845.47335086	19.39671674	-123.47580241	1023.28259435	30.18433464	-122.05618717	1014.18547678	21.99491436	-73.73672119	988.9951304	15.85458722	-168.30676678	826.38747131	423.16037942	61.54203861	823.96664229	343.27189222	17.29099913	615.12483816	255.30397051	34.36601012	547.11777953	211.25649246	-16.27166156	497.81684924	234.6559971	-66.30547189	555.76489686	75.72338179	-33.14770638	557.94076812	85.78624116	-86.29531792	524.5933319	100.39717584	0.19558357	
55	1.78	791.62138687	1093.65443494	-103.75528293	799.28680899	910.60448194	-108.26755782	907.18857063	1072.39005982	-99.75854684	952.64388088	718.210872	-171.96343823	917.73161729	709.12175122	-4.26953176	801.96235793	762.0646053	-116.92684251	966.83699038	429.37711509	-227.66427174	964.63087561	375.43375928	-175.27079608	925.61082087	145.15868149	-207.72204032	898.50495122	63.1897051	-156.88843844	845.71017366	19.6879845	-123.30471711	1023.38601053	30.51982942	-122.22240055	1014.36277814	22.39737028	-73.90052795	989.03944228	16.09189113	-168.49557695	851.65105425	424.52646485	62.89044056	853.15165961	345.01017142	19.11995825	643.90365015	260.34406806	35.37470486	575.55106666	216.72118749	-15.39624564	526.38689737	239.27824366	-65.99886608	585.34851288	81.22047252	-28.75403061	587.68537953	89.7516735	-82.31827041	553.97071002	106.82933713	3.6160036	
56	1.79	806.33999797	1095.35743737	-104.26848912	814.01428667	912.36360487	-108.63807396	921.69365629	1074.16246674	-99.7106519	966.52111333	719.81763791	-173.35699158	933.108827	710.82604496	-5.4485354	816.48825158	763.85443269	-117.07556822	972.64786183	428.54548754	-228.78138924	969.05559262	374.53864022	-176.27747423	926.45172584	144.81066519	-207.99522724	898.73886631	63.30056838	-156.83506319	845.98130848	20.10349014	-123.02326598	1023.52653639	30.71848989	-122.39325431	1014.60046426	22.71091275	-74.04509695	989.11055229	16.22696613	-168.60894325	876.81610902	426.68499549	64.10405533	882.15683481	347.64504856	20.57908172	673.09136739	264.63853402	36.08235777	604.92116096	220.48403171	-14.71196703	555.63567031	241.60636757	-65.82544853	617.28718971	85.36084199	-24.92151697	619.57266908	92.4989842	-78.79832508	585.4932767	111.25439875	6.645186	
57	1.8	821.01717799	1097.05924402	-104.80278181	828.62140541	914.14186596	-109.02138781	936.13594714	1075.90651956	-99.59880316	980.12162003	721.29713872	-174.68400645	948.26476176	712.63424302	-6.56208545	830.81690555	765.66636462	-117.18978069	978.03141945	427.88117938	-229.78909869	973.02517258	373.81394911	-177.19729944	927.14077779	144.631465	-208.20365032	899.03638213	63.51854688	-156.70244209	846.27129952	20.67868127	-122.60618779	1023.70871884	30.77307415	-122.54731519	1014.90336341	22.90169376	-74.15896406	989.19015484	16.27159313	-168.64881721	901.94162027	429.594164	65.1745812	910.91506967	351.09135043	21.64370235	702.64160624	267.95731682	36.54028969	635.12428433	222.4030328	-14.17863332	585.46196379	241.6285576	-65.6910617	651.2756845	87.95337812	-21.79135495	653.34564416	93.93178643	-75.87952284	618.88761703	113.54006334	9.17123077	
58	1.81	835.66457642	1098.73107383	-105.37079204	843.11531337	915.90805577	-109.41134177	950.53000922	1077.58973823	-99.44755538	993.46617832	722.63336551	-175.93066378	963.22021449	714.50889375	-7.59849817	844.96098597	767.46438845	-117.23924625	983.07409455	427.40823865	-230.66266625	976.65173551	373.29355082	-177.99838858	927.72317961	144.64852815	-208.32657999	899.38748397	63.8640973	-156.47570983	846.57282122	21.43848267	-122.03241472	1023.93002549	30.70526559	-122.66967074	1015.2710225	22.97173257	-74.23415462	989.26099157	16.25463548	-168.61737593	927.09060334	433.18546687	66.09181477	939.3746113	355.23355725	22.30263811	732.53904716	270.09063728	36.80463478	666.08111618	222.40551068	-13.76089182	615.81431629	239.38542906	-65.52614809	687.05329114	88.92874163	-19.43111678	688.78770308	94.02722335	-73.6415145	653.92879185	113.68619529	11.13476782	
59	1.82	850.29486008	1100.34555909	-105.9818374	857.50394912	917.63209087	-109.79929908	964.89147945	1079.1805002	-99.2802774	1006.57615557	723.81341699	-177.08632229	977.99944784	716.40934346	-8.54856135	858.93298852	769.21255579	-117.19322745	987.847037	427.13573023	-231.38691428	980.02251169	372.99643112	-178.66190447	928.23169001	144.88268789	-208.35322217	899.77985467	64.35456628	-156.14863856	846.88408709	22.39796443	-121.29083878	1024.18243553	30.55158413	-122.75234661	1015.6975038	22.9468529	-74.26650447	989.30827081	16.20962235	-168.51745048	952.31098888	437.3695367	66.8409402	967.4895736	359.93641677	22.55675638	762.79134716	270.87006641	36.92789222	697.74083227	220.48649361	-13.43136809	646.69186667	234.95702206	-65.29180459	724.41314358	88.3306595	-17.83629282	725.7269968	92.8306051	-72.09716351	690.44748043	111.80584356	12.52925418	
60	1.83	864.92110482	1101.87662217	-106.64119446	871.79616654	919.28506384	-110.17450582	979.23645221	1080.6484398	-99.11810069	1019.47308341	724.82691287	-178.14373057	992.62948111	718.29267504	-9.40591955	872.74517561	770.87592336	-117.02212425	992.41362611	427.06259598	-231.9557733	983.20455235	372.9285756	-179.182235	928.6905503	145.34663629	-208.28388748	900.20157309	65.00248525	-155.72526372	847.2063087	23.56372846	-120.3848727	1024.45433079	30.35207924	-122.79408742	1016.1716435	22.86532436	-74.25607716	989.32086764	16.16592053	-168.35381938	977.61862669	442.04034992	67.40129794	995.2106847	365.05364151	22.41755884	793.42087073	270.1849304	36.9525177	730.08374952	216.70297605	-13.17168399	678.14226438	228.45258122	-64.97935745	763.2013861	86.2975877	-16.94130085	764.0349526	90.44618004	-71.20005493	728.3279148	108.10025568	13.39409556	
61	1.84	879.55623541	1103.29931037	-107.34960574	886.00193209	920.83924122	-110.52454988	993.58094389	1081.96482351	-98.97914157	1032.1785686	725.66541062	-179.09913932	1007.13947588	720.11475427	-10.16739437	886.40981948	772.42142807	-116.69908767	996.83523965	427.18136578	-232.37125625	986.25120948	373.08520601	-179.56579619	929.11978209	146.04402567	-208.1298355	900.64330124	65.81465108	-155.22031575	847.54171059	24.93558071	-119.33492007	1024.73240795	30.14249402	-122.79952021	1016.67770964	22.76836591	-74.20736218	989.29231916	16.14391096	-168.13466943	1002.98419229	447.07734559	67.74681215	1022.47742141	370.4338678	21.90588074	824.45724153	267.99193347	36.90733196	763.12220374	211.16590405	-12.97175343	710.25704931	220.0045054	-64.60484531	803.30955793	83.03979335	-16.63714031	803.62067521	87.02668411	-70.85957476	767.49987399	102.83289184	13.80254454	
62	1.85	894.21254104	1104.58963565	-108.10306354	900.13255672	922.26804082	-110.83590388	1007.94046099	1083.10289304	-98.8779941	1044.71451252	726.32183801	-179.95230781	1021.56019269	721.83132425	-10.8332024	899.93973415	773.81859546	-116.20155159	1001.17432854	427.48020167	-232.64201329	989.20901943	373.45290793	-179.82868357	929.53907657	146.96930559	-207.91175795	901.09982974	66.7919656	-154.65825947	847.89227449	26.5081948	-118.17830876	1025.00339501	29.94977419	-122.7777783	1017.19639234	22.69305194	-74.12901857	989.22148778	16.15371122	-167.8725908	1028.32541337	452.34572376	67.84803056	1049.21247092	375.92389487	21.05065196	855.93133631	264.31728381	36.80691038	796.89928463	204.03162039	-12.82800893	743.1647834	209.76680847	-64.20048252	844.66323003	78.81622399	-16.79251651	844.42231499	82.76373307	-70.96048568	807.92782273	96.30624682	13.84668957	
63	1.86	908.90128381	1105.72446662	-108.89289483	914.20092204	923.54602484	-111.09453418	1022.32968155	1084.03817973	-98.8254682	1057.10358391	726.78997269	-180.70639801	1035.92348698	723.39911002	-11.40703055	913.3490521	775.0400101	-115.51261746	1005.49493567	427.9434695	-232.78168552	992.12387545	374.01140573	-179.99350602	929.97071501	148.1083151	-207.65704459	901.57087823	67.92991535	-154.07093961	848.25916655	28.27259914	-116.96664984	1025.25546605	29.79035497	-122.74069875	1017.70611866	22.66775072	-74.03303329	989.11269885	16.19647608	-167.58465154	1053.5056828	457.69577977	67.67555875	1075.31924181	381.36986122	19.88758544	887.87092664	259.2519834	36.65350885	831.48496716	195.49405877	-12.74128497	777.02196589	197.91750055	-63.80534182	887.20918929	73.9144186	-17.27528348	886.39612831	77.88015938	-71.38364994	849.59940164	88.84380495	13.62183857	
64	1.87	923.63240603	1106.68151513	-109.70614881	928.22166198	924.64894684	-111.28655273	1036.76224353	1084.74880239	-98.82853353	1069.36986682	727.06401556	-181.36775095	1050.26181472	724.7769156	-11.89593277	926.65416815	776.06152025	-114.62221965	1009.86149277	428.55142972	-232.80726028	995.04570715	374.73492152	-180.08579695	930.44120334	149.43957957	-207.39614951	902.06112171	69.21954058	-153.49405413	848.64270016	30.21743128	-115.7609155	1025.47933444	29.67051205	-122.70075146	1018.1847213	22.7099661	-73.93328742	988.97519077	16.26715311	-167.29134619	1078.33968497	462.96249362	67.20452071	1100.68293866	386.61740006	18.45766667	920.29769417	252.94199108	36.44063176	866.9690568	185.77835576	-12.71500251	812.00148095	184.66356504	-63.45725369	930.90265562	68.63547241	-17.97130442	929.50397298	72.62440445	-72.02466238	892.51430245	80.77799946	13.21236367	
65	1.88	938.41433378	1107.43945019	-110.52626613	942.21126615	925.55388652	-111.39888431	1051.25061985	1085.21576386	-98.89042435	1081.53958662	727.13830988	-181.94554106	1064.60772357	725.92670869	-12.31002404	939.87473266	776.86219646	-113.5279974	1014.3369342	429.27970354	-232.73754619	998.03125308	375.59317574	-180.13041689	930.98153777	150.93621208	-207.15852052	902.57951535	70.64875191	-152.96290201	849.04267397	32.32999548	-114.62482219	1025.66903947	29.58808779	-122.66893919	1018.61145655	22.82625909	-73.84367247	988.82185262	16.35769178	-167.01449604	1102.60604666	467.96669622	66.41952184	1125.17547808	391.51197311	16.80540298	953.22485537	245.5755121	36.1571632	903.45031499	175.13588134	-12.75410465	848.27809896	170.24669571	-63.18739023	975.69518355	63.28467575	-18.7983441	973.70010864	67.26624301	-72.80770924	936.67339365	72.4437189	12.68066488	
66	1.89	953.25386969	1107.97816012	-111.33398663	956.18807514	926.2394965	-111.41991933	1065.80605379	1085.42326228	-99.01086156	1093.64180948	727.0072479	-182.45130605	1078.9933126	726.81469036	-12.66196564	953.03454242	777.4241073	-112.23580834	1018.98099309	430.0990032	-232.59178348	1001.14489114	376.55215086	-180.14834562	931.62624135	152.56827703	-206.96865008	903.13809567	72.20387234	-152.50803549	849.45894775	34.59721006	-113.61738814	1025.82244379	29.53499966	-122.65299225	1018.96927156	23.0137579	-73.77605454	988.66742595	16.45997698	-166.77444195	1126.06623995	472.5189647	65.31942929	1148.66421121	395.90053552	14.97690952	986.65432515	237.36965503	35.7910587	941.02128749	163.84008077	-12.86493014	886.0104787	154.94767337	-63.0182804	1021.52304398	58.16685682	-19.71343793	1018.91809141	62.09247895	-73.69295843	982.06704334	64.17568194	12.06035121	
67	1.9	968.1561674	1108.27916978	-112.10843614	970.17214719	926.68637343	-111.34012227	1080.4385265	1085.35902859	-99.18635516	1105.70901162	726.66538207	-182.89835247	1093.44965007	727.41234013	-12.9662561	966.16216233	777.73200528	-110.75983568	1023.84920257	430.97535426	-232.38834901	1004.4578383	377.5747533	-180.15422153	932.41152209	154.30542173	-206.84283343	903.75052507	73.87128619	-152.15153666	849.89213514	37.006542	-112.7857473	1025.9414519	29.50004365	-122.65621054	1019.24711092	23.26264942	-73.73849532	988.52652525	16.56805203	-166.58706078	1148.48812079	476.42696838	63.92116614	1171.02400388	399.63542959	13.0179987	1020.57242117	228.55818463	35.33186849	979.74884012	152.18205243	-13.05593018	925.31930546	139.08723661	-62.9651688	1068.29519869	53.58384897	-20.71326164	1065.05819554	57.40082181	-74.67704901	1028.6611557	56.30692365	11.35406633	
68	1.91	983.12478135	1108.32620258	-112.82832181	984.18498596	926.87755131	-111.15256878	1095.15673053	1085.01469428	-99.41056026	1117.77742232	726.10773032	-183.3010427	1108.00614835	727.69741657	-13.23836314	979.29112218	777.77303211	-109.12226747	1028.99279908	431.87080414	-232.14355399	1008.0462869	378.6214813	-180.15491957	933.37308015	156.11952441	-206.78716213	904.43070717	75.63906167	-151.90459031	850.34430225	39.54702417	-112.15932885	1026.03194732	29.47159041	-122.6772243	1019.44196244	23.55902779	-73.73414714	988.41189429	16.67942834	-166.46120802	1169.67173224	479.5063495	62.26170207	1192.15172616	402.58094634	10.97246106	1054.94358044	219.38125966	34.77176287	1019.65126496	140.46453048	-13.33888616	966.2617571	123.02159966	-63.03979155	1115.87981358	49.83029053	-21.82820138	1111.97534379	53.48994501	-75.78752223	1076.37971394	49.16489753	10.53569899	
69	1.92	998.16178516	1108.10586445	-113.47316205	998.24912675	926.79910173	-110.85338874	1109.96803024	1084.38618259	-99.67467116	1129.88705595	725.33024383	-183.67397765	1122.68990359	727.65488262	-13.49374949	992.45956897	777.53655255	-107.35255698	1034.45950378	432.74447196	-231.87065243	1011.98915381	379.65114721	-180.14936039	934.54419106	157.98707093	-206.79713126	905.19181926	77.49840301	-151.76683035	850.8196054	42.21045351	-111.74632028	1026.1034147	29.43981718	-122.71073798	1019.56026221	23.88755245	-73.76110351	988.33322281	16.79542636	-166.39712444	1189.47446851	481.59448579	60.39756234	1211.98169175	404.62237354	8.88067285	1089.70227101	210.0771439	34.10516956	1060.67394011	128.99299123	-13.73010969	1008.80348753	107.13145316	-63.25498138	1164.08886816	47.18362943	-23.11190098	1159.46729553	50.64381262	-77.07306556	1125.08369164	43.06161011	9.5561364	
70	1.93	1013.2679502	1107.60841467	-114.02448009	1012.38758488	926.44081515	-110.44209913	1124.87839804	1083.47410647	-99.96784887	1142.08136683	724.33039162	-184.03110201	1137.52501218	727.27771639	-13.74685906	1005.7093063	777.01421011	-105.48630322	1040.29503962	433.55375804	-231.57929903	1016.36606014	380.62163257	-180.1296118	935.95467222	159.89098586	-206.85900729	906.04607989	79.44480363	-151.72763169	851.32491704	44.99286484	-111.53302688	1026.16816687	29.39813531	-122.74902496	1019.61819999	24.23349835	-73.81321384	988.29663752	16.92058071	-166.38615175	1207.83246917	482.56577561	58.40147328	1230.50016756	405.67666648	6.77856679	1124.74403775	200.87518877	33.32750402	1102.66662329	118.06305317	-14.25103795	1052.7906975	91.80431826	-63.62825424	1212.66178567	45.88509021	-24.62880495	1207.26313835	49.10893084	-78.59202006	1174.54790258	38.27507552	8.3513438	
71	1.94	1028.44297109	1106.828577	-114.46689878	1026.62317965	925.79692885	-109.92181689	1139.89232103	1082.28414722	-100.27768482	1154.40648335	723.10781114	-184.38477423	1152.53188254	726.5675625	-14.01013793	1019.08421448	776.20026882	-103.56381492	1046.54518281	434.2555609	-231.27571672	1021.25596324	381.49060091	-180.08318591	937.63118331	161.82171633	-206.95282678	907.00549012	81.47881842	-151.76917271	851.87065076	47.89634219	-111.4864359	1026.24007489	29.34352171	-122.78367567	1019.64045039	24.58395059	-73.88156229	988.30474838	17.06121935	-166.41182906	1224.77523628	482.34653997	56.35618082	1247.75684602	405.70327248	4.69689717	1159.91726386	191.98910355	32.43367732	1145.36620313	107.94421776	-14.92772022	1097.92634902	77.41136937	-64.18280089	1261.25078706	46.11057704	-26.44239955	1255.01307082	49.06447541	-80.40161492	1224.4393062	35.02139056	6.85143492	
72	1.95	1043.68571584	1105.76634114	-114.78908521	1040.97775525	924.86685998	-109.29934707	1155.01267831	1080.82738086	-100.59070711	1166.91000507	721.66497334	-184.74485912	1167.72656924	725.53517664	-14.29316638	1032.6281212	775.09226242	-101.62843689	1053.25810785	434.80740674	-230.96370778	1026.73659584	382.21608069	-179.9962723	939.59904269	163.77748302	-207.05662211	908.08366221	83.60644182	-151.87078561	852.47210789	50.93115561	-111.55996156	1026.332752	29.27563203	-122.80703171	1019.65703864	24.92813471	-73.95613042	988.35697351	17.22344056	-166.45216667	1240.43098092	480.92736025	54.3459592	1263.87122159	404.7132621	2.66065315	1195.01762906	183.60972977	31.41704646	1188.38887688	98.8611941	-15.78893104	1143.75568432	64.28111026	-64.94504066	1309.41224434	47.93383285	-28.6063945	1302.28181929	50.58736773	-82.5498652	1274.3018906	33.41979236	4.98954166	
73	1.96	1058.99446652	1104.4277042	-114.98450523	1055.47132721	923.65589751	-108.58514666	1170.24059331	1079.12052048	-100.89293459	1179.63937948	720.00781765	-185.11791574	1183.12016269	724.20061749	-14.60197418	1046.38227358	773.691922	-99.72472296	1060.48674128	435.16845543	-230.64641154	1032.88460286	382.75686676	-179.85749916	941.88542005	165.7637317	-207.15125211	909.29869402	85.83915332	-152.01390439	853.15163381	54.11810806	-111.70187564	1026.45727629	29.19489064	-122.81293271	1019.69848219	25.25717563	-74.02721194	988.44983118	17.41088794	-166.48268767	1255.02114992	478.37074217	52.44680445	1279.03219144	402.77487756	0.68845435	1229.78730122	175.89716131	30.26924367	1231.23511487	90.97530977	-16.86298545	1189.66640855	52.67339615	-65.93888329	1356.60892583	51.28804689	-31.16007314	1348.54923787	53.61708188	-85.07113257	1323.55387217	33.45665265	2.70967492	
74	1.97	1074.36710516	1102.82530279	-115.05195828	1070.12118866	922.17580469	-107.79316656	1185.57526768	1077.18604357	-101.17047874	1192.63991301	718.14632192	-185.50656037	1198.71826741	722.59314635	-14.93860035	1060.38263741	772.0063037	-97.89653772	1068.29078979	435.30039294	-230.32847471	1039.77606666	383.07275611	-179.66171272	944.52346737	167.79190687	-207.2250908	910.67688443	88.19375662	-152.18684182	853.94170006	57.49086937	-111.86532842	1026.61968891	29.10012885	-122.79673779	1019.78988367	25.56385044	-74.08635444	988.57697924	17.62293801	-166.47972609	1268.84395065	474.81243789	50.7167125	1293.48991581	400.0139381	-1.20818424	1263.92054724	168.97290701	28.98098686	1273.30933578	84.36947144	-18.1736662	1234.90782077	42.75801214	-67.17785306	1402.22709032	55.93547115	-34.127673	1393.22203411	57.92766796	-87.98518016	1371.50207555	34.95750065	-0.02667694	
75	1.98	1089.80119396	1100.97888609	-114.99587104	1084.94101814	920.44528435	-106.94057549	1201.01380604	1075.05217431	-101.41018541	1205.95250863	716.09498092	-185.9090828	1214.52059975	720.75080789	-15.30094096	1074.65729636	770.04899471	-96.18516347	1076.7380712	435.16825145	-230.0181549	1047.48701398	383.12470648	-179.41323355	947.55674541	169.87771554	-207.2778168	912.25693002	90.69216281	-152.38865568	854.88880544	61.09797661	-112.01832991	1026.81861643	28.98663196	-122.75486075	1019.94506513	25.84301767	-74.1268162	988.72898761	17.85408644	-166.42347615	1282.24834851	470.45551839	49.18768461	1307.53997116	396.6082057	-3.02570262	1297.07667177	162.91358199	27.54368022	1313.95406301	79.04040457	-19.73590758	1278.63075513	34.60202677	-68.65700828	1445.60979152	61.4562219	-37.52027897	1435.65962051	63.11630505	-91.29841003	1417.37585056	37.57757921	-3.23493175	
76	1.99	1105.29390871	1098.91558338	-114.82633407	1099.94003455	918.49025765	-106.04737009	1216.55104559	1072.75269466	-101.60029838	1219.61125865	713.87317078	-186.31938107	1230.52073364	718.71967893	-15.6829055	1089.22422601	767.84124452	-94.62748599	1085.90476715	434.74121353	-229.72887243	1056.09351381	382.87506157	-179.12810156	951.04322873	172.03906659	-207.32265127	914.09410889	93.36122273	-152.63145578	856.05787621	65.00409753	-112.15182111	1027.04347416	28.84553672	-122.68417782	1020.16203631	26.09329699	-74.1436604	988.89313157	18.09534686	-166.30039856	1295.60165742	465.55724204	47.8610729	1321.50097121	392.77571983	-4.76927161	1328.9000115	157.74800043	25.9514674	1352.49581849	74.90117069	-21.55196923	1319.9467209	28.16912464	-70.34689409	1486.10403506	67.26621514	-41.33780149	1475.21462262	68.61759902	-95.00523889	1460.37915719	40.8199927	-6.90228263	
77	2.0	1120.84181522	1096.66992491	-114.55886977	1115.12224861	916.34390767	-105.13587572	1232.1794031	1070.32656559	-101.73111778	1233.64106013	711.50537738	-186.7272562	1246.70602081	716.55278554	-16.07487466	1104.08968416	765.41285452	-93.25433554	1095.87425833	433.9934676	-229.47985064	1065.67109218	382.28801799	-178.8349495	955.05822802	174.29387796	-207.38660071	916.26386731	96.23259918	-152.94063322	857.53664725	69.29009035	-112.28415153	1027.27389104	28.66534347	-122.58166956	1020.42113519	26.32024391	-74.1336817	989.0538502	18.33828528	-166.10478354	1309.25504003	460.40975044	46.70748508	1335.68790647	388.75810428	-6.45313856	1359.0452673	153.45926297	24.20339328	1388.297652	71.79518213	-23.60877181	1358.00076088	23.33199432	-72.19146367	1523.11567893	72.66960768	-45.56862005	1511.28495683	73.74982859	-99.08760993	1499.75545297	44.08573277	-10.98287311	
78	2.01	1136.44051805	1094.28357892	-114.21392564	1130.48586447	914.04644509	-104.23014438	1247.88875113	1067.8173476	-101.79561774	1248.05544753	709.02126637	-187.11907741	1263.05770864	714.30870128	-16.46442541	1119.24740854	762.80266508	-92.08906728	1106.7343167	432.90519418	-229.29569457	1076.29335941	381.33051887	-178.57432702	959.69572325	176.65795062	-207.50854217	918.86421535	99.34253528	-153.35269332	859.43932396	74.05135829	-112.46085726	1027.48124908	28.435897	-122.44462824	1020.6871246	26.54077944	-74.09541147	989.19484488	18.58187508	-165.83949568	1323.51155953	455.31648663	45.67169605	1350.38421175	384.80073012	-8.10010503	1387.20503949	149.99242183	22.30538545	1420.81155979	69.52040244	-25.8768796	1392.04917542	19.89595809	-74.11105806	1556.16345322	76.94362738	-50.1855301	1543.37064277	77.79311778	-103.51154308	1534.85689749	46.75235406	-15.39390693	
79	2.02	1152.08423874	1091.80477379	-113.81609728	1146.02288717	911.64456258	-103.35525838	1263.66634201	1065.27242008	-101.78998178	1262.85484884	706.4555727	-187.47879294	1279.55127167	712.04985453	-16.83726478	1134.6787428	760.05850812	-91.14647392	1118.5726141	431.46377526	-229.20498847	1088.02990636	379.97374879	-178.39649902	965.06780161	179.1431165	-207.73530306	922.01642529	102.73127914	-153.91068863	861.90869771	79.39399877	-112.74943361	1027.63341437	28.15461842	-122.27173595	1020.9163433	26.78809314	-74.02949251	989.30395759	18.84168187	-165.51611082	1338.60069312	450.56685119	44.68199215	1365.81580753	381.13216455	-9.7397581	1413.13544329	147.26677775	20.27181407	1449.62357874	67.85977071	-28.3113406	1421.53126911	17.62919172	-76.01038913	1584.92309959	79.44480469	-55.13844478	1571.1259197	80.0910457	-108.22112115	1565.20799521	48.26953273	-20.0143119	
80	2.03	1167.76539135	1089.28738511	-113.39310099	1161.71899	909.19055599	-102.53655356	1279.49680299	1062.74200974	-101.71401204	1278.02546702	703.84778538	-187.7892242	1296.15696364	709.84059034	-17.17829571	1150.35371312	757.23654574	-90.43212616	1131.47073515	429.66531339	-229.23818284	1100.9436341	378.19537068	-178.35793406	971.30209368	181.75587396	-208.11618908	925.86368788	106.44189287	-154.65766887	865.11587726	85.42830561	-113.22960769	1027.70366865	27.83412186	-122.06527954	1021.06959313	27.11574175	-73.93973392	989.3817932	19.16003581	-165.15474933	1354.66163683	446.41188603	43.66237172	1382.12998453	377.94538574	-11.40529053	1436.67551728	145.19030138	18.12641445	1474.48528172	66.61194769	-30.85428101	1446.12426539	16.29313367	-77.79032735	1609.25450751	79.71769835	-60.34624969	1594.39677814	80.15871765	-113.1318896	1590.55434462	48.25272453	-24.68824466	
81	2.04	1183.47422634	1086.78968276	-112.97453594	1177.55368765	906.74110719	-101.79878232	1295.36222745	1060.27805071	-101.5713701	1293.53896072	701.24160569	-188.03354548	1312.84058908	707.74505428	-17.472728	1166.23295678	754.39998568	-89.94222279	1145.49711777	427.51650345	-229.42514501	1115.08772219	375.98257835	-178.51685701	978.53727932	184.49671932	-208.69665968	930.56757421	110.51819667	-155.62900518	869.25694782	92.25933537	-113.9802882	1027.68437341	27.50971611	-121.83466709	1021.13068247	27.59930146	-73.83511455	989.45440642	19.61497333	-164.78389641	1371.73583167	443.04362921	42.54538036	1399.38110959	375.38278211	-13.12904727	1457.75700506	143.67271462	15.90239577	1495.32763023	65.61600525	-33.43885774	1465.772615	15.66683762	-79.36140218	1629.20817979	77.58275492	-65.69150626	1613.23615325	77.774627	-118.12675119	1610.88918862	46.55328322	-29.23546681	
82	2.05	1199.19860593	1084.37275652	-112.59049633	1193.50084434	904.35574606	-101.16524552	1311.24238438	1057.93290971	-101.36961333	1309.3530459	698.68416543	-188.19681852	1329.56448155	705.82499039	-17.70714458	1182.27027674	751.61724144	-89.66399944	1160.69955476	425.0368104	-229.79274939	1130.50243357	373.33592539	-178.92834299	986.91688712	187.36034724	-209.512001	936.30234752	115.00166589	-156.84478094	874.54617443	99.97455098	-115.06484384	1027.60496041	27.24480502	-121.60118496	1021.12938252	28.33379325	-73.73285428	989.58927072	20.32509462	-164.44038623	1389.76756373	440.58024386	41.2833096	1417.52402833	373.52616965	-14.93721926	1476.4028668	142.63393786	13.6416393	1512.25617935	64.76502885	-35.99396568	1480.68674616	15.56121256	-80.65640441	1645.0113457	73.18095169	-71.02167232	1627.89362492	73.03324837	-123.05762992	1626.45324017	43.28644064	-33.46905734	
83	2.06	1214.92395714	1082.09866703	-112.2701125	1209.52952289	902.09503788	-100.65693222	1327.1150651	1055.75801934	-101.12000252	1325.41307157	696.22500663	-188.26742702	1346.28865843	704.13756772	-17.87043672	1198.41549852	748.95967199	-89.57669858	1177.09807281	422.26077774	-230.36279942	1147.2119375	370.27372286	-179.63946503	996.58174601	190.33680789	-210.58187335	943.24736574	119.9272137	-158.3035685	881.2057753	108.62905103	-116.51665929	1027.55255194	27.13206917	-121.40354615	1021.16606619	29.42536673	-73.66239889	989.91237094	21.44742204	-164.16954787	1408.61074857	439.05826417	39.85600874	1436.41512457	372.39228997	-16.84429319	1492.71513891	142.00601962	11.39300104	1525.5297265	64.00651795	-38.44904229	1491.31118887	15.82257657	-81.63941753	1657.03754815	66.96020221	-76.15896424	1638.78235577	66.34156803	-127.75524051	1637.70652714	38.80750357	-37.21834152	
84	2.07	1230.63343269	1080.02839642	-112.0401119	1225.6051511	900.01857432	-100.29171557	1342.95657888	1053.80247075	-100.83707199	1341.65453873	693.91484366	-188.23824465	1362.97209842	702.73336654	-17.95453122	1214.61728317	746.4990762	-89.65305609	1194.67914787	419.24015543	-231.15044242	1165.22133997	366.83658507	-180.68497381	1007.66157736	193.41356498	-211.90650849	951.57801533	125.31796627	-159.97879133	889.45273794	118.2295809	-118.32709136	1027.69213739	27.28876484	-121.30326372	1021.43375334	30.97665997	-73.66979764	990.62297343	23.16612759	-164.02531462	1428.04025247	438.43256578	38.27437084	1455.82054821	371.93380506	-18.84796846	1506.8549227	141.72888887	9.20983679	1535.5268836	63.3310766	-40.73844293	1498.2670929	16.32833584	-82.30915276	1665.76578347	59.60136462	-80.91841092	1646.43081415	58.35519439	-132.04716412	1645.27515564	33.63948637	-40.35241054	
