PathFileType        4      (X/Y/Z)      Walking.trc         
DataRate	CameraRate	NumFrames	NumMarkers	Units	OrigDataRate	OrigDataStartFrame	OrigNumFrames
100.0	100.0	97	18	mm	100.0	1	97
Frame#	Time	T2			T10			MANU			LASI			RASI			SACR			LTHI			LKNE			LTIB			LANK			LHEE			LTOE			RTHI			RKNE			RTIB			RANK			RHEE			RTOE			
		X1	Y1	Z1	X2	Y2	Z2	X3	Y3	Z3	X4	Y4	Z4	X5	Y5	Z5	X6	Y6	Z6	X7	Y7	Z7	X8	Y8	Z8	X9	Y9	Z9	X10	Y10	Z10	X11	Y11	Z11	X12	Y12	Z12	X13	Y13	Z13	X14	Y14	Z14	X15	Y15	Z15	X16	Y16	Z16	X17	Y17	Z17	X18	Y18	Z18	
1	3.24	44.99090767	1127.97428293	84.42353638	9.47701707	941.19866577	84.89554488	158.36543329	1053.78069131	88.73611423	136.6870709	740.71316989	-19.08342347	150.67275163	732.52511429	191.61408006	22.85021703	767.09339317	97.63408098	54.60664926	413.62071072	-62.37762718	32.76655864	342.66527355	-16.67144969	-124.90256751	162.48217076	-77.56705961	-198.71369295	110.93352825	-49.11143111	-261.4977683	126.4371177	-44.77631145	-140.24784063	25.84640901	17.45265888	271.30727135	464.87859459	219.60295382	293.28032558	398.03387783	172.93858635	306.10766541	173.14112015	242.80454936	282.32804828	66.54835536	224.5309612	225.93669043	47.1762365	221.91938303	373.34917984	33.5132037	134.81066416	
2	3.25	55.88469601	1124.44902281	86.10348933	22.22548061	937.2181229	86.37042632	169.96545099	1051.16169348	90.15412073	150.3890525	737.08492717	-17.98918191	166.05680007	729.14409898	192.72805983	37.06883402	763.85731424	99.3309734	66.1268127	410.74249921	-62.28311113	44.26675181	339.68037279	-17.00925434	-118.06041325	164.07015508	-78.25389477	-193.0390209	113.96033806	-49.49178573	-255.08287041	131.97145481	-44.82122026	-139.54652729	25.64181161	17.30305304	285.42462645	460.23793809	217.96940807	306.24902592	393.34624893	170.94092238	318.05690816	168.76128797	240.83651275	292.68008809	62.67308511	223.47410118	236.34885586	43.01439902	221.64704968	382.98739542	31.81436836	132.43824213	
3	3.26	66.74043046	1121.16017358	87.70727592	35.13271504	933.44206468	87.73277779	181.58118941	1048.8856508	91.52951432	164.33936113	733.59332849	-16.80700865	181.46844222	725.97918238	193.93649374	51.4263507	760.99624359	100.9259057	78.15785705	407.97220235	-62.13138257	56.32752013	336.80804117	-17.33750925	-110.27294467	165.69763187	-79.13825852	-186.37043925	116.85880623	-50.12615602	-247.46669832	137.53630865	-45.17065712	-138.88281332	25.39082296	17.099038	299.19782527	455.7052124	216.48610711	318.83277983	388.75482741	169.04971742	328.04407858	164.65349863	238.98685788	300.19655764	59.41577119	222.61578694	243.79118236	39.79785666	221.49914069	389.52093909	30.44157575	130.43504175	
4	3.27	77.5566437	1118.20366675	89.2194261	48.14377559	929.97965852	88.96722297	193.18851612	1047.01875978	92.84683	178.45918382	730.3417777	-15.55541947	196.8009989	723.15011901	195.22573261	65.84102576	758.59311556	102.3926722	90.67907259	405.38961883	-61.88281476	68.92577989	334.13066192	-17.60092429	-101.44111085	167.30119955	-80.187433	-178.5917577	119.5194301	-51.01478657	-238.49340377	142.99975916	-45.85764751	-138.24042046	25.11192806	16.84148132	312.53333771	451.42649571	215.21075085	330.95070473	384.4036698	167.332028	336.2409355	160.91362221	237.31952024	305.2557373	56.83212374	221.98498991	248.6582597	37.53847452	221.48680012	393.43627886	29.41680022	128.88201293	
5	3.28	88.3314556	1115.67238031	90.62563874	61.19970453	926.93657867	90.06136932	204.76235501	1045.62329228	94.08995968	192.66497862	727.43600153	-14.25471368	211.9484167	720.77657094	196.57792087	80.23003096	756.72333942	103.70785989	103.67442576	403.07502368	-61.49641313	82.04164916	331.73066284	-17.73992316	-91.47015745	168.81032322	-81.35498658	-169.59467376	121.83904993	-52.14633328	-228.0243004	148.22040708	-46.91338031	-137.55135416	24.83423426	16.53618123	325.32505651	447.52942467	214.19754735	342.4985657	380.41169642	165.85710821	342.85725392	157.60839092	235.88957025	308.31183263	54.92581688	221.58846524	251.43169304	36.18642126	221.60744998	395.29529542	28.7232909	127.8016191	
6	3.29	99.063109	1113.65185123	91.91319122	74.24015275	924.41009107	91.00618697	216.27822471	1044.75445074	95.24289224	206.87211988	724.97853026	-12.92577758	226.81002822	718.97034358	197.97209871	94.51256433	755.4508663	104.85220989	117.13599014	401.10440125	-60.93323033	95.66060853	329.68538251	-17.69563198	-80.27783326	170.15464591	-82.58236656	-159.28851135	123.73372919	-53.49555227	-215.95745624	153.05865373	-48.36017729	-136.67892981	24.59553742	16.19531795	337.46329873	444.11798735	213.49345743	353.35945956	376.86950037	164.69169312	348.12263937	154.7751809	234.74130349	309.84865548	53.65318707	221.41468302	252.62889456	35.63908103	221.84855504	395.67501143	28.31443735	127.16411234	
7	3.3	109.75056279	1112.21608766	93.07125911	87.20604401	922.48440534	91.79628275	227.71376421	1044.45715821	96.29042833	220.99847396	723.06282978	-11.58883396	241.29489449	717.82771624	199.38570902	108.61271468	754.82464862	105.81169549	131.06539877	399.54517126	-60.15990447	109.77473583	328.06242287	-17.41516748	-67.80330597	171.27350825	-83.80165804	-147.61014014	125.15184916	-55.02161043	-202.2473097	157.39047084	-50.20247562	-135.4057296	24.43821029	15.83820177	348.8442259	441.26997932	213.1348565	363.41645679	373.83957807	163.89470265	352.26882235	152.42557425	233.90722329	310.33523813	52.93461411	221.43953607	252.75346858	35.75726945	222.19220601	395.11234403	28.12568433	126.90097958	
8	3.31	120.39406551	1111.42377996	94.09111314	100.04209707	921.22661217	92.43003499	239.05009912	1044.76306499	97.21882742	234.96762209	721.76762556	-10.26228146	255.3254265	717.42271503	200.79628537	122.46192251	754.87578163	106.57821653	145.4728668	398.45291016	-59.15206097	124.38288802	326.91603934	-16.85673988	-54.01551326	172.12645124	-84.93958833	-134.53262142	126.08514379	-56.66776251	-186.92045601	161.12200539	-52.41768894	-133.43087412	24.40321918	15.49088474	359.37841268	439.03685592	213.14514669	372.56540772	371.35916235	163.51216339	355.51475355	150.55133638	233.40768648	310.18971611	52.66972247	221.6324346	252.25454136	36.38526141	222.61952467	394.0622641	28.08669182	126.921755	
9	3.32	130.99562791	1111.31516648	94.96618935	112.69904503	920.68344766	92.90957103	250.27291861	1045.68803837	98.0163567	248.71150623	721.15194602	-8.96177512	268.84007828	717.80201609	202.18303922	136.00093579	755.61553182	107.14987204	160.37381243	397.86933968	-57.89732042	139.48980734	326.2849138	-15.99409579	-38.91967977	172.70290181	-85.92272148	-120.07111392	126.57522368	-58.36303071	-170.08358056	164.20271651	-54.94922194	-130.38058142	24.52321711	15.18440027	368.99751358	437.44521401	213.53364851	380.72608145	369.44435956	163.57318274	358.05589817	149.13106653	233.25098353	309.75515974	52.75301054	221.96164061	251.49943481	37.37051629	223.11406586	392.87373036	28.13155906	127.13049968	
10	3.33	141.55931592	1111.90974926	95.69205844	125.13542505	920.87904511	93.24058721	261.37316692	1047.23035533	98.67372157	262.17236189	721.25131859	-7.69966695	281.79500527	718.98189547	203.52808408	149.18120912	757.03436415	107.53083275	175.78360354	397.82159606	-56.39766346	155.10423878	326.1914053	-14.81987768	-22.5609353	173.02900169	-86.68356405	-104.28476926	126.71354524	-60.02617673	-151.92027901	166.63449859	-57.70375787	-125.83423152	24.81624804	14.95171357	377.65842826	436.4989822	214.29581648	387.85018864	368.09428246	164.08761337	360.05807757	148.13600604	233.43371401	309.28820077	53.0869957	222.39809241	250.76082292	38.57957277	223.66365819	391.78358469	28.20587368	127.43919104	
11	3.34	152.09130346	1113.20498635	96.26634128	137.31884833	921.81376358	93.43202904	272.34729862	1049.36975122	99.18436705	275.30389771	722.07540058	-6.48485694	294.16466982	720.94733419	204.81713439	161.9657333	759.10199317	107.73087601	191.71137918	398.32257748	-54.67091062	171.23627004	326.64213931	-13.34755277	-5.0243	173.16977708	-87.16700743	-87.27381783	126.63382116	-61.57173827	-132.67535551	168.47455506	-60.55423479	-119.36501146	25.28189018	14.82384496	385.34490388	436.18161717	215.41456067	393.92552395	367.2942839	165.04567835	361.65535973	147.53411649	233.94143505	308.95905348	53.5910802	222.91741845	250.2168647	39.90798246	224.26049773	390.92536304	28.2702812	127.77656243	
12	3.35	162.59965831	1115.17602745	96.68862389	149.22669698	923.46412078	93.49566214	283.19709596	1052.06739814	99.54464573	288.07176592	723.60715852	-5.32302167	305.94143976	723.65312309	206.03966066	174.32930987	761.76841047	107.76466109	208.15415038	399.37203699	-52.75108843	187.8942405	327.62962193	-11.61166469	13.56928736	173.2255783	-87.33625425	-69.17181218	126.4973887	-62.91738009	-112.62796528	169.83067897	-63.34886224	-110.59018222	25.90143864	14.8259662	392.06697389	436.45803039	216.86229127	398.97622826	367.01799166	166.41942198	362.95102926	147.29224146	234.7496329	308.86018184	54.20561442	223.50024492	249.96116855	41.28378569	224.89970336	390.34817146	28.30098053	128.09217558	
13	3.36	173.0938786	1117.77649993	96.96041511	160.84623155	925.78380581	93.44556934	293.92909199	1055.26680961	99.75385521	300.45342856	725.80355899	-4.2171175	317.13426876	727.02664003	207.18861581	186.25830889	764.96578369	107.65081503	225.09239604	400.95805381	-50.68749663	205.08167795	329.13448092	-9.66629406	33.07073835	173.32281445	-87.1772497	-50.13393532	126.47369074	-63.99146157	-92.05803522	170.84895929	-65.92535937	-99.22220992	26.64286777	14.97444933	397.8589016	437.27637286	218.603259	403.05979073	367.22835713	168.16554224	364.02057886	147.37668325	235.82505626	309.02039247	54.89168801	224.13118971	250.01881237	42.66541582	225.57684608	390.04037163	28.28795349	128.35642764	
14	3.37	183.58423732	1120.94028892	97.08516715	172.17413231	928.70569889	93.29760464	304.55368	1058.8956003	99.8141549	312.4375568	728.59762087	-3.16801968	327.76658667	730.97189549	208.25992589	197.74997126	768.61107814	107.41088252	242.48810918	403.05856819	-48.54238529	222.79476256	331.12794944	-7.58178255	53.31368605	173.6001958	-86.70074844	-30.32313147	126.71928885	-64.73964455	-71.21272466	171.69549909	-68.12851593	-85.10995305	27.46994192	15.27574581	402.77633741	438.57001503	220.59582146	406.2617562	367.87820232	170.22902272	364.91584081	147.75277105	237.12737958	309.42133202	55.62782684	224.79708862	250.36483117	44.03576591	226.28512761	389.9534799	28.23185834	128.5576875	
15	3.38	194.08101812	1124.58419793	97.06835135	183.21553795	932.14477842	93.06882367	315.08401191	1062.86797437	99.73038037	324.02310576	731.9016099	-2.17516339	337.87357704	735.37444489	209.25194344	208.81133931	772.60922675	107.06818025	260.28575834	405.64278207	-46.38730103	241.02074597	333.57430194	-5.43996617	74.12725545	174.19264247	-85.94149412	-9.89628179	127.35927019	-65.12955612	-50.28021143	172.53509511	-69.82832526	-68.26005051	28.35336943	15.72750859	406.89324481	440.26003625	222.7943899	408.6891672	368.9107742	172.54700906	365.66965297	148.38401403	238.61108985	310.01396403	56.4049941	225.48503513	250.94231313	45.39440671	227.01291272	390.02295362	28.14043792	128.69786177	
16	3.39	204.5937321	1128.61133354	96.91755686	193.98268304	936.00175091	92.77689963	325.534797	1067.08777912	99.50977914	335.21818885	735.61112242	-1.23709052	347.49907393	740.10681546	210.16500839	219.45791679	776.85666991	106.64659501	278.41602051	408.67238042	-44.29834812	259.7375627	336.43308331	-3.3283477	95.34917027	175.21545062	-84.9544882	11.00744191	128.47432965	-65.15291237	-29.3763028	173.51055933	-70.93550026	-48.83283847	29.28091077	16.32159005	410.29889522	442.25835543	225.15095712	410.46363366	370.26068271	175.05250654	366.30069126	149.2313148	240.22745424	310.73333691	57.22117461	226.18075328	251.67820736	46.74971592	227.74222536	390.18398838	28.02510088	128.78752531	
17	3.4	215.13039456	1132.91502197	96.64256555	204.4932647	940.16720553	92.43952796	335.92110893	1071.45194136	99.16169508	346.03884578	739.60979446	-0.35185794	356.69234983	745.03415835	211.00117864	229.71216826	781.24509678	106.16937479	296.80156577	412.10267223	-42.35079718	278.91459944	339.66109675	-1.33377743	116.83753842	176.75113172	-83.80885341	32.27451955	130.09536844	-64.82498891	-8.54575355	174.72618683	-71.4114146	-27.11339332	30.26334278	17.04773952	413.09497544	444.47140721	227.61623715	411.7146926	371.85541441	177.67763754	366.81822914	150.25255036	241.92643576	311.51065218	58.07650221	226.86768156	252.49587526	48.11216444	228.44861066	390.38175771	27.89809934	128.84144817	
18	3.41	225.69692245	1137.38304184	96.25535365	214.76868694	944.52607205	92.0738258	346.25729553	1075.85410284	98.69722655	356.50776626	743.77437331	0.48268882	365.50507369	750.01988607	211.76411149	239.60196859	785.66523442	105.65797725	315.36377911	415.88383432	-40.61361243	298.51431661	343.21419498	0.46372347	138.47987181	178.84067965	-82.5802302	53.82071352	132.20561958	-64.18176598	12.22393732	176.23782212	-71.27056387	-3.46455469	31.33424327	17.89641426	415.39266668	446.80409358	230.14053851	412.57387015	373.61744466	180.35633766	367.2266099	151.40266799	243.65846484	312.28221631	58.96950878	227.52694936	253.32414929	49.48941572	229.10247267	390.57650869	27.77050328	128.87501658	
19	3.42	236.29669563	1141.90195098	95.76997858	224.83233477	948.96215053	91.69574054	356.55606735	1080.18828288	98.12887836	366.65300729	747.97990012	1.2687411	373.98868724	754.93108418	212.45901877	249.15910322	790.01054392	105.13105335	334.02918297	419.96243391	-39.14451729	318.49423697	347.04893744	1.99638673	160.19836788	181.48013029	-81.34288929	75.59072858	134.74866935	-63.2753818	32.98156169	178.0503967	-70.57532034	21.7270748	32.5433398	18.85936752	417.30947546	449.16366379	232.67453669	413.1696367	375.46684208	183.02647123	367.52918755	152.63432229	245.3760233	312.99528828	59.89473257	228.13821416	254.1031442	50.88339014	229.67168181	390.74452867	27.65099246	128.90174607	
20	3.43	246.93031059	1146.36129265	95.20232314	234.70801739	953.36248593	91.31949177	366.82781772	1084.35241492	97.47021865	376.50672821	752.10476848	2.00840661	382.19238441	759.64349997	213.09259208	258.41790161	794.18069464	104.6036486	352.7344847	424.28330704	-37.98615434	338.80878308	351.12413648	3.21286425	181.95108966	184.62240383	-80.16275211	97.55494164	137.63976002	-62.16866657	53.79045493	180.12222297	-69.42450582	48.1003803	33.94502696	19.92745595	418.96562686	451.46319471	235.1701096	413.62328096	377.32417788	185.63141324	367.73147462	153.89899793	247.03503229	313.61112303	60.84166988	228.68113896	254.787315	52.28910903	230.12497386	390.87625232	27.54536486	128.93185875	
21	3.44	257.59554084	1150.65748166	94.56968692	244.41869	957.62138065	90.95707629	377.08020269	1088.25162511	96.73554386	386.10396491	756.03544374	2.70360543	390.16179213	764.04592165	213.67280278	267.41406293	798.08469563	104.08669359	371.4295383	428.79171603	-37.16373357	359.41054781	355.40223878	4.08080513	203.72928655	188.18370188	-79.09228818	119.70451652	140.77762492	-60.92952816	74.71132477	182.37418496	-67.93848635	75.35508598	35.58494003	21.08602548	420.47995899	453.6244347	237.58135737	414.04563804	379.11351551	188.12118526	367.84327601	155.14851374	248.59604789	314.10568178	61.79489677	229.13716523	255.34633047	53.6949687	230.43549219	390.97276445	27.45659141	128.9717547	
22	3.45	268.28750105	1154.69719701	93.89023357	253.98552413	961.64386784	90.61786612	387.31798472	1091.80114308	95.9395477	395.48146682	759.67065133	3.35596416	397.93835846	768.04378255	214.20851682	276.18370742	801.64356762	103.58682943	390.07795412	433.43555375	-36.68434114	380.25076143	359.85040246	4.58771075	225.55157847	192.05322334	-78.16786178	142.04606785	144.05469695	-59.62585927	95.7925568	184.70146971	-66.24374753	103.26895163	37.48777814	22.30898299	421.96545108	455.57990139	239.86585277	414.53458976	380.7652582	190.4532458	367.87969823	156.33677442	250.02526344	314.46856687	62.73511067	229.49120387	255.76430995	55.0840582	230.58380246	391.04176727	27.38522495	129.02414573	
23	3.46	278.99899375	1158.40014117	93.18232092	263.42735639	965.34850576	90.30832578	397.54312315	1094.92875213	95.09698691	404.67662345	762.92486802	3.96670828	405.55937305	771.56185856	214.70891576	284.76266144	804.79244658	103.10657618	408.65549366	438.16725897	-36.53785118	401.27890615	364.44106741	4.74013778	247.45600953	196.10467881	-77.40962467	164.59664481	147.36448681	-58.32145148	117.06807694	186.98554419	-64.45937272	131.697867	39.64892516	23.55318307	423.52473451	457.27425002	241.98607227	415.17328847	382.21866362	192.59302174	367.86107536	157.42162248	251.29530648	314.70077095	63.64081923	229.7329257	256.03792467	56.43616611	230.55985065	391.09380888	27.32998743	129.08861956	
24	3.47	289.72100331	1161.70106597	92.4637569	272.76051043	968.66939266	90.03186908	407.7550797	1097.57670098	94.22233598	413.72650697	765.73097392	4.53656365	413.05848825	774.5459735	215.18276865	293.18596492	807.48202636	102.64481169	427.14667338	442.94508343	-36.69918964	422.44158409	369.15180152	4.56148812	269.49107316	200.20801119	-76.82359615	187.37941581	150.60585056	-57.07313348	138.56069869	189.1044732	-62.68695343	160.56378337	42.03123535	24.75505543	425.24611097	458.66501956	243.91086085	416.02910548	383.42388244	194.51422979	367.81200615	158.36664034	252.38580982	314.81182185	64.49040476	229.85746173	256.17383107	57.73017525	230.36360567	391.13927583	27.28839923	129.16243925	
25	3.48	300.44329394	1164.55100572	91.7510356	281.9989592	971.55734372	89.78886676	417.9512982	1099.70301733	93.32942702	422.66705481	768.04195201	5.06567826	420.46658192	776.96367815	215.63764216	301.48758025	809.67927319	102.19749232	445.54016022	447.73340823	-37.13157118	443.68085648	373.96425124	4.08874188	291.70679847	204.23982443	-76.40520962	210.42021435	153.68451636	-55.92903831	160.28798072	190.94023687	-61.00458945	189.83689029	44.56712561	25.83131803	427.20067126	459.72289592	245.61671205	417.15334468	384.34342659	196.1989889	367.75981025	159.14275819	253.28373124	314.81685865	65.26430216	229.86547773	256.18587801	58.94659111	230.00444027	391.18637885	27.25735898	129.24143003	
26	3.49	311.1550676	1166.91770067	91.05861141	291.15477355	973.98021463	89.57680344	428.12781495	1101.28218351	92.43107578	431.53241371	769.83155745	5.55356659	427.81279986	778.80391892	216.07915542	309.70028025	811.36737889	101.75852115	463.82360762	452.50192887	-37.79027196	464.93235222	378.8621254	3.3685493	314.14692931	208.09123726	-76.14338872	233.74506324	156.51258339	-54.92764409	182.26795866	192.38242014	-59.4649131	219.51764452	47.16515086	26.68495337	429.4410264	460.43160593	247.08862482	418.58177037	384.95301582	197.63768449	367.73276392	159.72953751	253.98339598	314.73408488	65.94704779	229.76271959	256.0924869	60.0699776	229.49955371	391.24013597	27.23361628	129.32084223	
27	3.5	321.84564236	1168.78523658	90.39826576	300.23878908	975.92240065	89.39056802	438.27995808	1102.30515683	91.53870133	440.35446121	771.09392351	5.99906631	435.1256312	780.07575597	216.51037801	317.85569369	812.54496329	101.32065825	481.97859651	457.22368864	-38.62650336	486.12350009	383.82827693	2.45310686	336.84310674	211.67221951	-76.02418292	257.37881276	159.00681838	-54.09712048	204.52321654	193.32848604	-58.09649415	249.62213849	49.71961173	27.21639459	432.00193156	460.78749412	248.32034351	420.33596265	385.24178478	198.82853264	367.7584594	160.11602335	254.48624285	314.58290631	66.52899175	229.559205	255.91452043	61.09109007	228.87186262	391.30220283	27.21410501	129.39609607	
28	3.51	332.50511945	1170.15296503	89.77861171	309.26141336	977.38358216	89.22284972	448.40309582	1102.77874237	90.66195195	449.16251391	771.84212517	6.40028758	442.43389803	780.80622704	216.93143867	325.98448567	813.22458681	100.87637177	499.9763265	461.87211816	-39.590998	507.17226945	388.84109461	1.39621925	359.81169706	214.91197443	-76.03315981	281.34496632	161.08654685	-53.45457417	227.08298302	193.68165908	-56.90755935	280.17197317	52.12143355	27.33842146	434.90274562	460.79876853	249.31389209	422.42543597	385.21185522	199.77681516	367.86255541	160.3010939	254.80027149	314.38288532	67.00751944	229.26825277	255.67383319	62.00851836	228.14778345	391.37131867	27.19613329	129.46332751	
29	3.52	343.12501189	1171.0338004	89.2047698	318.23349178	978.37682434	89.06460524	458.49339342	1102.72435121	89.80835499	457.98322787	772.10578432	6.75453318	449.76757532	781.03748507	217.33936826	334.1166427	813.43068509	100.41854624	517.77464493	466.417417	-40.6369985	527.98678932	393.87056122	0.24990245	383.05344122	217.75560128	-76.15609135	305.66654061	162.67184006	-53.00497752	249.98373013	193.34800064	-55.8907367	311.18806337	54.26853153	26.99209215	438.15131256	460.48436077	250.07845243	424.85035803	384.87729485	200.49380796	368.06806474	160.29327912	254.93921496	314.15346197	67.3876948	228.90550384	255.39254852	62.82969602	227.35523994	391.44412008	27.17745701	129.51968108	
30	3.53	353.69880742	1171.45201773	88.67823491	327.16715345	978.92616995	88.90556288	468.54853741	1102.176202	88.98301157	466.84069557	771.92786695	7.05817878	457.15839004	780.8233668	217.72816057	342.2818223	813.19707951	99.94099111	535.31689043	470.82276808	-41.72243634	548.46613786	398.87445719	-0.93818457	406.55549266	220.15801146	-76.37790889	330.36743493	163.68257909	-52.73981041	273.26887735	192.23437318	-55.02754048	342.68693703	56.07412806	26.16052283	441.74857296	459.87234517	250.6287694	427.6046197	384.26250517	200.99548823	368.39518642	160.11006413	254.92149464	313.91423269	67.68230283	228.48801907	255.09295839	63.57119373	226.52209329	391.51610703	27.15628566	129.5633431	
31	3.54	364.2224375	1171.44069675	88.19694073	336.07656742	979.06388668	88.73473278	478.56838576	1101.17904969	88.18835985	475.75674035	771.36088395	7.30652428	464.64017276	780.22557394	218.08900966	350.50971457	812.5642452	99.43872075	552.53285347	475.04097922	-42.81118957	568.50245784	403.79526688	-2.1262847	430.29481812	222.07669271	-76.68033385	355.4733935	164.0388425	-52.63567432	296.9877817	190.24864223	-54.2915528	374.67796997	57.47199698	24.87761866	445.69309283	458.99790263	250.98335275	430.67896099	383.40010899	201.30115735	368.86156756	159.77673157	254.76904352	313.68547338	67.91132407	228.03347255	254.79782429	64.25828952	225.67504768	391.58260554	27.13127291	129.59336176	
32	3.55	374.69462436	1171.03896959	87.75551291	344.97855333	978.82754429	88.54089665	488.55550354	1099.78555343	87.42403135	484.75140298	770.46275626	7.49365266	472.24894639	779.30966685	218.4106766	358.83035649	811.57652973	98.90800438	569.3419288	479.012164	-43.8734008	587.98439242	408.55835377	-3.27898696	454.24154708	223.46522131	-77.03891652	381.0114036	163.66288962	-52.65329816	321.19357669	187.30278058	-53.64971368	407.16030864	58.41829618	23.22984507	449.98476108	457.9008839	251.16276211	434.06386105	382.32844363	201.43213734	369.48280418	159.32482991	254.50609926	313.48857669	68.10091749	227.55942657	254.53079719	64.92388284	224.83895914	391.63964039	27.10153229	129.60933858	
33	3.56	385.11708297	1170.28923732	87.3456877	353.89300371	978.25710152	88.31305395	498.51554815	1098.05342515	86.68682538	493.8436005	769.2926333	7.61235327	480.02273746	778.14108149	218.67994924	367.2743395	810.27951034	98.34620847	585.65827715	482.66299039	-44.88492023	606.80168806	413.07189562	-4.36662598	478.36081061	224.26928682	-77.42036106	407.00640675	162.48277953	-52.73742592	345.93897745	183.31874176	-53.06175181	440.11866936	58.89036424	21.35051144	454.62713265	456.62310273	251.18820693	437.75194498	381.08880029	201.41068106	370.27297829	158.79037944	254.15806408	313.34615436	68.28202352	227.08268253	254.31668925	65.60687843	224.03640185	391.68469248	27.06669666	129.61108983	
34	3.57	395.4945627	1169.23452225	86.95686023	362.84308611	977.39218124	88.04080442	508.45747484	1096.0425222	85.97082305	503.05191207	767.90695744	7.65417427	488.00109166	776.78138157	218.88217779	375.87285844	808.71765927	97.75147593	601.39755924	485.90784505	-45.82601462	624.8507001	417.2289147	-5.36382256	502.61195517	224.42642791	-77.78095976	433.47454919	160.4373943	-52.81806179	371.26911447	178.23629533	-52.4784661	473.51757398	58.88342714	19.40746553	459.62821527	455.20555007	251.08058798	441.73973448	379.72257851	201.25918076	371.24507162	158.21194602	253.75050639	313.28170465	68.48872349	226.61873039	254.18141276	66.35019983	223.28733596	391.71735298	27.02701205	129.59837097	
35	3.58	405.83472249	1167.91611762	86.57672002	371.85519839	976.26970344	87.71465329	518.39354102	1093.81205817	85.26765596	512.39541516	766.35604755	7.60965988	496.22427655	775.28495224	219.00188916	384.65756029	806.93245759	97.12230446	616.48458643	488.65201955	-46.67954922	642.04045927	420.91152309	-6.24745631	526.94469061	223.86983977	-78.06673175	460.41281235	157.48238336	-52.81346009	397.21082855	172.02163023	-51.84013944	507.29385252	58.40646328	17.58624348	464.99982422	453.68575278	250.85998545	446.0286539	378.26854047	200.99968392	372.4111695	157.62872085	253.30834785	313.31889693	68.75649922	226.18133681	254.15152103	67.19860713	222.60876785	391.73988837	26.98343087	129.57074187	
36	3.59	416.14784175	1166.37168255	86.19192967	380.95865251	974.92203272	87.32623418	528.33909531	1091.4181054	84.56693332	521.89446314	764.68143862	7.46880484	504.73216714	773.69633016	219.02349465	393.66016164	804.96106281	96.45709986	630.8610858	490.79677248	-47.42889959	658.2988984	423.99725958	-6.99442787	551.29258374	222.53573528	-78.21552907	487.78564404	153.59638155	-52.63508204	423.75855411	164.67548291	-51.07664207	541.34749638	57.47846761	16.07135294	470.75588038	452.09549851	250.54549285	450.62528468	376.76035367	200.65364952	373.78244943	157.07873851	252.85524803	313.48062591	69.12052139	225.78230248	254.25340713	68.19650068	222.01437123	391.75769412	26.93765598	129.52762702	
37	3.6	426.44637708	1164.6339062	85.78880597	390.18506665	973.37577483	86.86845559	538.3121474	1088.91155357	83.85681748	531.57127178	762.91416472	7.2217253	513.56283199	772.04834108	218.9321021	402.91181606	802.83559314	95.75378554	644.49273589	492.2459102	-48.05588088	673.57878653	426.36714789	-7.57959549	575.5651436	220.37303998	-78.16101166	515.51004137	148.78681798	-52.19449181	450.85780676	156.23977746	-50.11061697	575.53131646	56.12607307	15.02838064	476.91015647	450.45911966	250.15523109	455.54093004	375.22460401	200.24182776	375.36902087	156.5973459	252.41317143	313.78802476	69.6140685	225.43139114	254.51231255	69.38589011	221.51410784	391.77955458	26.89208994	129.46858579	
38	3.61	436.74438508	1162.72983035	85.35396803	399.56745861	971.65131795	86.33558684	548.33272499	1086.33666404	83.12472283	541.45017822	761.07411313	6.8595103	522.75086796	770.36118178	218.7144256	412.44223244	800.58304644	95.0095444	657.37470781	492.91338835	-48.53900101	687.86287217	427.91487622	-7.97426321	599.64036748	217.35380167	-77.83806861	543.44128948	143.09471776	-51.41183487	478.38823771	146.80214979	-48.86450278	609.64043176	54.38300292	14.58907149	483.47397883	448.79248323	249.70636655	460.79060896	373.67944487	199.78413257	377.17973654	156.21600222	252.00210144	314.2596286	70.26714945	225.13640539	254.9513667	70.80468844	221.11392398	391.81757015	26.84965852	129.39375145	
39	3.62	447.05684165	1160.68087642	84.87492396	409.13905517	969.7631615	85.7233061	558.42203645	1083.73031741	82.35809943	551.55745646	759.17050849	6.37518691	532.32556468	768.64253734	218.35975635	422.27857069	798.22582766	94.22075363	669.53513031	492.73135935	-48.85235177	701.16770849	428.55630271	-8.14556177	623.35987272	213.48262695	-77.18901937	571.36209465	136.59804085	-50.22516626	506.14906393	136.49810638	-47.2711461	643.40334705	52.29123875	14.84064509	490.45429564	447.10278092	249.214996	466.39164344	372.13401881	199.29940453	379.22213047	155.96145466	251.63985647	314.91087891	71.10538309	224.90336795	255.59092706	72.48544878	220.81560341	391.88658323	26.81349792	129.30433478	
40	3.63	457.39889855	1158.50357223	84.34057523	418.931862	967.72101123	85.02873844	568.60147222	1081.12199527	81.54525219	561.92061554	757.20350697	5.76470866	542.30900939	766.88876529	217.86093011	432.44416806	795.78281252	93.3831479	681.03612389	491.65804347	-48.96544331	713.54562815	428.23835295	-8.05699642	646.52855155	208.80366596	-76.16979721	598.97802656	129.41321581	-48.59953164	533.85024483	125.51078762	-45.28660901	676.47710514	49.90322309	15.8197159	497.85237119	445.38916044	248.69583567	472.36203539	370.58874305	198.80501872	381.50264902	155.85529785	251.34196716	315.7541635	72.14916876	224.73676186	256.44851368	74.45460099	220.61684723	392.00294661	26.7865183	129.20304708	
41	3.64	467.78512424	1156.210913	83.74162697	428.97506882	965.53154948	84.250512	578.89149355	1078.53447498	80.67614229	572.56716268	755.16679264	5.02786341	552.71426786	765.08710208	217.21520692	442.95717407	793.27083492	92.49221542	691.97224082	489.6847437	-48.84424711	725.08435668	426.9463193	-7.67033416	668.92007005	203.40405351	-74.75531067	625.92190064	121.69455264	-46.53443512	561.11287053	114.0682769	-42.90277942	708.44948021	47.28401795	17.51053858	505.66320509	443.6441813	248.16173766	478.71884392	369.03648619	198.31635931	384.0273249	155.91388991	251.12158842	316.79958206	73.4131475	224.63979032	257.53961482	76.73216788	220.51164584	392.18254002	26.7708804	129.09430447	
42	3.65	478.22877754	1153.8142265	83.07090049	439.29339089	963.20072007	83.38885698	589.31047423	1075.98515498	79.74311891	583.52288101	753.05097241	4.16899488	563.54379283	763.21876259	216.42497356	453.82919225	790.70645205	91.54379727	702.46626055	486.84124724	-48.45362424	735.9038185	424.70861858	-6.94886201	690.2885745	197.41317493	-72.94329523	651.76892733	113.63115372	-44.06825187	587.48167195	102.43813947	-40.156832	738.85115648	44.51222755	19.84703483	513.87563822	441.8560138	247.62313466	485.47676565	367.4645816	197.84624003	386.80299538	156.14855731	250.98944047	318.05659293	74.90589412	224.61463963	258.87956593	79.33184962	220.49100618	392.43806367	26.76744122	128.98413502	
43	3.66	488.7411591	1151.32535611	82.32355179	449.9054677	960.73630689	82.44576026	599.87357743	1073.48786778	78.7415356	594.80973756	750.84747008	3.19744231	574.78821166	761.26272073	215.49818543	465.06404104	788.10781667	90.53482712	712.66232766	483.19879099	-47.76116708	746.14982526	421.59822425	-5.86187127	710.38582177	190.99757803	-70.75618141	676.06312111	105.44084723	-41.27834695	612.45122109	90.91854407	-37.13470007	767.18003539	41.67868936	22.71811745	522.47301467	440.01123003	247.08756518	492.64708776	365.85753119	197.40438658	389.83908466	156.56597835	250.9537911	319.53660802	76.62970656	224.66276105	260.48656287	82.26127202	220.54409005	392.77583564	26.7752399	128.87980094	
44	3.67	499.33108089	1148.75893582	81.49720352	460.82244967	958.15054383	81.4251687	610.59175608	1071.05498482	77.6702139	606.44359641	748.55254285	2.12762546	586.42563327	759.1998812	214.44848049	476.65675182	785.49646806	89.46411976	722.71645241	478.86978358	-46.74226832	755.98457143	417.73025757	-4.39001884	728.98182044	184.35175816	-68.24077811	698.35366241	97.36065599	-38.27617653	635.50525361	79.82515996	-33.96660406	792.93803397	38.88237995	25.97604015	531.43423075	438.09796706	246.55944513	500.23713179	364.20016201	196.99710984	393.14986401	157.16860024	251.02049765	321.25644111	78.58030419	224.78520836	262.38566559	85.5221249	220.65979079	393.19258709	26.79111032	128.78923189	
45	3.68	510.00448893	1146.13451266	80.59199762	472.04690207	955.46247438	80.33320912	621.47096065	1068.69958249	76.53172743	618.43195405	746.17099866	0.97873303	598.42159517	757.01728869	213.29491963	488.59291815	782.89884543	88.33309821	732.78452995	474.00364467	-45.38595973	765.57422152	413.25558978	-2.53100354	745.88618765	177.68540616	-65.46584903	718.23781663	89.63352588	-35.19742917	656.16583145	69.47328982	-30.81423991	815.6780295	36.22358808	29.44765486	540.73501541	436.10918223	246.0402188	508.25024469	362.48092443	196.62728498	396.75698548	157.95493535	251.19311841	323.24229653	80.74625491	224.98305056	264.61340047	89.10990778	220.8287067	393.67302902	26.80952717	128.72040273	
46	3.69	520.76426576	1143.47827293	79.61057349	483.5721388	952.69978536	79.17837028	632.51162564	1066.43742783	75.33248915	630.77193244	743.71918779	-0.22599242	610.72974377	754.71198372	212.0613315	500.84849182	780.34733575	87.14634421	743.00835833	468.77849248	-43.70076996	775.07435414	408.3507591	-0.30480213	760.9669941	171.20806664	-62.517888	735.40496931	82.49158505	-32.18819452	674.04622352	60.1555401	-27.85113569	835.05541107	33.79510119	32.94835412	550.34933633	434.04567942	245.52895002	516.68633314	360.694978	196.29471234	400.69197653	158.91961057	251.47307797	325.53376555	83.10805722	225.25781772	267.22231159	93.01307483	221.04535546	394.18916792	26.82280699	128.68075969	
47	3.7	531.61022473	1140.8241521	78.55797387	495.38206726	949.89987771	77.97157881	643.70848476	1064.28855391	74.08263629	643.44875147	741.22688717	-1.46034632	623.29329842	752.2941143	210.77526446	513.39008758	777.88069899	85.91187107	753.5006458	463.38898103	-41.71960077	784.61457368	403.20501621	2.24242418	774.1640098	165.11255265	-59.49554218	749.67483312	76.13710976	-29.38904292	688.89909277	52.11669587	-25.23945636	850.87584202	31.6728199	36.29800153	560.25089129	431.91857082	245.0233168	525.54288437	358.8467102	195.99687229	404.99830745	160.05311564	251.85984228	328.18714428	85.63700548	225.61186031	270.28459326	97.21153059	221.31033209	394.70240045	26.82177592	128.67672028	
48	3.71	542.53928915	1138.21416298	77.44147961	507.45158004	947.11000687	76.72610307	655.05073719	1062.27822865	72.79571805	656.43485967	738.73779216	-2.69657432	636.04728821	749.78895003	209.46657401	526.17581143	775.54376758	84.64105085	764.33059299	458.03130306	-39.50250226	794.28410114	398.00582738	5.03666818	785.4939972	159.55890446	-56.50318905	761.02252705	70.72348669	-26.91953617	700.65067142	45.52905787	-23.10766472	863.12937994	29.90765427	39.33738183	570.41469758	429.75086243	244.52087453	534.81637057	356.9513777	195.73000721	409.73262282	161.34130368	252.3510425	331.27734739	88.29420333	226.04845488	273.89382625	101.67464337	221.6319861	395.16927175	26.79696965	128.7131976	
49	3.72	553.54583124	1135.69785608	76.27037646	519.74747661	944.38641962	75.45723765	666.52255617	1060.43717955	71.48820302	669.68983869	736.30847221	-3.90702277	648.92147285	747.23752559	208.16570266	539.15657262	773.38638897	83.34817802	775.51213662	452.88711029	-37.13632283	804.12046221	392.92459568	7.97744917	795.0469525	154.6610673	-53.6441766	769.58457058	66.3394277	-24.8658378	709.4128859	40.47276739	-21.53354098	872.00204704	28.52051891	41.94293705	580.81881245	427.57792095	244.02037732	544.50389143	355.03564889	195.49038524	414.96477438	162.76481863	252.94249432	334.89779085	91.03026954	226.57150652	278.16390294	106.35916644	222.02713226	395.55140728	26.74034246	128.7930782	
50	3.73	564.62213219	1133.33091801	75.05566096	532.22984706	941.7925255	74.18175331	678.10390182	1058.80101916	70.17883236	683.16112559	734.00582213	-5.0659228	661.84376978	744.69576407	206.90174331	552.27778884	771.46166164	82.04970977	786.99713369	448.10866714	-34.73056999	814.10334023	388.10457553	10.94269986	802.97379882	150.47857915	-51.01422135	775.64308358	63.00000045	-23.27360041	715.46922984	36.92589228	-20.53599925	877.85978506	27.50162296	44.03725255	591.44619226	425.44669418	243.52291184	554.60487754	353.13695238	195.27554291	420.77640981	164.29872303	253.62808813	339.15785592	93.78633044	227.18478422	283.22449509	111.2076345	222.52034172	395.8295075	26.6473393	128.9166336	
51	3.74	575.75891869	1131.17300966	73.80969751	544.85380599	939.3962534	72.91713598	689.77157208	1057.40890864	68.88785281	696.78552802	731.90323107	-6.15118164	674.74392306	742.23208787	205.70041607	565.48135552	769.823596	80.76327861	798.67545317	443.80771532	-32.40943048	824.15513405	383.65280785	13.79715672	809.46768894	147.01512844	-48.69544622	779.59015748	60.64723255	-22.14720811	719.23602243	34.76774866	-20.07714512	881.20592634	26.81421848	45.59327678	602.28663114	423.4137015	243.03261562	565.12266058	351.30168536	195.08528529	427.25804685	165.9126437	254.39956273	344.17788888	96.49677283	227.89074939	289.21288471	116.14788596	223.14149392	396.02044284	26.51904238	129.08095148	
52	3.75	586.94593356	1129.28502978	72.54584228	557.57143633	937.26683396	71.6806763	701.50040454	1056.30158291	67.63616922	710.49144963	730.07586793	-7.14603204	687.55708272	739.92369833	204.58213021	578.7077328	768.52439672	79.50661091	810.3830291	440.05009083	-30.30066348	834.14874669	379.63729668	16.4036171	814.74236654	144.22469578	-46.75151366	781.87912584	59.16106316	-21.45502671	721.20679741	33.79615257	-20.073658	882.62002916	26.40190785	46.63156154	613.33862272	421.54196803	242.55682213	576.06571857	349.58248791	194.92225284	434.50476696	167.57172274	255.24621337	350.08208015	99.09393785	228.68915153	296.26260499	121.09431392	223.92150444	396.19548671	26.36396986	129.27958815	
53	3.76	598.17250529	1127.72604546	71.27805077	570.33378948	935.47129916	70.48850164	713.2645296	1055.51893028	66.44446058	724.20169956	728.59560763	-8.04036943	700.22693905	737.85186614	203.56033877	591.89800838	767.61160076	78.29649638	821.91751928	436.85706616	-28.52282136	843.92180266	376.08962761	18.63576755	819.01150467	142.02430078	-45.22423772	782.97247477	58.37882281	-21.13904072	721.89154698	33.75587907	-20.41456719	882.69055964	26.19787702	47.21139569	624.61088482	419.89721793	242.10558831	587.44842679	348.03491565	194.79194077	442.61086182	169.23855249	256.15461907	356.98993962	101.51449983	229.57562854	304.49004555	125.95124537	224.88647313	396.49674716	26.19901893	129.50271651	
54	3.77	609.42808768	1126.55014992	70.02048365	583.09279464	934.07099448	69.35465779	725.0385749	1055.09736215	65.3323068	737.83672838	727.52616666	-8.83159286	712.70808672	736.09669233	202.64041262	604.99581477	767.12530897	77.14793127	833.05965117	434.21290675	-27.17274897	853.29520878	373.01204897	20.39076131	822.47232736	140.31072989	-44.13193762	783.29608152	58.11925609	-21.1265608	721.7627122	34.37281369	-20.98136619	881.95453409	26.13419869	47.41795313	636.12320947	418.54374048	241.69069065	599.29118403	346.71391778	194.70216228	451.66392657	170.87609427	257.10850214	365.00738482	103.70676584	230.54054588	313.98084525	130.61848828	226.05088885	397.14815762	26.04905792	129.73802857	
55	3.78	620.70274256	1125.80349145	68.78712062	595.80295497	933.11836472	68.29034278	736.7987317	1055.06721255	64.31737489	751.31810245	726.91895925	-9.52477914	724.96738277	734.73185124	201.81924376	617.94900883	767.09572661	76.07350754	843.5970998	432.07669222	-26.31539665	862.0931524	370.38709214	21.59951789	825.29532178	138.97774772	-43.4696522	783.20656951	58.20623955	-21.3416757	721.2164096	35.3871308	-21.66634079	880.85393346	26.14962093	47.34812872	647.90628041	417.54037661	241.32428949	611.61983407	345.67053301	194.66205568	461.73899621	172.45135481	258.08884381	374.21863403	105.63766815	231.56825986	324.77837608	134.99861418	227.41092603	398.45726077	25.94483768	129.97252254	
56	3.79	631.98753776	1125.52167984	67.59138538	608.42274696	932.65421592	67.30337128	748.52361593	1055.45038129	63.41471256	764.57199705	726.81004009	-10.13207477	736.98419429	733.819803	201.08572071	630.7110558	767.54118715	75.08305698	853.34721571	430.39556642	-25.97761569	870.16152709	368.18744037	22.23296966	827.62009449	137.93054687	-43.21119485	782.97440157	58.48797257	-21.71461648	720.55230916	36.5796311	-22.38583214	879.71333159	26.19484945	47.09756103	660.00016686	416.93703617	241.01752573	624.46436211	344.94915033	194.6808189	472.89335802	173.93936416	259.07436479	384.68010382	107.29796255	232.63693646	336.87675218	139.00506599	228.93918927	400.8047209	25.9192388	130.1950658	
57	3.8	643.27483556	1125.7277249	66.44578122	620.91568093	932.70559295	66.39791193	760.19488572	1056.25839484	62.63619367	777.53246478	727.21830508	-10.67129731	748.74958058	733.40787094	200.4220994	643.24209048	768.46678391	74.18350769	862.17522405	429.11654339	-26.14689308	877.38236325	366.38405772	22.30317958	829.55609333	137.09533718	-43.31288581	782.78162599	58.84906298	-22.18795238	719.97095437	37.78765364	-23.08665456	878.73795661	26.23501433	46.75062717	672.45137279	416.77206049	240.77931087	637.85691705	344.58556194	194.76639156	485.16264087	175.32681998	260.04243005	396.41731034	108.70424429	233.71903042	350.22041509	142.56984284	230.58238304	404.62014837	26.00236525	130.39932394	
58	3.81	654.55845567	1126.43060948	65.36153933	633.2510163	933.28435841	65.57450183	771.79760588	1057.49101063	61.99015283	790.14422877	728.14493304	-11.16388058	760.26459282	733.52544051	199.80613955	655.50964858	769.86367851	73.37888807	870.00550655	428.1947556	-26.77510928	883.68286751	364.95137841	21.85922841	831.1863549	136.42344348	-43.7186367	782.73085881	59.21488202	-22.71935387	719.58434393	38.9098056	-23.74564867	878.02773027	26.24958977	46.37424225	685.30858922	417.07060846	240.61549913	651.82929971	344.6058881	194.92428628	498.55867896	176.61469046	260.97035723	409.42535123	109.89692692	234.78252095	364.71135042	145.64944258	232.26316355	410.3452972	26.21650961	130.58637295	
59	3.82	665.83370848	1127.62455411	64.34829156	645.40414978	934.38651451	64.83031139	783.32037165	1059.13543951	61.48123425	802.36477022	729.57390651	-11.63243902	771.53797997	734.18238269	199.21372673	667.48906966	771.70910079	72.67042371	876.82495414	427.59723798	-27.78655879	889.03880157	363.86929839	20.97875279	832.57258466	135.89052467	-44.36587209	782.86119842	59.54921592	-23.28135591	719.43443821	39.90118435	-24.36386669	877.60110862	26.23040549	46.01541179	698.61761183	417.84409378	240.52851325	666.41015938	345.02631089	195.15671042	513.06947588	177.81914404	261.8370114	423.67293353	110.93421532	235.79296373	380.22344541	148.22798358	233.88678304	418.38860779	26.5723392	130.76616804	
60	3.83	677.0973076	1129.28899068	63.41379134	657.35670782	935.99227101	64.15961432	794.75521933	1061.16621436	61.11046387	814.16553551	731.47337117	-12.09832128	782.58364499	735.36866561	198.62159671	679.16357814	773.96700492	72.0567048	882.67878786	427.30254752	-29.08881661	893.4728513	363.12249417	19.75674694	833.76041099	135.49225279	-45.19159049	783.16696183	59.84724879	-23.85899035	719.51450096	40.76222392	-24.95774387	877.42252737	26.17853765	45.70187051	712.41615705	419.09056255	240.51737205	681.6222262	345.85344513	195.46204102	528.66135451	178.97040937	262.62447479	439.10921943	111.88309593	236.71629683	396.62170849	150.31692479	235.35211033	429.07775803	27.06756303	130.95713011	
61	3.84	688.34718055	1131.38922481	62.56371611	669.09637824	938.06682889	63.5544124	806.09736225	1063.54568871	60.87553428	825.53217435	733.79758083	-12.57953787	793.41819827	737.05501959	198.00975416	690.52405443	776.58930399	71.53393333	887.66038244	427.29737511	-30.58467312	897.04916904	362.69803322	18.29356236	834.78421644	135.23799853	-46.13778334	783.61595032	60.12621106	-24.44629413	719.78930068	41.52466244	-25.54969992	877.42838989	26.100836	45.44485	726.72943423	420.79580029	240.57797696	697.47993702	347.08512432	195.83464547	545.28308628	180.1095272	263.31951652	455.67215831	112.80913689	237.52213428	413.7825801	151.9514354	236.56541739	442.61853996	27.68872239	131.18351139	
62	3.85	699.58220394	1133.87773265	61.80158547	680.61651638	940.5618176	63.00516903	817.34479666	1066.2251112	60.77127136	836.46382643	736.48921005	-13.0893784	804.05890509	739.19447442	197.36324058	701.56852171	779.51757617	71.09627472	891.89730664	427.57166705	-32.18333548	899.8654149	362.58231523	16.6839365	835.67131246	135.14393223	-47.155526	784.16501503	60.4157633	-25.04260582	720.21168249	42.2376243	-26.16012631	877.54822956	26.00669734	45.24299229	741.56724625	422.93491831	240.70348615	713.98775587	348.71139313	196.26499887	562.87148413	181.28335291	263.91458551	473.29666218	113.76716936	238.18707253	431.61098072	153.18408696	237.45431964	459.06820014	28.41571976	131.47090054	
63	3.86	710.80189573	1136.69600454	61.128821	691.91556397	943.41729156	62.50161125	828.49782227	1069.14619302	60.79023318	846.9715834	739.48187315	-13.63589704	814.52223076	741.72458442	196.67303927	712.30139752	782.68512353	70.73632779	895.5359828	428.11368234	-33.80937434	902.04350646	362.7581962	15.00845688	836.44536213	135.22664795	-48.20731963	784.77173795	60.74959239	-25.64933344	720.73447131	42.95583346	-26.80195274	877.71943527	25.90549498	45.08656942	756.92310105	425.47419721	240.88464081	731.13934993	350.71556411	196.74004221	581.35768041	182.53850632	264.40812353	491.92108923	114.79461712	238.69743333	450.0504396	154.07700869	237.97884984	478.32899219	29.22764932	131.84100852	
64	3.87	722.00609862	1139.77681892	60.54495579	702.99632751	946.56416374	62.03356106	839.55851977	1072.24306696	60.92337899	857.07634537	742.70274339	-14.22227543	824.82307014	744.57017754	195.93607193	722.73258278	786.01926624	70.44569643	898.72714276	428.90602484	-35.40839526	903.72006837	363.20284391	13.32827771	837.12896573	135.49805853	-49.26759872	785.40191952	61.15901265	-26.26759054	721.31779199	43.73091025	-27.47819514	877.8954199	25.80486773	44.96139864	772.7753947	428.3730407	241.10999132	748.91759462	353.07528001	197.24374187	600.67316757	183.91517279	264.80413542	511.49101483	115.90846724	239.05092994	469.08448314	154.69382771	238.13710698	500.16352595	30.10793307	132.30735372	
65	3.88	733.19468605	1143.04681352	60.04798024	713.86517177	949.92693558	61.59175094	850.53022388	1075.44452322	61.16074103	866.80634937	746.07520229	-14.84790945	834.97463219	747.64649245	195.15440231	732.87647589	789.44376439	70.21561171	901.6137391	429.92319372	-36.94902516	905.03734792	363.88657003	11.68329291	837.74532312	135.96194473	-50.32161645	786.03319777	61.66876988	-26.89681346	721.93256291	44.60582919	-28.18221182	878.04817262	25.70988898	44.85209256	789.09028904	431.58597214	241.36606106	767.2952081	355.76358971	197.7578283	620.75471213	185.44170495	265.11112255	531.96002919	117.10589799	239.25695861	488.72978986	155.09255376	237.9642054	524.22880597	31.04702582	132.87332691	
66	3.89	744.36731641	1146.42921332	59.6347897	724.53118701	953.42657098	61.16856957	861.41702513	1078.67640279	61.49203573	876.19466144	749.52146293	-15.50994313	844.98885468	750.86258908	194.33388162	742.75099956	792.8812708	70.03752857	904.32229347	431.1307446	-38.4214156	906.13515317	364.77264655	10.09343257	838.31893218	136.61221483	-51.36311991	786.65551168	62.29483596	-27.53423575	722.56115498	45.6120601	-28.8999114	878.16672601	25.62299405	44.74450126	805.82557344	435.06464808	241.63754503	786.23571372	358.75007092	198.26268969	641.5474703	187.13085665	265.34063357	553.28806672	118.36771698	239.33550596	509.02362223	155.32014419	237.5249471	550.12212473	32.04191977	133.53337527	
67	3.9	755.52325169	1149.84656931	59.30168436	735.00538351	956.98336009	60.75867704	872.22332709	1081.86403588	61.90716206	885.27689489	752.96510361	-16.20491154	854.87716239	754.12492735	193.48253066	752.37671609	796.25572843	69.90361792	906.95796567	432.48584056	-39.83298052	907.14417425	365.81796394	8.56234867	838.87536978	137.43268541	-52.39132544	787.26929207	63.04376982	-28.17494254	723.19613605	46.76868724	-29.61291456	878.25322932	25.54445074	44.6273547	822.93465456	438.7598487	241.90764383	805.69442644	362.0020122	198.73836933	663.00598847	188.97821687	265.50575573	575.4383182	119.66326123	239.31492912	530.00913406	155.40899121	236.90215645	577.4302142	33.0928757	134.27702868	
68	3.91	766.66124775	1153.2233692	59.04486353	745.29996187	960.51962687	60.35942943	882.95348043	1084.93462113	62.39655308	894.08935594	756.33343453	-16.93016222	864.65135881	757.34100576	192.60895037	761.77608617	799.49463278	69.80709158	909.60304318	433.93882305	-41.20242905	908.18087297	366.97431823	7.08252382	839.44030179	138.39805047	-53.40771912	787.88227007	63.91316819	-28.81218395	723.83781801	48.08282204	-30.30168712	878.31814118	25.47311665	44.49319144	840.3698842	442.62334558	242.15858536	825.61924362	365.48561174	199.16557232	685.09318262	190.96303441	265.61983339	598.37397055	120.95537012	239.22902987	551.72213043	155.37519662	236.1834541	605.77342484	34.19869706	135.09458198	
69	3.92	777.77951925	1156.48839712	58.86085556	755.42770246	963.96215305	59.97106375	893.61151124	1087.81944855	62.95136835	902.66773729	759.55961321	-17.68479556	874.32445346	760.42293468	191.72099773	770.97290201	802.53108153	69.74233096	912.31816611	435.43542183	-42.55327889	909.34398318	368.19010807	5.64078486	840.03795654	139.47566153	-54.41316437	788.50570234	64.8927839	-29.43769197	724.49115023	49.55078181	-30.94790297	878.37566096	25.40723629	44.33867999	858.08467832	446.60948084	242.37230988	845.95115675	369.16708505	199.52655423	707.77776462	193.05119326	265.69557024	622.05584772	122.20439432	239.11387471	574.18190638	155.2183244	235.44922085	634.83868291	35.35215866	135.98269977	
70	3.93	788.87577806	1159.57673867	58.74683264	765.40150833	967.24421538	59.59661534	904.200956	1090.45588164	63.56353752	911.04639445	762.58443052	-18.46997947	883.91126671	763.29079216	190.8248798	779.99190008	805.30553455	69.70482925	915.14543801	436.9192945	-43.90793647	910.71256419	369.41225807	4.22332027	840.68936051	140.62777602	-55.40571255	789.1506805	65.96600048	-30.04188594	725.1624254	51.15970277	-31.53567724	878.44004612	25.34508353	44.16443114	876.03422063	450.67625989	242.531224	866.62454582	373.01352735	199.80576144	731.03084094	195.19970068	265.74449364	646.44158853	123.37076171	239.00472131	597.38734465	154.9223262	234.76377095	664.3978326	36.53695105	136.94815799	
71	3.94	799.94733779	1162.43135059	58.70077554	775.23412322	970.30716214	59.2415712	914.72481027	1092.78902907	64.22568524	919.25816206	765.35770009	-19.28862671	893.42871189	765.87558444	189.92472992	788.8585388	807.76721117	69.69099329	918.11259135	438.33467755	-45.28315043	912.3454911	370.58823718	2.81954879	841.41066901	141.81401064	-56.37938862	789.82505324	67.11147515	-30.61400689	725.85625428	52.8894254	-32.05172127	878.52303733	25.28533618	43.97439265	894.17488572	454.78578737	242.61889452	887.56742656	376.99337104	199.99013096	754.82250353	197.36177748	265.77659589	671.48645811	124.416172	238.93325285	621.31801817	154.45743248	234.17067492	694.31099808	37.72695187	138.00841415	
72	3.95	810.99127291	1165.00414492	58.72147572	784.93803268	973.10148523	58.91329559	925.18559163	1094.77304917	64.93098209	927.33460753	767.839197	-20.14454554	902.89572074	768.12162263	189.02265433	797.59891235	809.87506247	69.69787486	921.23750849	439.62899416	-46.68726156	914.2822391	371.6680816	1.4245084	842.21193159	142.99381944	-57.32405721	790.53135516	68.30486507	-31.14233239	726.57324946	54.7146006	-32.48479807	878.63232398	25.22715772	43.77493128	912.46278062	458.90396139	242.62056493	908.70186541	381.0763214	200.06902465	779.11915519	199.49156652	265.79987468	697.14541278	125.30387661	238.92516301	645.93899633	153.78290357	233.69210972	724.51719278	38.88801419	139.18856117	
73	3.96	822.00461688	1167.25657061	58.80838655	794.52554348	975.58737231	58.62029598	935.58551136	1096.37204416	65.67297324	935.30658119	769.99911003	-21.04126219	912.33284351	769.98813657	188.1191837	806.23976421	811.59827481	69.72290847	924.53257845	440.75527868	-48.11928033	916.54480807	372.60634549	0.039758	843.09660593	144.12887066	-58.2262831	791.26599753	69.52061284	-31.61465138	727.30878708	56.60700211	-32.82502075	878.77086019	25.17004056	43.57373843	930.8519443	462.99946481	242.52342764	929.94475334	385.23273556	200.0338485	803.88207867	201.54762079	265.81950681	723.37573281	125.99865179	238.99802927	671.20754567	152.85058233	233.33130907	755.01608966	39.98188947	140.51516545	
74	3.97	832.98458079	1169.15970848	58.96135712	804.00902233	977.73475055	58.37141792	945.92674342	1097.56051917	66.44543438	943.20491022	771.81799118	-21.98075365	921.76160946	771.44998613	187.21402906	814.80856307	812.91628619	69.76372127	928.00854667	441.67425343	-49.56950498	919.14062681	373.36388401	-1.32695943	844.06206133	145.18521393	-59.07092621	792.01981418	70.73378153	-32.01911897	728.05308144	58.53800648	-33.06351775	878.93685799	25.11352045	43.3787244	949.29275563	467.04221857	242.31665193	951.20905094	389.43250923	199.87746603	829.06740908	203.49466364	265.83650323	750.13943303	126.46700507	239.15937934	697.07990089	151.60916003	233.07673896	785.84544911	40.9714461	142.00820882	
75	3.98	843.92877546	1170.69392023	59.18029739	813.40126206	979.52285816	58.17506468	956.21177313	1098.3234007	67.24229526	951.06109285	773.28620799	-22.96231871	931.20377554	772.49739671	186.30702233	823.3336114	813.81832825	69.81805534	931.6776578	442.35586355	-51.02120585	922.06625471	373.90933645	-2.66289996	845.10118433	146.13512331	-59.84310559	792.77987984	71.92190145	-32.34549462	728.79262584	60.48114188	-33.19282088	879.12436449	25.05689574	43.19706413	967.7309986	471.001557	241.99122964	972.40550904	393.6436257	199.59354248	854.62726964	205.30353922	265.84587586	777.40473203	126.67793201	239.40488278	723.5166157	150.00896517	232.90652678	817.05830786	41.82606552	143.67268284	
76	3.99	854.83542585	1171.84810968	59.46483052	822.71593754	980.93940172	58.03852824	966.44380197	1098.65563011	68.05765612	958.90787435	774.40292776	-23.98176532	940.68061376	773.13473167	185.3991097	831.84416717	814.30253905	69.88381195	935.55598466	442.78007671	-52.45286049	925.31164749	374.22014534	-3.95194049	846.20501235	146.95849572	-60.53015348	793.53234375	73.06674171	-32.58663711	729.51283672	62.41454861	-33.20807783	879.32438369	24.99907417	43.03450858	986.1078589	474.84442781	241.53973763	993.44476442	397.83058241	199.1759495	880.51147607	206.94967662	265.83454637	805.14604576	126.60424654	239.71666587	750.48551325	148.00693084	232.79187372	848.70301031	42.5260553	145.49132403	
77	4.0	865.70357161	1172.61866984	59.81398749	831.96811061	981.97937422	57.96749594	976.62717825	1098.56137032	68.88590432	966.77962101	775.17469078	-25.03101966	950.21238537	773.37840479	184.49326149	840.37056635	814.37472262	69.95920171	939.66488378	442.93681413	-53.84050651	928.86467135	374.28294834	-5.17631578	847.36609795	147.64369986	-61.12324724	794.26586414	74.1558753	-32.74001943	730.20152093	64.32316452	-33.10891201	879.52647181	24.93862377	42.89499111	1004.36092713	478.53389966	240.95612096	1014.23963809	401.95292827	198.61832912	906.66900682	208.41066893	265.77938659	833.34221372	126.22423012	240.06182983	777.96179133	145.57123798	232.69860634	880.80790856	43.06511459	147.41963971	
78	4.01	876.53324716	1173.00820301	60.22599311	841.17473885	982.6436249	57.96576991	986.76781846	1098.05288484	69.72192002	974.71244327	775.61366173	-26.09818587	959.81812397	773.25411587	183.59516596	848.94433235	814.04685702	70.04296945	944.03153945	442.82499721	-55.15993316	932.71546147	374.0932299	-6.31827963	848.58209978	148.1878169	-61.61851916	794.97510826	75.18389122	-32.80896156	730.8526085	66.20045996	-32.90150996	879.72063052	24.87403588	42.7804731	1022.42610095	482.02818721	240.2355758	1034.70743772	405.96412343	197.91387149	933.04844459	209.66366021	265.64585395	861.97291898	125.5231492	240.39133843	805.92529254	142.68503006	232.58658979	913.37137545	43.45027057	149.38389912	
79	4.02	887.32563239	1173.02410804	60.69818118	850.35513739	982.93728652	58.03520887	996.87357995	1097.14916807	70.56134363	982.74405154	775.73567898	-27.16802125	969.51580215	772.79365023	182.7135916	857.59825143	813.33547136	70.13466026	948.68858208	442.45084015	-56.38859713	936.86016108	373.65421785	-7.36162448	849.85896646	148.596283	-62.01756452	795.66372951	76.15312973	-32.8032798	731.46949844	68.04958645	-32.60036924	879.89921967	24.80413911	42.69092668	1040.24014453	485.28030079	239.37456774	1054.7720892	409.81088199	197.05531688	959.59682776	210.6831383	265.38764763	891.01350026	124.49412187	240.63952265	834.3552902	139.34859734	232.40733136	946.35684156	43.69918651	151.28227437	
80	4.03	898.08316184	1172.67713484	61.22706062	859.53133919	982.8681756	58.17587896	1006.95454311	1095.87442089	71.40086564	990.91335477	775.5582443	-28.22274708	979.32289266	772.03151376	181.86033624	866.3663838	812.26002128	70.23489679	953.67281448	441.82564973	-57.5072729	941.30358083	372.97512875	-8.29307635	851.21307477	148.88201458	-62.32737127	796.34627552	77.07386987	-32.73912951	732.06738846	69.88384738	-32.22913267	880.05858159	24.72855509	42.62436462	1057.74359501	488.2383256	238.37096985	1074.36598071	413.43309745	196.03515338	986.25675462	211.43950915	264.9476753	920.42855839	123.13788733	240.72452036	863.22339039	135.5795528	232.10063941	979.69193838	43.83522737	152.98889185	
81	4.04	908.80957886	1171.98000747	61.80853464	868.72830125	982.4452841	58.38638162	1017.02316537	1094.25647377	72.23849241	999.25983282	775.09860878	-29.24309082	989.25726293	771.00167758	181.04973053	875.28397364	810.84139061	70.34564314	959.02315415	440.96346789	-58.50150208	946.06040721	372.06897571	-9.10361245	852.67181309	149.06415237	-62.55976918	797.04862479	77.96396919	-32.63795815	732.67411122	71.72643859	-31.82007355	880.20013002	24.64806956	42.5768871	1074.88370181	490.84625699	237.22425675	1093.43147667	416.76439744	194.8459526	1012.96205767	211.89857512	264.26042702	950.16492135	121.46123668	240.55001203	892.48534018	131.41076091	231.59157134	1013.27049225	43.88107511	154.36025196	
82	4.05	919.50992334	1170.94621555	62.43825426	877.97391128	981.67748096	58.66431347	1027.09427631	1092.32526266	73.07374182	1007.82272773	774.37211023	-30.20944809	999.33827459	769.73468538	180.29772295	884.38721745	809.10063362	70.47043251	964.77798282	439.87889095	-59.36289112	951.15476533	370.95022729	-9.78973099	854.27234046	149.16659324	-62.73053997	797.80677404	78.84802233	-32.52464886	733.32925051	73.60944898	-31.41203855	880.33076885	24.56480102	42.54279084	1091.61713628	493.04528359	235.93565772	1111.92212661	419.73333798	193.48076782	1039.63279253	212.02184758	263.255652	980.14464265	119.47416439	240.00861058	922.0726598	126.88611686	230.78904584	1046.95603309	43.85196551	155.24333291	
83	4.06	930.19044502	1169.58906826	63.11206793	887.29875758	980.57254013	59.00680466	1037.18489084	1090.11146425	73.90772768	1016.64010285	773.39090132	-31.1030557	1009.58790666	768.25534264	179.6206343	893.71284874	807.05805221	70.61453352	970.97216391	438.58533215	-60.09024467	956.618173	369.63263229	-10.35465166	856.05855135	149.21648574	-62.85834683	798.66407055	79.75614315	-32.42508139	734.08159874	75.57216776	-31.04692723	880.46261218	24.48208357	42.51484085	1107.91228959	494.77542124	234.50816521	1129.80363791	422.26523208	191.93351585	1066.17055997	211.76754286	261.86306512	1010.25876044	117.18614399	238.98719009	951.885061	122.0546688	229.587385	1080.58562191	43.74975668	155.48472178	
84	4.07	940.85843922	1167.9210966	63.82651415	896.73563396	979.13660047	59.41107792	1047.31382861	1087.64538948	74.74310301	1025.74781493	772.16317981	-31.90707765	1020.03168839	766.58116398	179.03372197	903.29749916	804.73268052	70.78502614	977.63403107	437.09389379	-60.69044637	962.48615681	368.12750083	-10.80935643	858.07659096	149.24284614	-62.96364054	799.66726072	80.72246698	-32.3634444	734.98527932	77.65881348	-30.7650374	880.61204719	24.40404006	42.48480613	1123.75105356	495.97744923	232.94631814	1147.05469114	424.28460633	190.19927696	1092.45524103	211.09214306	260.01769789	1040.36254197	114.60225126	237.37427151	981.78455822	116.96396913	227.87169114	1113.97311323	43.5590248	154.94027957	
85	4.08	951.52200754	1165.9538719	64.57929415	906.3187623	977.37414037	59.87496735	1057.50114295	1084.95621784	75.58384651	1035.17843437	770.69299841	-32.60752088	1030.69921811	764.72170495	178.54972964	913.1768048	802.14222373	70.99075478	984.78266356	435.41291727	-61.17894087	968.79399379	366.44266303	-11.17331759	860.36955792	149.27540475	-63.06769011	800.86195555	81.78342398	-32.35969852	736.09506117	79.91586153	-30.59982538	880.7982123	24.33490431	42.44429842	1139.1300369	496.59516544	231.25573043	1163.66765062	425.71828086	188.27448004	1118.34406315	209.95250462	257.66545699	1070.27287966	111.72008646	235.06931808	1011.5920303	111.65385318	225.527369	1146.91139935	43.24619695	153.48506583	
86	4.09	962.18975272	1163.698282	65.36965885	916.0827299	975.28851625	60.39733478	1067.76737647	1082.07163182	76.43489331	1044.96013478	768.98069123	-33.19391674	1041.62406343	762.67885086	178.17760634	923.38424197	799.30347015	71.24212597	992.42574867	433.54820123	-61.5796525	975.57217197	364.58223051	-11.47472307	862.97226292	149.34372202	-63.19187562	802.28824627	82.97577889	-32.42761694	737.46154585	82.38917557	-30.57283382	881.04096389	24.27823128	42.38585128	1154.06119757	496.57803574	229.44240618	1179.64916769	426.49905968	186.1569904	1143.67357125	208.30860002	254.76844952	1099.76839259	108.52851794	231.99344299	1041.08677967	106.15199171	222.45332783	1179.17367725	42.76236559	151.02342233	
87	4.1	972.8704237	1161.16527647	66.19864679	926.06115935	972.88307208	60.97832206	1078.13267446	1079.01788359	77.30162912	1055.11555741	767.02391012	-33.6597275	1052.84288604	760.44807617	177.92156062	933.94970034	796.23316509	71.55072322	1000.55829085	431.503823	-61.92420525	982.84221628	362.54718364	-11.75001304	865.9070337	149.47652816	-63.3573694	803.97722695	84.33438792	-32.57382379	739.12702917	85.12112535	-30.68972149	881.35839201	24.23617406	42.30408611	1168.57186044	495.88433264	227.51196578	1195.02059356	426.56998551	183.8461766	1168.26462509	206.12701483	251.30965935	1128.59263093	105.00912623	228.10063691	1070.00940771	100.47247345	218.57754217	1210.51427288	42.04989694	147.49913476	
88	4.11	983.57253434	1158.36705528	67.06912019	936.28515648	970.16277791	61.61938496	1088.61580105	1075.82029104	78.18928215	1065.66065341	764.81922129	-34.00246373	1064.3937093	758.02062268	177.78057207	944.89783153	792.94929859	71.92872343	1009.16236362	429.28345945	-62.25037686	990.61349796	360.3367113	-12.04258918	869.18152446	149.70114915	-63.58530375	805.94912095	85.8895909	-32.79819649	741.12290264	88.14779465	-30.93843656	881.76395505	24.2089801	42.19676752	1182.70404915	494.48481649	225.46898408	1209.81802353	425.88904098	181.34308453	1191.93007081	203.38524786	247.29659893	1156.46060503	101.14084019	223.38824961	1098.06811877	94.61830156	213.8728654	1240.66996569	41.05228064	142.90537603	
89	4.12	994.30398393	1155.31862798	67.98556383	946.78161187	967.13630381	62.3230722	1099.23311445	1072.5041212	79.10226023	1076.60351731	762.3641754	-34.22352738	1076.31334159	755.3864763	177.74842198	956.24625016	789.47271653	72.38811952	1018.20801279	426.89207539	-62.599805	998.88153133	357.9501497	-12.40063963	872.78928673	150.04280284	-63.89746013	808.21357981	87.66414609	-33.09586853	743.46940999	91.49626521	-31.29051838	882.26338435	24.19478378	42.06555191	1196.51300951	492.36689633	223.31669461	1224.09170532	424.43406082	178.65087717	1214.48432594	200.07666606	242.7636134	1183.06868291	96.90764555	217.90519072	1124.94841317	88.58803683	208.37045682	1269.36300587	39.72594431	137.29366654	
90	4.13	1005.07170507	1152.03962559	68.95363726	957.57145885	963.81838127	63.09254228	1109.99756386	1069.09578032	80.04348722	1087.94324673	759.65973032	-34.32782323	1088.63407776	752.53795483	177.81423664	968.00370167	785.82892002	72.93978222	1027.65530787	424.33783005	-63.01505083	1007.62806867	355.38930646	-12.87412502	876.71349971	150.52350682	-64.31740129	810.77251508	89.66965839	-33.46083947	746.17835675	95.18184906	-31.70620611	882.85168572	24.1896954	41.91624817	1210.06474832	489.53902544	221.0573171	1237.90448122	422.20746368	175.77568987	1235.75385222	196.21567834	237.77257276	1208.10771681	92.30848939	211.75624055	1150.32602711	82.38595559	202.1680724	1296.3070608	38.05209882	130.78045764	
91	4.14	1015.88135955	1148.55621123	69.97950243	968.66800951	960.23225164	63.9308502	1120.91777535	1065.62419314	81.01379476	1099.66889722	756.71287136	-34.32320367	1101.37991302	749.47364972	177.96347433	980.16834246	782.04987927	73.59242561	1037.45741485	421.63404291	-63.53620415	1016.82305351	352.6609212	-13.51107896	880.93377627	151.16037082	-64.87182302	813.62551486	91.90258805	-33.89088192	749.25897	99.20509272	-32.14344698	883.51082683	24.18814534	41.75841831	1223.43238422	486.03486601	218.69320112	1251.32892442	419.24024545	172.72799326	1255.58740432	191.84238293	232.41175829	1231.27905404	87.36774325	205.10105505	1173.88287806	76.03414153	195.43088936	1321.2171204	36.04625291	123.54936535	
92	4.15	1026.73709771	1144.90290345	71.06897913	980.0754993	956.41195817	64.84007549	1131.99729472	1062.12222548	82.01142178	1111.75864126	753.53924271	-34.21982226	1114.56260463	746.20240054	178.179239	992.72629798	778.17566129	74.35156947	1047.56445356	418.80105317	-64.19728592	1026.42823054	349.77900489	-14.3534804	885.43541417	151.96317775	-65.59176729	816.77748603	94.34016056	-34.39308615	752.72654028	103.54844879	-32.57009781	884.20899082	24.18343558	41.60415931	1236.69113821	481.91654456	216.22883882	1264.44289311	415.59454243	169.52444369	1273.86502402	187.02570529	226.79284035	1252.31281278	82.14401119	198.14694876	1195.32559087	69.58409194	188.38348754	1343.8239075	33.76301656	115.8468462	
93	4.16	1037.64138964	1141.12409841	72.22660534	991.78797308	952.40420927	65.820396	1143.23405096	1058.62798354	83.03166669	1124.17927597	750.16557505	-34.02946613	1128.17799196	742.74692647	178.44377488	1005.65067594	774.25565733	75.21860882	1057.92783423	415.86779327	-65.02276474	1036.40198148	346.76681403	-15.43304643	890.21993403	152.93138429	-66.51325918	820.2476877	96.93678893	-34.98908494	756.61279744	108.17272487	-32.97773336	884.90249236	24.16845076	41.46595549	1249.91189731	477.27617723	213.67359901	1277.3233743	411.3640305	166.19004848	1290.50494737	181.86397951	221.0459656	1270.98740113	76.73488041	191.13533672	1214.40581747	63.12492639	181.29298098	1363.89257284	31.29435234	107.96950446	
94	4.17	1048.59493022	1137.27506495	73.45469472	1003.78863938	948.26953334	66.86923102	1154.62009756	1055.18581024	84.06672614	1136.88624371	746.63166867	-33.7649157	1142.20301844	739.14670663	178.73998426	1018.9012053	770.349198	76.19010227	1068.50475175	412.87288197	-66.02454355	1046.70479908	343.65824297	-16.76736205	895.31532581	154.05094693	-67.67692675	824.07886154	99.62189398	-35.71883769	760.9762789	113.01375802	-33.39468759	885.54145121	24.1364623	41.35359209	1263.15348988	472.23484024	211.04480965	1290.0387368	406.67152974	162.76030882	1305.46784427	176.48211274	215.31313139	1287.14871233	71.27556482	184.32273209	1230.94096437	56.78537447	174.44486497	1381.24441451	28.76060084	100.24242291	
95	4.18	1059.59661797	1133.4222005	74.75248836	1016.04980226	944.08246757	67.98058028	1166.14167598	1051.84680197	85.10574133	1149.82432125	742.99167613	-33.43934753	1156.59387706	735.45969927	179.05281711	1032.42463988	766.52537128	77.25737673	1079.26253736	409.86503702	-67.19977509	1057.30474204	340.49845092	-18.35679251	900.7842043	155.29163497	-69.12623845	828.34482384	102.30017328	-36.64187813	765.91041393	117.98015231	-33.89544809	886.07996777	24.08191331	41.27028293	1276.45412376	466.9383559	208.37061669	1302.6398588	401.66346826	159.2828664	1318.75805975	171.02493886	209.74021705	1300.72680125	65.930348	177.95827074	1244.8331584	50.72755321	168.11463054	1395.77914344	26.29528595	92.98985423	
96	4.19	1070.64360523	1129.64237963	76.11549399	1028.53344364	939.93058611	69.14466933	1177.77962284	1048.66869394	86.13505971	1162.92909318	739.31443352	-33.06576339	1171.28561336	731.7625285	179.37040697	1046.15600401	762.86191218	78.40651745	1090.18259182	406.90262839	-68.52981812	1068.18222761	337.34357965	-20.18260419	906.72812911	156.60565936	-70.90415286	833.15477549	104.8553312	-37.83516182	771.54687958	122.95324316	-34.60348995	886.49079877	24.00100997	41.20837672	1289.8228204	461.54968859	205.69193061	1315.15100511	396.50132668	155.81811466	1330.42174685	165.64707046	204.46825027	1311.74732545	60.87720241	172.26063841	1256.08354195	45.13213851	162.5392758	1407.4940692	24.02649537	86.50190604	
97	4.2	1081.73140855	1126.02129712	77.53509102	1041.19247399	935.9122757	70.34797736	1189.51011514	1045.7150082	87.13870582	1176.12925231	735.68262564	-32.65640475	1186.1933711	728.14885675	179.68487023	1060.02067277	759.44311581	79.61877375	1101.26361765	404.05225543	-69.98054913	1079.33359782	334.25947819	-22.20664525	913.2867148	157.92847968	-73.04822959	838.65279777	107.15797335	-39.38708246	778.0521513	127.79057079	-35.68522162	886.78345683	23.89189126	41.14523837	1303.23205056	456.23837487	203.06278973	1327.56172658	391.35078297	152.43828172	1340.54199257	160.50037411	199.62467543	1320.33495564	56.2876777	167.39775288	1264.79868425	40.17666941	157.89320302	1416.49589805	22.0588625	81.00277787	
